{"version": 0.6, "generator": "Overpass API 0.7.61.8 b1080abd", "osm3s": {"timestamp_osm_base": "2026-02-16T14:09:02Z", "copyright": "The data included in this document is from www.openstreetmap.org. The data is made available under ODbL."}, "elements": [{"type": "node", "id": 1454345141, "lat": 51.5216468, "lon": 0.067178, "tags": {"amenity": "bicycle_parking", "bicycle_parking": "stands", "capacity": "26", "covered": "no", "fee": "no"}}, {"type": "node", "id": 1454828255, "lat": 51.5228761, "lon": 0.0699952, "tags": {"amenity": "bicycle_parking", "bicycle_parking": "stands", "capacity": "8", "check_date:capacity": "2022-03-21", "covered": "no"}}, {"type": "node", "id": 1454829915, "lat": 51.5229245, "lon": 0.0701212, "tags": {"amenity": "bicycle_parking", "bicycle_parking": "stands", "capacity": "8", "check_date:capacity": "2022-03-21", "covered": "no"}}, {"type": "node", "id": 1454830973, "lat": 51.5233072, "lon": 0.0719294, "tags": {"amenity": "bicycle_parking", "bicycle_parking": "stands", "capacity": "10", "check_date:capacity": "2022-03-21", "covered": "no"}}, {"type": "node", "id": 1454832652, "lat": 51.5224143, "lon": 0.0687996, "tags": {"amenity": "bicycle_parking", "bicycle_parking": "stands", "capacity": "8", "check_date:capacity": "2022-03-21", "covered": "no"}}, {"type": "node", "id": 1467314344, "lat": 51.5172373, "lon": 0.0751803, "tags": {"amenity": "bicycle_parking", "bicycle_parking": "stands", "capacity": "6", "covered": "no"}}, {"type": "node", "id": 1467314365, "lat": 51.5168558, "lon": 0.0794627, "tags": {"amenity": "bicycle_parking", "bicycle_parking": "stands", "capacity": "18", "check_date:capacity": "2024-06-07", "covered": "no"}}, {"type": "node", "id": 1640831269, "lat": 51.5319398, "lon": 0.1470018, "tags": {"amenity": "bicycle_parking", "bicycle_parking": "stands", "capacity": "8", "check_date": "2024-05-29", "covered": "no"}}, {"type": "node", "id": 1777173941, "lat": 51.595569, "lon": 0.0907633, "tags": {"amenity": "bicycle_parking", "bicycle_parking": "stands", "capacity": "48", "covered": "yes", "note": "half covered and half uncovered"}}, {"type": "node", "id": 2629051183, "lat": 51.5861627, "lon": 0.0885718, "tags": {"amenity": "bicycle_parking", "bicycle_parking": "stands", "capacity": "16", "operator": "TFL"}}, {"type": "node", "id": 2629051347, "lat": 51.5868974, "lon": 0.0857107, "tags": {"amenity": "bicycle_parking", "capacity": "6"}}, {"type": "node", "id": 3194887464, "lat": 51.5389202, "lon": 0.0807493, "tags": {"amenity": "bicycle_parking", "bicycle_parking": "stands", "capacity": "10", "covered": "no"}}, {"type": "node", "id": 3194985509, "lat": 51.53775, "lon": 0.0798562, "tags": {"amenity": "bicycle_parking", "bicycle_parking": "stands"}}, {"type": "node", "id": 3202060544, "lat": 51.5427521, "lon": 0.1657593, "tags": {"amenity": "bicycle_parking", "bicycle_parking": "stands"}}, {"type": "node", "id": 3206990961, "lat": 51.5369717, "lon": 0.080891, "tags": {"amenity": "bicycle_parking", "bicycle_parking": "stands"}}, {"type": "node", "id": 3208169599, "lat": 51.5383943, "lon": 0.0800829, "tags": {"amenity": "bicycle_parking", "bicycle_parking": "stands", "capacity": "6", "covered": "no"}}, {"type": "node", "id": 3208169625, "lat": 51.5386861, "lon": 0.0804814, "tags": {"amenity": "bicycle_parking", "bicycle_parking": "stands", "capacity": "8", "covered": "no"}}, {"type": "node", "id": 3208334027, "lat": 51.539655, "lon": 0.0816747, "tags": {"amenity": "bicycle_parking", "bicycle_parking": "stands"}}, {"type": "node", "id": 3679001329, "lat": 51.5616449, "lon": 0.118103, "tags": {"amenity": "bicycle_parking", "source": "gps+mapnoter"}}, {"type": "node", "id": 4256081998, "lat": 51.5758198, "lon": 0.0904931, "tags": {"amenity": "bicycle_parking", "bicycle_parking": "stands", "operator": "TfL"}}, {"type": "node", "id": 4256117438, "lat": 51.5641102, "lon": 0.0974755, "tags": {"amenity": "bicycle_parking", "bicycle_parking": "rack", "operator": "TfL"}}, {"type": "node", "id": 4258694252, "lat": 51.593513, "lon": 0.0847636, "tags": {"amenity": "bicycle_parking", "bicycle_parking": "stands"}}, {"type": "node", "id": 4258694253, "lat": 51.5931746, "lon": 0.0859182, "tags": {"amenity": "bicycle_parking", "bicycle_parking": "rack"}}, {"type": "node", "id": 4265865062, "lat": 51.5725272, "lon": 0.1040224, "tags": {"amenity": "bicycle_parking", "capacity": "6", "source": "gps+mapnoter"}}, {"type": "node", "id": 4265926707, "lat": 51.5728621, "lon": 0.0989467, "tags": {"amenity": "bicycle_parking", "capacity": "6", "source": "gps+mapnoter"}}, {"type": "node", "id": 4393407427, "lat": 51.5528465, "lon": 0.1762962, "tags": {"amenity": "bicycle_parking", "bicycle_parking": "stands", "covered": "no", "source": "gps+mapnoter"}}, {"type": "node", "id": 4971995232, "lat": 51.5652576, "lon": 0.0673414, "tags": {"amenity": "bicycle_parking", "bicycle_parking": "stands", "source": "gps+mapnoter"}}, {"type": "node", "id": 4972071285, "lat": 51.5680503, "lon": 0.0694997, "tags": {"amenity": "bicycle_parking"}}, {"type": "node", "id": 4972321833, "lat": 51.5708489, "lon": 0.0669655, "tags": {"amenity": "bicycle_parking", "source": "gps+mapnoter"}}, {"type": "node", "id": 5599504612, "lat": 51.5598677, "lon": 0.0696672, "tags": {"amenity": "bicycle_parking"}}, {"type": "node", "id": 5599504613, "lat": 51.5596027, "lon": 0.0701871, "tags": {"amenity": "bicycle_parking"}}, {"type": "node", "id": 6283060976, "lat": 51.5460575, "lon": 0.1121497, "tags": {"amenity": "bicycle_parking", "bicycle_parking": "stands", "covered": "yes"}}, {"type": "node", "id": 7687928001, "lat": 51.5206934, "lon": 0.0708689, "tags": {"amenity": "bicycle_parking", "bicycle_parking": "stands", "capacity": "6", "covered": "no", "fee": "no", "operator": "Halfords"}}, {"type": "node", "id": 7843913537, "lat": 51.5852296, "lon": 0.1329166, "tags": {"access": "private", "amenity": "bicycle_parking", "bicycle_parking": "lockers", "capacity": "6"}}, {"type": "node", "id": 7846165686, "lat": 51.5840818, "lon": 0.1305923, "tags": {"amenity": "bicycle_parking", "bicycle_parking": "lockers", "capacity": "6"}}, {"type": "node", "id": 7846165687, "lat": 51.5842954, "lon": 0.1356806, "tags": {"amenity": "bicycle_parking", "bicycle_parking": "stands", "capacity": "4"}}, {"type": "node", "id": 7846165688, "lat": 51.5853946, "lon": 0.135227, "tags": {"amenity": "bicycle_parking", "bicycle_parking": "stands", "capacity": "18"}}, {"type": "node", "id": 7846165689, "lat": 51.585147, "lon": 0.1354353, "tags": {"amenity": "bicycle_parking", "bicycle_parking": "stands", "capacity": "10"}}, {"type": "node", "id": 7846165690, "lat": 51.5844774, "lon": 0.1356589, "tags": {"amenity": "bicycle_parking", "bicycle_parking": "stands", "capacity": "6"}}, {"type": "node", "id": 7846968994, "lat": 51.5760963, "lon": 0.1409624, "tags": {"amenity": "bicycle_parking", "bicycle_parking": "stands", "capacity": "4"}}, {"type": "node", "id": 7846968995, "lat": 51.5754772, "lon": 0.1407371, "tags": {"amenity": "bicycle_parking", "bicycle_parking": "stands", "capacity": "4"}}, {"type": "node", "id": 7846968996, "lat": 51.5796467, "lon": 0.1356636, "tags": {"amenity": "bicycle_parking", "bicycle_parking": "hoop", "capacity": "2"}}, {"type": "node", "id": 7846968997, "lat": 51.5793015, "lon": 0.1357295, "tags": {"amenity": "bicycle_parking", "bicycle_parking": "hoop", "capacity": "2"}}, {"type": "node", "id": 7846968998, "lat": 51.5823319, "lon": 0.1406691, "tags": {"amenity": "bicycle_parking", "bicycle_parking": "lockers", "capacity": "4", "note": "Own lock"}}, {"type": "node", "id": 7846968999, "lat": 51.5823319, "lon": 0.140647, "tags": {"amenity": "bicycle_parking", "bicycle_parking": "stands", "capacity": "10"}}, {"type": "node", "id": 7846969000, "lat": 51.582338, "lon": 0.1406672, "tags": {"amenity": "bicycle_parking", "bicycle_parking": "lockers", "capacity": "4", "note": "Own lock"}}, {"type": "node", "id": 7849131417, "lat": 51.574035, "lon": 0.1326586, "tags": {"amenity": "bicycle_parking", "bicycle_parking": "stands", "capacity": "8"}}, {"type": "node", "id": 7854325125, "lat": 51.5723424, "lon": 0.1433476, "tags": {"amenity": "bicycle_parking", "bicycle_parking": "stands", "capacity": "4"}}, {"type": "node", "id": 7854325126, "lat": 51.5723379, "lon": 0.14332, "tags": {"amenity": "bicycle_parking", "bicycle_parking": "stands", "capacity": "4"}}, {"type": "node", "id": 7854325128, "lat": 51.5710112, "lon": 0.1312177, "tags": {"amenity": "bicycle_parking", "bicycle_parking": "stands", "capacity": "6"}}, {"type": "node", "id": 7854325129, "lat": 51.571842, "lon": 0.1351008, "tags": {"amenity": "bicycle_parking", "bicycle_parking": "stands", "capacity": "12"}}, {"type": "node", "id": 7854325130, "lat": 51.5710507, "lon": 0.1321898, "tags": {"amenity": "bicycle_parking", "bicycle_parking": "stands", "capacity": "4", "covered": "no"}}, {"type": "node", "id": 7854325131, "lat": 51.5708993, "lon": 0.1305822, "tags": {"amenity": "bicycle_parking", "bicycle_parking": "stands", "capacity": "6"}}, {"type": "node", "id": 7854325132, "lat": 51.5710554, "lon": 0.1323432, "tags": {"amenity": "bicycle_parking", "bicycle_parking": "stands", "capacity": "4", "covered": "no"}}, {"type": "node", "id": 7854325133, "lat": 51.5711578, "lon": 0.1327724, "tags": {"amenity": "bicycle_parking", "bicycle_parking": "stands", "capacity": "4", "covered": "no"}}, {"type": "node", "id": 7854325134, "lat": 51.5712208, "lon": 0.1330783, "tags": {"amenity": "bicycle_parking", "bicycle_parking": "stands", "capacity": "4"}}, {"type": "node", "id": 7864478407, "lat": 51.5657256, "lon": 0.1434713, "tags": {"amenity": "bicycle_parking", "bicycle_parking": "stands", "capacity": "6"}}, {"type": "node", "id": 7864478408, "lat": 51.5643834, "lon": 0.1462798, "tags": {"amenity": "bicycle_parking", "bicycle_parking": "stands", "capacity": "6"}}, {"type": "node", "id": 7864478409, "lat": 51.5653648, "lon": 0.1449851, "tags": {"amenity": "bicycle_parking", "bicycle_parking": "stands", "capacity": "10"}}, {"type": "node", "id": 7864581165, "lat": 51.56332, "lon": 0.1466615, "tags": {"amenity": "bicycle_parking", "bicycle_parking": "stands", "capacity": "6"}}, {"type": "node", "id": 7864581166, "lat": 51.5625633, "lon": 0.1470548, "tags": {"amenity": "bicycle_parking", "bicycle_parking": "stands", "capacity": "4"}}, {"type": "node", "id": 7864581167, "lat": 51.5636414, "lon": 0.1465282, "tags": {"amenity": "bicycle_parking", "bicycle_parking": "stands", "capacity": "6"}}, {"type": "node", "id": 7864581168, "lat": 51.5619574, "lon": 0.1476462, "tags": {"amenity": "bicycle_parking", "bicycle_parking": "stands", "capacity": "6"}}, {"type": "node", "id": 7865267479, "lat": 51.561135, "lon": 0.1487011, "tags": {"amenity": "bicycle_parking", "bicycle_parking": "stands", "capacity": "24", "covered": "yes"}}, {"type": "node", "id": 7865267480, "lat": 51.5609816, "lon": 0.1494581, "tags": {"amenity": "bicycle_parking", "bicycle_parking": "stands", "capacity": "16", "covered": "yes"}}, {"type": "node", "id": 7865267481, "lat": 51.5608949, "lon": 0.1494673, "tags": {"amenity": "bicycle_parking", "bicycle_parking": "lockers", "capacity": "4", "note": "Own lock"}}, {"type": "node", "id": 7865267482, "lat": 51.5611206, "lon": 0.1494395, "tags": {"amenity": "bicycle_parking", "bicycle_parking": "stands", "capacity": "8"}}, {"type": "node", "id": 7865267483, "lat": 51.5604483, "lon": 0.1474385, "tags": {"amenity": "bicycle_parking", "bicycle_parking": "stands", "capacity": "6"}}, {"type": "node", "id": 7865267484, "lat": 51.5601649, "lon": 0.1478324, "tags": {"amenity": "bicycle_parking", "bicycle_parking": "stands", "capacity": "4"}}, {"type": "node", "id": 7865315985, "lat": 51.560385, "lon": 0.1476991, "tags": {"amenity": "bicycle_parking", "bicycle_parking": "stands", "capacity": "10"}}, {"type": "node", "id": 7865315986, "lat": 51.5604298, "lon": 0.1471965, "tags": {"amenity": "bicycle_parking", "bicycle_parking": "stands", "capacity": "2"}}, {"type": "node", "id": 7865315987, "lat": 51.5603603, "lon": 0.1470935, "tags": {"amenity": "bicycle_parking", "bicycle_parking": "stands", "capacity": "2"}}, {"type": "node", "id": 7865315988, "lat": 51.5612133, "lon": 0.1476914, "tags": {"amenity": "bicycle_parking", "bicycle_parking": "stands", "capacity": "6"}}, {"type": "node", "id": 7865315989, "lat": 51.5608696, "lon": 0.1469211, "tags": {"amenity": "bicycle_parking", "bicycle_parking": "stands", "capacity": "2"}}, {"type": "node", "id": 7865315990, "lat": 51.5602233, "lon": 0.1478431, "tags": {"amenity": "bicycle_parking", "bicycle_parking": "stands", "capacity": "2"}}, {"type": "node", "id": 7865315991, "lat": 51.5605368, "lon": 0.1471137, "tags": {"amenity": "bicycle_parking", "bicycle_parking": "stands", "capacity": "4"}}, {"type": "node", "id": 7865315992, "lat": 51.5611492, "lon": 0.147062, "tags": {"amenity": "bicycle_parking", "bicycle_parking": "stands", "capacity": "2"}}, {"type": "node", "id": 7865315993, "lat": 51.5607138, "lon": 0.1470438, "tags": {"amenity": "bicycle_parking", "bicycle_parking": "stands", "capacity": "4"}}, {"type": "node", "id": 7865315994, "lat": 51.5609532, "lon": 0.1466349, "tags": {"amenity": "bicycle_parking", "bicycle_parking": "stands", "capacity": "2"}}, {"type": "node", "id": 7865579741, "lat": 51.5599187, "lon": 0.1480467, "tags": {"amenity": "bicycle_parking", "bicycle_parking": "stands", "capacity": "4"}}, {"type": "node", "id": 7865579742, "lat": 51.5599763, "lon": 0.1480472, "tags": {"amenity": "bicycle_parking", "bicycle_parking": "stands", "capacity": "4"}}, {"type": "node", "id": 7865983678, "lat": 51.5586899, "lon": 0.1304831, "tags": {"amenity": "bicycle_parking", "bicycle_parking": "stands", "capacity": "4"}}, {"type": "node", "id": 7865983679, "lat": 51.5578743, "lon": 0.1334985, "tags": {"amenity": "bicycle_parking", "bicycle_parking": "stands", "capacity": "12"}}, {"type": "node", "id": 7865983680, "lat": 51.5577382, "lon": 0.1357997, "tags": {"amenity": "bicycle_parking", "bicycle_parking": "stands", "capacity": "8"}}, {"type": "node", "id": 7865983681, "lat": 51.5587933, "lon": 0.1304404, "tags": {"amenity": "bicycle_parking", "bicycle_parking": "stands", "capacity": "4"}}, {"type": "node", "id": 7865983682, "lat": 51.55892, "lon": 0.1357081, "tags": {"amenity": "bicycle_parking", "bicycle_parking": "stands", "capacity": "10", "covered": "yes"}}, {"type": "node", "id": 7865983683, "lat": 51.5581896, "lon": 0.1346863, "tags": {"amenity": "bicycle_parking", "bicycle_parking": "stands", "capacity": "12"}}, {"type": "node", "id": 7865983684, "lat": 51.5629786, "lon": 0.1196049, "tags": {"amenity": "bicycle_parking", "bicycle_parking": "stands", "capacity": "6"}}, {"type": "node", "id": 7865991385, "lat": 51.5616658, "lon": 0.1244721, "tags": {"amenity": "bicycle_parking", "bicycle_parking": "stands", "capacity": "4"}}, {"type": "node", "id": 7865991386, "lat": 51.5626459, "lon": 0.1215339, "tags": {"amenity": "bicycle_parking", "bicycle_parking": "stands", "capacity": "6"}}, {"type": "node", "id": 7865991387, "lat": 51.5630883, "lon": 0.1195964, "tags": {"amenity": "bicycle_parking", "bicycle_parking": "stands", "capacity": "6"}}, {"type": "node", "id": 7865991388, "lat": 51.5627297, "lon": 0.1207153, "tags": {"amenity": "bicycle_parking", "bicycle_parking": "stands", "capacity": "6"}}, {"type": "node", "id": 7865991389, "lat": 51.5622788, "lon": 0.1229744, "tags": {"amenity": "bicycle_parking", "bicycle_parking": "stands", "capacity": "4"}}, {"type": "node", "id": 7865991390, "lat": 51.56186, "lon": 0.1239015, "tags": {"access": "yes", "amenity": "bicycle_parking", "bicycle_parking": "stands", "capacity": "4", "covered": "no"}}, {"type": "node", "id": 7865991391, "lat": 51.5616367, "lon": 0.1247019, "tags": {"amenity": "bicycle_parking", "bicycle_parking": "stands", "capacity": "4"}}, {"type": "node", "id": 7865991392, "lat": 51.5594247, "lon": 0.1565999, "tags": {"amenity": "bicycle_parking", "bicycle_parking": "stands", "capacity": "8"}}, {"type": "node", "id": 7865991393, "lat": 51.5603283, "lon": 0.1540148, "tags": {"amenity": "bicycle_parking", "bicycle_parking": "stands", "capacity": "2"}}, {"type": "node", "id": 7865991394, "lat": 51.5606768, "lon": 0.1562928, "tags": {"amenity": "bicycle_parking", "bicycle_parking": "stands", "capacity": "160", "note": "Shared lock"}}, {"type": "node", "id": 7865991395, "lat": 51.5610389, "lon": 0.1554919, "tags": {"amenity": "bicycle_parking", "capacity": "6"}}, {"type": "node", "id": 7866026813, "lat": 51.5544701, "lon": 0.1415706, "tags": {"amenity": "bicycle_parking", "bicycle_parking": "stands", "capacity": "6", "covered": "no"}}, {"type": "node", "id": 7866026814, "lat": 51.5546503, "lon": 0.1432928, "tags": {"amenity": "bicycle_parking", "bicycle_parking": "stands", "capacity": "4", "covered": "no"}}, {"type": "node", "id": 7866026815, "lat": 51.553955, "lon": 0.1480648, "tags": {"amenity": "bicycle_parking", "bicycle_parking": "upright_stands", "capacity": "6"}}, {"type": "node", "id": 7866026816, "lat": 51.5543833, "lon": 0.1416321, "tags": {"amenity": "bicycle_parking", "bicycle_parking": "stands", "capacity": "2", "covered": "no"}}, {"type": "node", "id": 7873132212, "lat": 51.5452551, "lon": 0.1613937, "tags": {"amenity": "bicycle_parking", "bicycle_parking": "stands", "capacity": "4"}}, {"type": "node", "id": 7873132213, "lat": 51.5440032, "lon": 0.1660999, "tags": {"amenity": "bicycle_parking", "bicycle_parking": "hoop", "capacity": "5"}}, {"type": "node", "id": 7873132214, "lat": 51.5451215, "lon": 0.1605561, "tags": {"amenity": "bicycle_parking", "bicycle_parking": "stands", "capacity": "4"}}, {"type": "node", "id": 7873132215, "lat": 51.5438355, "lon": 0.1660659, "tags": {"amenity": "bicycle_parking", "bicycle_parking": "hoop", "capacity": "4"}}, {"type": "node", "id": 7873132216, "lat": 51.5436551, "lon": 0.1665334, "tags": {"amenity": "bicycle_parking", "bicycle_parking": "stands", "capacity": "4"}}, {"type": "node", "id": 7873132217, "lat": 51.5464333, "lon": 0.1649765, "tags": {"amenity": "bicycle_parking", "bicycle_parking": "stands", "capacity": "4"}}, {"type": "node", "id": 7873132218, "lat": 51.5436516, "lon": 0.1666415, "tags": {"amenity": "bicycle_parking", "bicycle_parking": "stands", "capacity": "6"}}, {"type": "node", "id": 7873132219, "lat": 51.5461481, "lon": 0.1652306, "tags": {"amenity": "bicycle_parking", "bicycle_parking": "stands", "capacity": "4"}}, {"type": "node", "id": 7873132220, "lat": 51.552135, "lon": 0.1624179, "tags": {"amenity": "bicycle_parking", "bicycle_parking": "stands", "capacity": "12", "covered": "no"}}, {"type": "node", "id": 7873132221, "lat": 51.5512584, "lon": 0.1611153, "tags": {"amenity": "bicycle_parking", "bicycle_parking": "stands", "capacity": "6"}}, {"type": "node", "id": 7873132222, "lat": 51.5518956, "lon": 0.1622143, "tags": {"amenity": "bicycle_parking", "bicycle_parking": "stands", "capacity": "4", "covered": "no"}}, {"type": "node", "id": 7873132223, "lat": 51.5399286, "lon": 0.1473608, "tags": {"amenity": "bicycle_parking", "bicycle_parking": "stands", "capacity": "8", "covered": "no"}}, {"type": "node", "id": 7873132224, "lat": 51.5418015, "lon": 0.1477735, "tags": {"amenity": "bicycle_parking", "bicycle_parking": "stands", "capacity": "16", "covered": "no"}}, {"type": "node", "id": 7873132225, "lat": 51.5400559, "lon": 0.1476265, "tags": {"amenity": "bicycle_parking", "bicycle_parking": "stands", "capacity": "6", "covered": "no"}}, {"type": "node", "id": 7873132226, "lat": 51.5427633, "lon": 0.1478131, "tags": {"amenity": "bicycle_parking", "bicycle_parking": "stands", "capacity": "10", "covered": "no"}}, {"type": "node", "id": 7873132227, "lat": 51.5400584, "lon": 0.1474315, "tags": {"amenity": "bicycle_parking", "bicycle_parking": "stands", "capacity": "6", "covered": "no"}}, {"type": "node", "id": 7873132228, "lat": 51.5400017, "lon": 0.1475192, "tags": {"amenity": "bicycle_parking", "bicycle_parking": "stands", "capacity": "6", "covered": "no"}}, {"type": "node", "id": 7873132229, "lat": 51.5415884, "lon": 0.1480564, "tags": {"amenity": "bicycle_parking", "bicycle_parking": "stands", "capacity": "18", "check_date": "2026-02-08", "covered": "no"}}, {"type": "node", "id": 7873132230, "lat": 51.540438, "lon": 0.1479787, "tags": {"amenity": "bicycle_parking", "bicycle_parking": "stands", "capacity": "10", "covered": "no"}}, {"type": "node", "id": 7873132231, "lat": 51.5400988, "lon": 0.1475807, "tags": {"amenity": "bicycle_parking", "bicycle_parking": "stands", "capacity": "6", "covered": "no"}}, {"type": "node", "id": 7873132232, "lat": 51.5427747, "lon": 0.1479582, "tags": {"amenity": "bicycle_parking", "bicycle_parking": "stands", "capacity": "10", "covered": "no"}}, {"type": "node", "id": 7873132233, "lat": 51.5404596, "lon": 0.1482095, "tags": {"amenity": "bicycle_parking", "bicycle_parking": "stands", "capacity": "10", "covered": "no"}}, {"type": "node", "id": 7873132234, "lat": 51.5438716, "lon": 0.1366931, "tags": {"amenity": "bicycle_parking", "bicycle_parking": "stands", "capacity": "10"}}, {"type": "node", "id": 7873132235, "lat": 51.5413017, "lon": 0.1272865, "tags": {"amenity": "bicycle_parking", "bicycle_parking": "stands", "capacity": "6"}}, {"type": "node", "id": 7873132236, "lat": 51.5413817, "lon": 0.1271581, "tags": {"amenity": "bicycle_parking", "bicycle_parking": "stands", "capacity": "4"}}, {"type": "node", "id": 7873132237, "lat": 51.5402524, "lon": 0.1276002, "tags": {"amenity": "bicycle_parking", "bicycle_parking": "stands", "capacity": "24", "covered": "no"}}, {"type": "node", "id": 7873132238, "lat": 51.542534, "lon": 0.132794, "tags": {"amenity": "bicycle_parking", "bicycle_parking": "stands", "capacity": "6"}}, {"type": "node", "id": 7873132239, "lat": 51.5352921, "lon": 0.1113375, "tags": {"amenity": "bicycle_parking", "bicycle_parking": "stands", "capacity": "6"}}, {"type": "node", "id": 7873132240, "lat": 51.5351975, "lon": 0.1112087, "tags": {"amenity": "bicycle_parking", "bicycle_parking": "stands", "capacity": "4"}}, {"type": "node", "id": 7873132241, "lat": 51.5385126, "lon": 0.1116818, "tags": {"amenity": "bicycle_parking", "bicycle_parking": "stands", "capacity": "8"}}, {"type": "node", "id": 7873132242, "lat": 51.5384532, "lon": 0.1118051, "tags": {"amenity": "bicycle_parking", "bicycle_parking": "stands", "capacity": "4"}}, {"type": "node", "id": 7873132243, "lat": 51.534491, "lon": 0.1107042, "tags": {"amenity": "bicycle_parking", "bicycle_parking": "stands", "capacity": "8"}}, {"type": "node", "id": 7873132244, "lat": 51.5285567, "lon": 0.1038565, "tags": {"amenity": "bicycle_parking", "bicycle_parking": "lockers", "capacity": "6"}}, {"type": "node", "id": 7873132245, "lat": 51.5285047, "lon": 0.1041502, "tags": {"amenity": "bicycle_parking", "bicycle_parking": "stands", "capacity": "10"}}, {"type": "node", "id": 7873132246, "lat": 51.5281486, "lon": 0.1040714, "tags": {"amenity": "bicycle_parking", "bicycle_parking": "stands", "capacity": "4"}}, {"type": "node", "id": 7873132247, "lat": 51.5252657, "lon": 0.1174214, "tags": {"amenity": "bicycle_parking", "bicycle_parking": "stands", "capacity": "6"}}, {"type": "node", "id": 7873132248, "lat": 51.5258644, "lon": 0.1149215, "tags": {"amenity": "bicycle_parking", "bicycle_parking": "stands", "capacity": "10"}}, {"type": "node", "id": 7873132249, "lat": 51.5272028, "lon": 0.1155004, "tags": {"amenity": "bicycle_parking", "bicycle_parking": "stands", "capacity": "4"}}, {"type": "node", "id": 7873132250, "lat": 51.5259089, "lon": 0.1152157, "tags": {"amenity": "bicycle_parking", "bicycle_parking": "stands", "capacity": "6"}}, {"type": "node", "id": 7873132251, "lat": 51.5259162, "lon": 0.1146018, "tags": {"amenity": "bicycle_parking", "bicycle_parking": "stands", "capacity": "10"}}, {"type": "node", "id": 7873132252, "lat": 51.5279354, "lon": 0.1178196, "tags": {"amenity": "bicycle_parking", "bicycle_parking": "stands", "capacity": "6"}}, {"type": "node", "id": 7873132253, "lat": 51.5276182, "lon": 0.1177179, "tags": {"amenity": "bicycle_parking", "bicycle_parking": "stands", "capacity": "6"}}, {"type": "node", "id": 7873132254, "lat": 51.5271151, "lon": 0.115496, "tags": {"amenity": "bicycle_parking", "bicycle_parking": "stands", "capacity": "4"}}, {"type": "node", "id": 7873132255, "lat": 51.5284612, "lon": 0.1178508, "tags": {"amenity": "bicycle_parking", "bicycle_parking": "stands", "capacity": "6"}}, {"type": "node", "id": 7873132256, "lat": 51.5281267, "lon": 0.1178535, "tags": {"amenity": "bicycle_parking", "bicycle_parking": "stands", "capacity": "6"}}, {"type": "node", "id": 7873132257, "lat": 51.527805, "lon": 0.1154194, "tags": {"amenity": "bicycle_parking", "bicycle_parking": "stands", "capacity": "4"}}, {"type": "node", "id": 7873132258, "lat": 51.5258577, "lon": 0.1174141, "tags": {"amenity": "bicycle_parking", "bicycle_parking": "stands", "capacity": "6"}}, {"type": "node", "id": 7873132259, "lat": 51.5282638, "lon": 0.1154154, "tags": {"amenity": "bicycle_parking", "bicycle_parking": "stands", "capacity": "4"}}, {"type": "node", "id": 7873132260, "lat": 51.5288673, "lon": 0.1153435, "tags": {"amenity": "bicycle_parking", "bicycle_parking": "stands", "capacity": "6"}}, {"type": "node", "id": 7873132261, "lat": 51.5269673, "lon": 0.1136146, "tags": {"amenity": "bicycle_parking", "bicycle_parking": "stands", "capacity": "2"}}, {"type": "node", "id": 7873132262, "lat": 51.5261467, "lon": 0.1174681, "tags": {"amenity": "bicycle_parking", "bicycle_parking": "stands", "capacity": "6"}}, {"type": "node", "id": 7873132263, "lat": 51.5205949, "lon": 0.1080952, "tags": {"amenity": "bicycle_parking", "bicycle_parking": "stands", "capacity": "10"}}, {"type": "node", "id": 7873132264, "lat": 51.5202672, "lon": 0.1078743, "tags": {"amenity": "bicycle_parking", "bicycle_parking": "stands", "capacity": "20"}}, {"type": "node", "id": 7873132265, "lat": 51.5214232, "lon": 0.0970157, "tags": {"amenity": "bicycle_parking", "bicycle_parking": "stands", "capacity": "6"}}, {"type": "node", "id": 7873132266, "lat": 51.5385558, "lon": 0.1015807, "tags": {"amenity": "bicycle_parking", "bicycle_parking": "hoop", "capacity": "3"}}, {"type": "node", "id": 7873132267, "lat": 51.5398709, "lon": 0.10127, "tags": {"amenity": "bicycle_parking", "bicycle_parking": "stands", "capacity": "2"}}, {"type": "node", "id": 7873132268, "lat": 51.5383598, "lon": 0.1017076, "tags": {"amenity": "bicycle_parking", "bicycle_parking": "stands", "capacity": "2"}}, {"type": "node", "id": 7873132269, "lat": 51.5383219, "lon": 0.1017656, "tags": {"amenity": "bicycle_parking", "bicycle_parking": "hoop", "capacity": "5"}}, {"type": "node", "id": 7873132270, "lat": 51.5356619, "lon": 0.0950007, "tags": {"amenity": "bicycle_parking", "bicycle_parking": "stands", "capacity": "6"}}, {"type": "node", "id": 7873132271, "lat": 51.5356302, "lon": 0.0941803, "tags": {"amenity": "bicycle_parking", "bicycle_parking": "stands", "capacity": "6"}}, {"type": "node", "id": 7873132272, "lat": 51.5354753, "lon": 0.0937047, "tags": {"amenity": "bicycle_parking", "bicycle_parking": "stands", "capacity": "6"}}, {"type": "node", "id": 7873132273, "lat": 51.5356438, "lon": 0.0945219, "tags": {"amenity": "bicycle_parking", "bicycle_parking": "stands", "capacity": "6"}}, {"type": "node", "id": 7873132274, "lat": 51.5356345, "lon": 0.093941, "tags": {"amenity": "bicycle_parking", "bicycle_parking": "stands", "capacity": "2"}}, {"type": "node", "id": 7873132275, "lat": 51.5355255, "lon": 0.0941592, "tags": {"amenity": "bicycle_parking", "bicycle_parking": "stands", "capacity": "8"}}, {"type": "node", "id": 7873132276, "lat": 51.5355278, "lon": 0.0948934, "tags": {"amenity": "bicycle_parking", "bicycle_parking": "stands", "capacity": "4"}}, {"type": "node", "id": 7873132277, "lat": 51.5356209, "lon": 0.0937074, "tags": {"amenity": "bicycle_parking", "bicycle_parking": "stands", "capacity": "6"}}, {"type": "node", "id": 7873132278, "lat": 51.5324712, "lon": 0.0910647, "tags": {"amenity": "bicycle_parking", "bicycle_parking": "hoop", "capacity": "1", "check_date": "2017-10-29", "ref:GB:tflcid": "RWG157127"}}, {"type": "node", "id": 7873132279, "lat": 51.5319667, "lon": 0.0830827, "tags": {"amenity": "bicycle_parking", "bicycle_parking": "upright_stands", "capacity": "6"}}, {"type": "node", "id": 7873132280, "lat": 51.5329148, "lon": 0.0825343, "tags": {"amenity": "bicycle_parking", "bicycle_parking": "lockers", "capacity": "6"}}, {"type": "node", "id": 7873132281, "lat": 51.5341077, "lon": 0.0847281, "tags": {"amenity": "bicycle_parking", "bicycle_parking": "stands", "capacity": "4"}}, {"type": "node", "id": 7873132282, "lat": 51.5328208, "lon": 0.0826836, "tags": {"amenity": "bicycle_parking", "bicycle_parking": "lockers", "capacity": "6"}}, {"type": "node", "id": 7873132283, "lat": 51.530562, "lon": 0.0802541, "tags": {"amenity": "bicycle_parking", "bicycle_parking": "stands", "capacity": "10"}}, {"type": "node", "id": 7873132284, "lat": 51.531549, "lon": 0.081375, "tags": {"amenity": "bicycle_parking", "bicycle_parking": "upright_stands", "capacity": "3"}}, {"type": "node", "id": 7873138685, "lat": 51.531913, "lon": 0.0758784, "tags": {"amenity": "bicycle_parking", "bicycle_parking": "stands", "capacity": "6"}}, {"type": "node", "id": 7873138686, "lat": 51.5322676, "lon": 0.0793377, "tags": {"amenity": "bicycle_parking", "bicycle_parking": "stands", "capacity": "6"}}, {"type": "node", "id": 7873138687, "lat": 51.5316357, "lon": 0.0764592, "tags": {"amenity": "bicycle_parking", "bicycle_parking": "stands", "capacity": "8"}}, {"type": "node", "id": 7873138689, "lat": 51.537064, "lon": 0.0706802, "tags": {"amenity": "bicycle_parking", "bicycle_parking": "stands", "capacity": "2"}}, {"type": "node", "id": 7873138691, "lat": 51.5357022, "lon": 0.0822461, "tags": {"amenity": "bicycle_parking", "bicycle_parking": "hoop", "capacity": "2"}}, {"type": "node", "id": 7873138692, "lat": 51.5353551, "lon": 0.0772354, "tags": {"amenity": "bicycle_parking", "bicycle_parking": "stands", "capacity": "12", "covered": "no"}}, {"type": "node", "id": 7873138693, "lat": 51.5358937, "lon": 0.0820418, "tags": {"amenity": "bicycle_parking", "bicycle_parking": "hoop", "capacity": "2"}}, {"type": "node", "id": 7873138694, "lat": 51.5362375, "lon": 0.0769987, "tags": {"amenity": "bicycle_parking", "bicycle_parking": "stands", "capacity": "10", "covered": "no"}}, {"type": "node", "id": 7873138695, "lat": 51.535569, "lon": 0.0825052, "tags": {"amenity": "bicycle_parking", "bicycle_parking": "stands", "capacity": "4"}}, {"type": "node", "id": 7873138696, "lat": 51.5359685, "lon": 0.0767755, "tags": {"amenity": "bicycle_parking", "bicycle_parking": "stands", "capacity": "6", "covered": "no"}}, {"type": "node", "id": 7873138697, "lat": 51.538364, "lon": 0.079201, "tags": {"amenity": "bicycle_parking", "bicycle_parking": "stands", "capacity": "8"}}, {"type": "node", "id": 7873138698, "lat": 51.5385568, "lon": 0.0787647, "tags": {"amenity": "bicycle_parking", "bicycle_parking": "stands", "capacity": "20"}}, {"type": "node", "id": 7873138699, "lat": 51.5373533, "lon": 0.0780693, "tags": {"amenity": "bicycle_parking", "bicycle_parking": "stands", "capacity": "6", "covered": "no"}}, {"type": "node", "id": 7873138700, "lat": 51.537004, "lon": 0.0785752, "tags": {"amenity": "bicycle_parking", "bicycle_parking": "stands", "capacity": "6", "covered": "no"}}, {"type": "node", "id": 7873138701, "lat": 51.5384431, "lon": 0.0783973, "tags": {"amenity": "bicycle_parking", "bicycle_parking": "lockers", "capacity": "6"}}, {"type": "node", "id": 7873138702, "lat": 51.5381079, "lon": 0.0779384, "tags": {"amenity": "bicycle_parking", "bicycle_parking": "stands", "capacity": "4", "covered": "no"}}, {"type": "node", "id": 7873138703, "lat": 51.5372192, "lon": 0.0788692, "tags": {"amenity": "bicycle_parking", "bicycle_parking": "stands", "capacity": "6"}}, {"type": "node", "id": 7873138704, "lat": 51.5462328, "lon": 0.0856896, "tags": {"amenity": "bicycle_parking", "bicycle_parking": "stands", "capacity": "10", "covered": "no"}}, {"type": "node", "id": 7873138705, "lat": 51.5462435, "lon": 0.0876938, "tags": {"amenity": "bicycle_parking", "bicycle_parking": "stands", "capacity": "14", "check_date": "2025-12-06", "covered": "no"}}, {"type": "node", "id": 7873138706, "lat": 51.5454588, "lon": 0.0942737, "tags": {"amenity": "bicycle_parking", "bicycle_parking": "stands", "capacity": "2"}}, {"type": "node", "id": 7873138707, "lat": 51.5456007, "lon": 0.0935179, "tags": {"amenity": "bicycle_parking", "bicycle_parking": "stands", "capacity": "2"}}, {"type": "node", "id": 7873138708, "lat": 51.5457647, "lon": 0.0940111, "tags": {"amenity": "bicycle_parking", "bicycle_parking": "stands", "capacity": "6"}}, {"type": "node", "id": 7873138709, "lat": 51.5461441, "lon": 0.0949014, "tags": {"amenity": "bicycle_parking", "bicycle_parking": "stands", "capacity": "4"}}, {"type": "node", "id": 7873138710, "lat": 51.5455193, "lon": 0.093783, "tags": {"amenity": "bicycle_parking", "bicycle_parking": "stands", "capacity": "8"}}, {"type": "node", "id": 7873138711, "lat": 51.5454641, "lon": 0.0931642, "tags": {"amenity": "bicycle_parking", "bicycle_parking": "stands", "capacity": "2"}}, {"type": "node", "id": 7873138712, "lat": 51.5454272, "lon": 0.0930792, "tags": {"amenity": "bicycle_parking", "bicycle_parking": "stands", "capacity": "2"}}, {"type": "node", "id": 7873138713, "lat": 51.5453315, "lon": 0.0928526, "tags": {"amenity": "bicycle_parking", "bicycle_parking": "stands", "capacity": "2"}}, {"type": "node", "id": 7873138714, "lat": 51.5460934, "lon": 0.0945035, "tags": {"amenity": "bicycle_parking", "bicycle_parking": "stands", "capacity": "6"}}, {"type": "node", "id": 7873138715, "lat": 51.5453647, "lon": 0.0929343, "tags": {"amenity": "bicycle_parking", "bicycle_parking": "stands", "capacity": "2"}}, {"type": "node", "id": 7873138717, "lat": 51.5451673, "lon": 0.0924705, "tags": {"amenity": "bicycle_parking", "bicycle_parking": "stands", "capacity": "2"}}, {"type": "node", "id": 7873138718, "lat": 51.5516997, "lon": 0.1069318, "tags": {"amenity": "bicycle_parking", "bicycle_parking": "hoop", "capacity": "1"}}, {"type": "node", "id": 7873138719, "lat": 51.5516656, "lon": 0.1068921, "tags": {"amenity": "bicycle_parking", "bicycle_parking": "hoop", "capacity": "1"}}, {"type": "node", "id": 7873138720, "lat": 51.5517298, "lon": 0.1069716, "tags": {"amenity": "bicycle_parking", "bicycle_parking": "hoop", "capacity": "1"}}, {"type": "node", "id": 7873138721, "lat": 51.5521952, "lon": 0.1130972, "tags": {"amenity": "bicycle_parking", "bicycle_parking": "stands", "capacity": "8"}}, {"type": "node", "id": 7873138722, "lat": 51.5518537, "lon": 0.1146316, "tags": {"amenity": "bicycle_parking", "bicycle_parking": "stands", "capacity": "6"}}, {"type": "node", "id": 7873138723, "lat": 51.5516681, "lon": 0.1150719, "tags": {"amenity": "bicycle_parking", "bicycle_parking": "stands", "capacity": "4"}}, {"type": "node", "id": 7873138724, "lat": 51.5545646, "lon": 0.1180114, "tags": {"amenity": "bicycle_parking", "bicycle_parking": "stands", "capacity": "6"}}, {"type": "node", "id": 7873138725, "lat": 51.5516786, "lon": 0.1148275, "tags": {"amenity": "bicycle_parking", "bicycle_parking": "stands", "capacity": "4"}}, {"type": "node", "id": 7873138726, "lat": 51.5545612, "lon": 0.1175713, "tags": {"amenity": "bicycle_parking", "bicycle_parking": "stands", "capacity": "6"}}, {"type": "node", "id": 7873138727, "lat": 51.5544005, "lon": 0.1177979, "tags": {"amenity": "bicycle_parking", "bicycle_parking": "stands", "capacity": "6"}}, {"type": "node", "id": 7873138728, "lat": 51.5546867, "lon": 0.1177451, "tags": {"amenity": "bicycle_parking", "bicycle_parking": "stands", "capacity": "6"}}, {"type": "node", "id": 7873138729, "lat": 51.5514866, "lon": 0.1139145, "tags": {"amenity": "bicycle_parking", "bicycle_parking": "stands", "capacity": "4"}}, {"type": "node", "id": 7873138730, "lat": 51.5516777, "lon": 0.11306, "tags": {"amenity": "bicycle_parking", "bicycle_parking": "stands", "capacity": "4"}}, {"type": "node", "id": 7873138731, "lat": 51.552116, "lon": 0.1130497, "tags": {"amenity": "bicycle_parking", "bicycle_parking": "stands", "capacity": "8", "covered": "yes"}}, {"type": "node", "id": 7873138732, "lat": 51.5516476, "lon": 0.1135297, "tags": {"amenity": "bicycle_parking", "bicycle_parking": "stands", "capacity": "4"}}, {"type": "node", "id": 7873138733, "lat": 51.5416149, "lon": 0.0847806, "tags": {"amenity": "bicycle_parking", "bicycle_parking": "hoop", "capacity": "2"}}, {"type": "node", "id": 7873138734, "lat": 51.5411686, "lon": 0.083717, "tags": {"amenity": "bicycle_parking", "bicycle_parking": "hoop", "capacity": "1"}}, {"type": "node", "id": 7873138735, "lat": 51.5411445, "lon": 0.0836718, "tags": {"amenity": "bicycle_parking", "bicycle_parking": "hoop", "capacity": "1"}}, {"type": "node", "id": 7873138736, "lat": 51.5410708, "lon": 0.0838413, "tags": {"amenity": "bicycle_parking", "bicycle_parking": "hoop", "capacity": "1"}}, {"type": "node", "id": 7873138737, "lat": 51.5409983, "lon": 0.0808184, "tags": {"amenity": "bicycle_parking", "bicycle_parking": "stands", "capacity": "2"}}, {"type": "node", "id": 7873138738, "lat": 51.5411921, "lon": 0.08376, "tags": {"amenity": "bicycle_parking", "bicycle_parking": "hoop", "capacity": "1"}}, {"type": "node", "id": 7873138739, "lat": 51.5414839, "lon": 0.0840494, "tags": {"amenity": "bicycle_parking", "bicycle_parking": "hoop", "capacity": "2"}}, {"type": "node", "id": 7873138740, "lat": 51.5410143, "lon": 0.0837394, "tags": {"amenity": "bicycle_parking", "bicycle_parking": "hoop", "capacity": "1"}}, {"type": "node", "id": 7873138741, "lat": 51.5413022, "lon": 0.113456, "tags": {"amenity": "bicycle_parking", "bicycle_parking": "stands", "capacity": "4"}}, {"type": "node", "id": 7873138742, "lat": 51.5409145, "lon": 0.1121692, "tags": {"amenity": "bicycle_parking", "bicycle_parking": "stands", "capacity": "2"}}, {"type": "node", "id": 7873138743, "lat": 51.5412196, "lon": 0.1131467, "tags": {"amenity": "bicycle_parking", "bicycle_parking": "stands", "capacity": "4"}}, {"type": "node", "id": 7873138744, "lat": 51.5413669, "lon": 0.1132678, "tags": {"amenity": "bicycle_parking", "bicycle_parking": "stands", "capacity": "2"}}, {"type": "node", "id": 7873138745, "lat": 51.5418537, "lon": 0.1128624, "tags": {"amenity": "bicycle_parking", "bicycle_parking": "stands", "capacity": "4"}}, {"type": "node", "id": 7873138746, "lat": 51.5413653, "lon": 0.1131637, "tags": {"amenity": "bicycle_parking", "bicycle_parking": "stands", "capacity": "4"}}, {"type": "node", "id": 7873138747, "lat": 51.541387, "lon": 0.1133559, "tags": {"amenity": "bicycle_parking", "bicycle_parking": "stands", "capacity": "2"}}, {"type": "node", "id": 7873138748, "lat": 51.5415567, "lon": 0.1140597, "tags": {"amenity": "bicycle_parking", "bicycle_parking": "stands", "capacity": "4"}}, {"type": "node", "id": 7873176927, "lat": 51.5641018, "lon": 0.175835, "tags": {"amenity": "bicycle_parking", "bicycle_parking": "stands", "capacity": "4"}}, {"type": "node", "id": 7873176928, "lat": 51.5654109, "lon": 0.1851107, "tags": {"amenity": "bicycle_parking", "bicycle_parking": "wall_loops", "capacity": "14", "covered": "yes"}}, {"type": "node", "id": 7873176929, "lat": 51.5652445, "lon": 0.1848614, "tags": {"amenity": "bicycle_parking", "bicycle_parking": "stands", "capacity": "14"}}, {"type": "node", "id": 7873176930, "lat": 51.5427667, "lon": 0.1789166, "tags": {"amenity": "bicycle_parking", "bicycle_parking": "stands", "capacity": "2"}}, {"type": "node", "id": 7873176931, "lat": 51.5687976, "lon": 0.1297226, "tags": {"amenity": "bicycle_parking", "bicycle_parking": "stands", "capacity": "8"}}, {"type": "node", "id": 7873176932, "lat": 51.5613512, "lon": 0.1404948, "tags": {"amenity": "bicycle_parking", "bicycle_parking": "stands", "capacity": "4"}}, {"type": "node", "id": 7873176933, "lat": 51.5613161, "lon": 0.1408236, "tags": {"amenity": "bicycle_parking", "bicycle_parking": "stands", "capacity": "4"}}, {"type": "node", "id": 7873176934, "lat": 51.5451239, "lon": 0.1106676, "tags": {"amenity": "bicycle_parking", "bicycle_parking": "stands", "capacity": "4"}}, {"type": "node", "id": 7873176935, "lat": 51.5517033, "lon": 0.1306157, "tags": {"amenity": "bicycle_parking", "bicycle_parking": "stands", "capacity": "4"}}, {"type": "node", "id": 7873176936, "lat": 51.5518317, "lon": 0.1313698, "tags": {"amenity": "bicycle_parking", "bicycle_parking": "stands", "capacity": "1"}}, {"type": "node", "id": 7873176937, "lat": 51.5513757, "lon": 0.1305456, "tags": {"amenity": "bicycle_parking", "bicycle_parking": "stands", "capacity": "4"}}, {"type": "node", "id": 7873176938, "lat": 51.533805, "lon": 0.1511798, "tags": {"amenity": "bicycle_parking", "bicycle_parking": "stands", "capacity": "6", "covered": "no"}}, {"type": "node", "id": 7873176939, "lat": 51.5317722, "lon": 0.161127, "tags": {"amenity": "bicycle_parking", "bicycle_parking": "stands", "capacity": "2", "covered": "no"}}, {"type": "node", "id": 7873176940, "lat": 51.5342466, "lon": 0.1512348, "tags": {"amenity": "bicycle_parking", "bicycle_parking": "stands", "capacity": "6", "covered": "no"}}, {"type": "node", "id": 7873176941, "lat": 51.5353, "lon": 0.1520315, "tags": {"amenity": "bicycle_parking", "bicycle_parking": "stands", "capacity": "6"}}, {"type": "node", "id": 7873176942, "lat": 51.5365335, "lon": 0.1727486, "tags": {"amenity": "bicycle_parking", "bicycle_parking": "stands", "capacity": "6"}}, {"type": "node", "id": 7873176944, "lat": 51.536885, "lon": 0.1722017, "tags": {"amenity": "bicycle_parking", "bicycle_parking": "stands", "capacity": "14"}}, {"type": "node", "id": 7873176945, "lat": 51.539055, "lon": 0.1655265, "tags": {"amenity": "bicycle_parking", "bicycle_parking": "stands", "capacity": "4", "covered": "no"}}, {"type": "node", "id": 7873176946, "lat": 51.5379876, "lon": 0.1669106, "tags": {"amenity": "bicycle_parking", "bicycle_parking": "stands", "capacity": "8", "covered": "no"}}, {"type": "node", "id": 7873176947, "lat": 51.537928, "lon": 0.1671578, "tags": {"amenity": "bicycle_parking", "bicycle_parking": "stands", "capacity": "8", "covered": "no"}}, {"type": "node", "id": 7873176948, "lat": 51.5373783, "lon": 0.1575748, "tags": {"amenity": "bicycle_parking", "bicycle_parking": "stands", "capacity": "4"}}, {"type": "node", "id": 7873176949, "lat": 51.5378646, "lon": 0.1642278, "tags": {"amenity": "bicycle_parking", "bicycle_parking": "stands", "capacity": "6", "covered": "no"}}, {"type": "node", "id": 7873176950, "lat": 51.5370786, "lon": 0.1576162, "tags": {"amenity": "bicycle_parking", "bicycle_parking": "stands", "capacity": "8"}}, {"type": "node", "id": 7873176951, "lat": 51.5235214, "lon": 0.136563, "tags": {"amenity": "bicycle_parking", "bicycle_parking": "stands", "capacity": "10", "covered": "yes"}}, {"type": "node", "id": 7873176952, "lat": 51.5262231, "lon": 0.1463392, "tags": {"amenity": "bicycle_parking", "bicycle_parking": "stands", "capacity": "8"}}, {"type": "node", "id": 7873176953, "lat": 51.5254698, "lon": 0.147358, "tags": {"amenity": "bicycle_parking", "bicycle_parking": "stands", "capacity": "14"}}, {"type": "node", "id": 7873176954, "lat": 51.524242, "lon": 0.1463022, "tags": {"amenity": "bicycle_parking", "bicycle_parking": "stands", "capacity": "10", "covered": "yes"}}, {"type": "node", "id": 7873176955, "lat": 51.5255751, "lon": 0.1468902, "tags": {"amenity": "bicycle_parking", "bicycle_parking": "stands", "capacity": "8"}}, {"type": "node", "id": 7873176956, "lat": 51.5255699, "lon": 0.1468902, "tags": {"amenity": "bicycle_parking", "bicycle_parking": "stands", "capacity": "6"}}, {"type": "node", "id": 7873176957, "lat": 51.5263388, "lon": 0.1469465, "tags": {"amenity": "bicycle_parking", "bicycle_parking": "stands", "capacity": "4"}}, {"type": "node", "id": 7873176958, "lat": 51.5324259, "lon": 0.1355309, "tags": {"amenity": "bicycle_parking", "bicycle_parking": "stands", "capacity": "30", "covered": "yes"}}, {"type": "node", "id": 7873176959, "lat": 51.5321061, "lon": 0.1362667, "tags": {"amenity": "bicycle_parking", "bicycle_parking": "stands", "capacity": "10", "covered": "no"}}, {"type": "node", "id": 7873176960, "lat": 51.5323118, "lon": 0.1354218, "tags": {"amenity": "bicycle_parking", "bicycle_parking": "stands", "capacity": "6", "covered": "no"}}, {"type": "node", "id": 7873176961, "lat": 51.5334372, "lon": 0.1267328, "tags": {"amenity": "bicycle_parking", "bicycle_parking": "stands", "capacity": "8", "covered": "yes"}}, {"type": "node", "id": 7873176962, "lat": 51.5335178, "lon": 0.1268782, "tags": {"amenity": "bicycle_parking", "bicycle_parking": "stands", "capacity": "10"}}, {"type": "node", "id": 7873176963, "lat": 51.5331137, "lon": 0.1268614, "tags": {"amenity": "bicycle_parking", "bicycle_parking": "stands", "capacity": "8"}}, {"type": "node", "id": 7873176964, "lat": 51.5303423, "lon": 0.1414869, "tags": {"amenity": "bicycle_parking", "bicycle_parking": "stands", "capacity": "8", "covered": "yes"}}, {"type": "node", "id": 7873176965, "lat": 51.5298819, "lon": 0.1433651, "tags": {"amenity": "bicycle_parking", "bicycle_parking": "wall_loops", "capacity": "6", "covered": "yes"}}, {"type": "node", "id": 7873176966, "lat": 51.5303822, "lon": 0.1414658, "tags": {"amenity": "bicycle_parking", "bicycle_parking": "stands", "capacity": "8", "covered": "yes"}}, {"type": "node", "id": 7873176968, "lat": 51.53235, "lon": 0.1457765, "tags": {"amenity": "bicycle_parking", "bicycle_parking": "stands", "capacity": "6", "covered": "no"}}, {"type": "node", "id": 7873176969, "lat": 51.5322216, "lon": 0.1461253, "tags": {"amenity": "bicycle_parking", "bicycle_parking": "stands", "capacity": "4", "covered": "no"}}, {"type": "node", "id": 7873176970, "lat": 51.5305566, "lon": 0.1478265, "tags": {"amenity": "bicycle_parking", "bicycle_parking": "stands", "capacity": "6"}}, {"type": "node", "id": 7873176971, "lat": 51.5321157, "lon": 0.1464955, "tags": {"amenity": "bicycle_parking", "bicycle_parking": "stands", "capacity": "4", "covered": "no"}}, {"type": "node", "id": 7873176972, "lat": 51.5312443, "lon": 0.1484371, "tags": {"amenity": "bicycle_parking", "bicycle_parking": "stands", "capacity": "20", "covered": "yes"}}, {"type": "node", "id": 7873176973, "lat": 51.5321539, "lon": 0.1463595, "tags": {"amenity": "bicycle_parking", "bicycle_parking": "stands", "capacity": "4", "covered": "no"}}, {"type": "node", "id": 7873176974, "lat": 51.53187, "lon": 0.1477465, "tags": {"amenity": "bicycle_parking", "bicycle_parking": "stands", "capacity": "2", "covered": "no"}}, {"type": "node", "id": 8118580437, "lat": 51.527853, "lon": 0.1698402, "tags": {"amenity": "bicycle_parking", "bicycle_parking": "stands", "capacity": "6", "covered": "no"}}, {"type": "node", "id": 8118580438, "lat": 51.5272706, "lon": 0.1697376, "tags": {"amenity": "bicycle_parking", "bicycle_parking": "stands", "capacity": "6", "covered": "no"}}, {"type": "node", "id": 8972234719, "lat": 51.5540985, "lon": 0.1419143, "tags": {"amenity": "bicycle_parking", "bicycle_parking": "stands", "capacity": "8", "covered": "no"}}, {"type": "node", "id": 9318263840, "lat": 51.5679871, "lon": 0.1284713, "tags": {"access": "customers", "amenity": "bicycle_parking", "bicycle_parking": "two-tier", "capacity": "16", "covered": "yes", "fee": "no"}}, {"type": "node", "id": 9318263841, "lat": 51.5674153, "lon": 0.1294421, "tags": {"access": "yes", "amenity": "bicycle_parking", "bicycle_parking": "stands", "capacity": "8", "covered": "no", "fee": "no"}}, {"type": "node", "id": 9326793555, "lat": 51.5476776, "lon": 0.1696443, "tags": {"amenity": "bicycle_parking"}}, {"type": "node", "id": 9340978310, "lat": 51.5219863, "lon": 0.109678, "tags": {"amenity": "bicycle_parking", "bicycle_parking": "stands", "capacity": "4", "covered": "no"}}, {"type": "node", "id": 9471169916, "lat": 51.5256508, "lon": 0.1468516, "tags": {"amenity": "bicycle_parking"}}, {"type": "node", "id": 9471464279, "lat": 51.5172376, "lon": 0.1512913, "tags": {"amenity": "bicycle_parking"}}, {"type": "node", "id": 9804644002, "lat": 51.5357141, "lon": 0.0735574, "tags": {"amenity": "bicycle_parking", "bicycle_parking": "stands", "capacity": "6", "covered": "yes"}}, {"type": "node", "id": 9811008444, "lat": 51.5357303, "lon": 0.0725422, "tags": {"amenity": "bicycle_parking", "bicycle_parking": "stands", "capacity": "6", "covered": "no"}}, {"type": "node", "id": 9811010624, "lat": 51.5351, "lon": 0.0730854, "tags": {"amenity": "bicycle_parking", "bicycle_parking": "stands", "capacity": "6", "covered": "no"}}, {"type": "node", "id": 9811010625, "lat": 51.5349951, "lon": 0.0731546, "tags": {"amenity": "bicycle_parking", "bicycle_parking": "stands", "capacity": "6", "covered": "no"}}, {"type": "node", "id": 9811013547, "lat": 51.5354226, "lon": 0.0738869, "tags": {"amenity": "bicycle_parking", "bicycle_parking": "stands", "capacity": "6", "covered": "no"}}, {"type": "node", "id": 9811013856, "lat": 51.535384, "lon": 0.0727939, "tags": {"amenity": "bicycle_parking", "bicycle_parking": "stands", "capacity": "6", "covered": "no"}}, {"type": "node", "id": 9863557893, "lat": 51.5659249, "lon": 0.1124018, "tags": {"amenity": "bicycle_parking", "bicycle_parking": "stands", "capacity": "8", "covered": "no"}}, {"type": "node", "id": 10075305663, "lat": 51.5172403, "lon": 0.0776511, "tags": {"amenity": "bicycle_parking", "bicycle_parking": "stands", "capacity": "4", "covered": "no", "lit": "yes"}}, {"type": "node", "id": 10075305665, "lat": 51.5171964, "lon": 0.0779826, "tags": {"amenity": "bicycle_parking", "bicycle_parking": "stands", "capacity": "4", "covered": "no"}}, {"type": "node", "id": 10075305667, "lat": 51.5171455, "lon": 0.078396, "tags": {"amenity": "bicycle_parking", "bicycle_parking": "stands", "capacity": "6", "covered": "no", "lit": "yes"}}, {"type": "node", "id": 10075305673, "lat": 51.5170667, "lon": 0.0790145, "tags": {"amenity": "bicycle_parking", "bicycle_parking": "stands", "capacity": "4", "covered": "no"}}, {"type": "node", "id": 10075305679, "lat": 51.5168815, "lon": 0.0804506, "tags": {"amenity": "bicycle_parking", "bicycle_parking": "stands", "capacity": "4", "covered": "no", "lit": "yes"}}, {"type": "node", "id": 10075305685, "lat": 51.5167508, "lon": 0.0814269, "tags": {"amenity": "bicycle_parking", "bicycle_parking": "stands", "capacity": "4", "covered": "no", "lit": "yes"}}, {"type": "node", "id": 10075305696, "lat": 51.5159742, "lon": 0.0818462, "tags": {"amenity": "bicycle_parking", "bicycle_parking": "stands", "capacity": "6", "covered": "no", "lit": "yes"}}, {"type": "node", "id": 10075305698, "lat": 51.5157676, "lon": 0.0817799, "tags": {"amenity": "bicycle_parking", "bicycle_parking": "stands", "capacity": "6", "covered": "no", "lit": "yes"}}, {"type": "node", "id": 10080316185, "lat": 51.5210597, "lon": 0.0694048, "tags": {"amenity": "bicycle_parking", "bicycle_parking": "stands", "capacity": "44", "covered": "yes"}}, {"type": "node", "id": 10082808098, "lat": 51.5215111, "lon": 0.07104, "tags": {"amenity": "bicycle_parking", "bicycle_parking": "stands", "capacity": "14", "covered": "no"}}, {"type": "node", "id": 10121269201, "lat": 51.5162768, "lon": 0.1173126, "tags": {"amenity": "bicycle_parking", "bicycle_parking": "stands", "capacity": "18", "covered": "no"}}, {"type": "node", "id": 10121269202, "lat": 51.516221, "lon": 0.1173596, "tags": {"amenity": "bicycle_parking", "bicycle_parking": "stands", "capacity": "16", "covered": "no"}}, {"type": "node", "id": 10273090600, "lat": 51.5799354, "lon": 0.1844047, "tags": {"amenity": "bicycle_parking", "bicycle_parking": "post_hoop", "capacity": "5", "covered": "no", "ref:GB:tflcid": "RWG122801"}}, {"type": "node", "id": 10273090601, "lat": 51.581101, "lon": 0.1835333, "tags": {"amenity": "bicycle_parking", "bicycle_parking": "stands", "capacity": "4", "ref:GB:tflcid": "RWG122793"}}, {"type": "node", "id": 10273090602, "lat": 51.580007, "lon": 0.1862467, "tags": {"amenity": "bicycle_parking", "bicycle_parking": "stands", "capacity": "54", "covered": "yes", "ref:GB:tflcid": "RWG122773"}}, {"type": "node", "id": 10273090603, "lat": 51.580027, "lon": 0.1836017, "tags": {"amenity": "bicycle_parking", "bicycle_parking": "stands", "capacity": "6", "covered": "yes", "ref:GB:tflcid": "RWG122778"}}, {"type": "node", "id": 10273090604, "lat": 51.5751616, "lon": 0.1835148, "tags": {"amenity": "bicycle_parking", "bicycle_parking": "stands", "capacity": "4", "covered": "no", "ref:GB:tflcid": "RWG122670"}}, {"type": "node", "id": 10273090605, "lat": 51.5772678, "lon": 0.1839882, "tags": {"amenity": "bicycle_parking", "bicycle_parking": "stands", "capacity": "6", "covered": "yes", "ref:GB:tflcid": "RWG122781"}}, {"type": "node", "id": 10273090606, "lat": 51.5771976, "lon": 0.1838575, "tags": {"amenity": "bicycle_parking", "bicycle_parking": "stands", "capacity": "6", "covered": "yes", "ref:GB:tflcid": "RWG122782"}}, {"type": "node", "id": 10273090607, "lat": 51.5744483, "lon": 0.1847826, "tags": {"amenity": "bicycle_parking", "bicycle_parking": "stands", "capacity": "6", "ref:GB:tflcid": "RWG122789"}}, {"type": "node", "id": 10273090608, "lat": 51.5740298, "lon": 0.1838254, "tags": {"amenity": "bicycle_parking", "bicycle_parking": "stands", "capacity": "4", "ref:GB:tflcid": "RWG122665"}}, {"type": "node", "id": 10273108557, "lat": 51.5754472, "lon": 0.1832546, "tags": {"amenity": "bicycle_parking", "bicycle_parking": "stands", "capacity": "6", "covered": "no", "ref:GB:tflcid": "RWG122750"}}, {"type": "node", "id": 10273108558, "lat": 51.5750104, "lon": 0.1836147, "tags": {"amenity": "bicycle_parking", "bicycle_parking": "stands", "capacity": "2", "covered": "yes", "ref:GB:tflcid": "RWG122668"}}, {"type": "node", "id": 10273108559, "lat": 51.5742028, "lon": 0.1844029, "tags": {"amenity": "bicycle_parking", "bicycle_parking": "stands", "capacity": "4", "ref:GB:tflcid": "RWG122787"}}, {"type": "node", "id": 10273108560, "lat": 51.5743193, "lon": 0.1843708, "tags": {"amenity": "bicycle_parking", "bicycle_parking": "stands", "capacity": "6", "ref:GB:tflcid": "RWG122788"}}, {"type": "node", "id": 10273108676, "lat": 51.5807723, "lon": 0.1832857, "tags": {"amenity": "bicycle_parking", "bicycle_parking": "stands", "capacity": "12", "ref:GB:tflcid": "RWG122794"}}, {"type": "node", "id": 10273108677, "lat": 51.5799266, "lon": 0.1827355, "tags": {"amenity": "bicycle_parking", "bicycle_parking": "stands", "capacity": "4", "ref:GB:tflcid": "RWG122764"}}, {"type": "node", "id": 10273108678, "lat": 51.5798688, "lon": 0.1826359, "tags": {"amenity": "bicycle_parking", "bicycle_parking": "stands", "capacity": "4", "ref:GB:tflcid": "RWG122762"}}, {"type": "node", "id": 10273108679, "lat": 51.5795713, "lon": 0.1848199, "tags": {"amenity": "bicycle_parking", "bicycle_parking": "post_hoop", "capacity": "1", "ref:GB:tflcid": "RWG122783"}}, {"type": "node", "id": 10273108680, "lat": 51.5748766, "lon": 0.1836991, "tags": {"amenity": "bicycle_parking", "bicycle_parking": "stands", "capacity": "18", "covered": "yes", "ref:GB:tflcid": "RWG122667"}}, {"type": "node", "id": 10273108681, "lat": 51.577233, "lon": 0.1839223, "tags": {"amenity": "bicycle_parking", "bicycle_parking": "stands", "capacity": "6", "covered": "yes", "ref:GB:tflcid": "RWG122780"}}, {"type": "node", "id": 10273108682, "lat": 51.5756999, "lon": 0.1830268, "tags": {"amenity": "bicycle_parking", "bicycle_parking": "stands", "capacity": "8", "covered": "no", "ref:GB:tflcid": "RWG122751"}}, {"type": "node", "id": 10273108683, "lat": 51.5733461, "lon": 0.1839729, "tags": {"amenity": "bicycle_parking", "bicycle_parking": "stands", "capacity": "6", "ref:GB:tflcid": "RWG122786"}}, {"type": "node", "id": 10273109033, "lat": 51.5808555, "lon": 0.1832454, "tags": {"amenity": "bicycle_parking", "bicycle_parking": "stands", "capacity": "6", "ref:GB:tflcid": "RWG122795"}}, {"type": "node", "id": 10273109034, "lat": 51.5765265, "lon": 0.1825452, "tags": {"amenity": "bicycle_parking", "bicycle_parking": "stands", "capacity": "20", "ref:GB:tflcid": "RWG122753"}}, {"type": "node", "id": 10273109127, "lat": 51.5798446, "lon": 0.1825928, "tags": {"amenity": "bicycle_parking", "bicycle_parking": "stands", "capacity": "8", "ref:GB:tflcid": "RWG122759"}}, {"type": "node", "id": 10273109128, "lat": 51.5795738, "lon": 0.1848467, "tags": {"amenity": "bicycle_parking", "bicycle_parking": "post_hoop", "capacity": "1", "ref:GB:tflcid": "RWG122784"}}, {"type": "node", "id": 10273109129, "lat": 51.5753883, "lon": 0.183307, "tags": {"amenity": "bicycle_parking", "bicycle_parking": "stands", "capacity": "6", "covered": "no", "ref:GB:tflcid": "RWG122749"}}, {"type": "node", "id": 10273109130, "lat": 51.5764675, "lon": 0.1826118, "tags": {"amenity": "bicycle_parking", "bicycle_parking": "stands", "capacity": "4", "ref:GB:tflcid": "RWG122752"}}, {"type": "node", "id": 10273109316, "lat": 51.5750873, "lon": 0.1835608, "tags": {"amenity": "bicycle_parking", "bicycle_parking": "stands", "capacity": "12", "covered": "yes", "ref:GB:tflcid": "RWG122671"}}, {"type": "node", "id": 10273109514, "lat": 51.5790117, "lon": 0.184698, "tags": {"amenity": "bicycle_parking", "bicycle_parking": "stands", "capacity": "8", "covered": "yes", "ref:GB:tflcid": "RWG122779"}}, {"type": "node", "id": 10273109628, "lat": 51.5799467, "lon": 0.1827667, "tags": {"amenity": "bicycle_parking", "bicycle_parking": "stands", "capacity": "4", "ref:GB:tflcid": "RWG122765"}}, {"type": "node", "id": 10277984627, "lat": 51.5654598, "lon": 0.1046933, "tags": {"amenity": "bicycle_parking", "bicycle_parking": "stands", "capacity": "8", "ref:GB:tflcid": "RWG156841"}}, {"type": "node", "id": 10277984628, "lat": 51.5655702, "lon": 0.1045819, "tags": {"amenity": "bicycle_parking", "bicycle_parking": "stands", "capacity": "4", "ref:GB:tflcid": "RWG156766"}}, {"type": "node", "id": 10277984629, "lat": 51.5671066, "lon": 0.1174281, "tags": {"amenity": "bicycle_parking", "bicycle_parking": "stands", "capacity": "12", "ref:GB:tflcid": "RWG156619"}}, {"type": "node", "id": 10277984630, "lat": 51.5671733, "lon": 0.1173831, "tags": {"amenity": "bicycle_parking", "bicycle_parking": "stands", "capacity": "2", "ref:GB:tflcid": "RWG156618"}}, {"type": "node", "id": 10277984943, "lat": 51.5669832, "lon": 0.1122982, "tags": {"amenity": "bicycle_parking", "capacity": "12", "ref:GB:tflcid": "RWG156666"}}, {"type": "node", "id": 10277984944, "lat": 51.5656899, "lon": 0.1105621, "tags": {"amenity": "bicycle_parking", "bicycle_parking": "stands", "capacity": "6", "ref:GB:tflcid": "RWG156669"}}, {"type": "node", "id": 10277984945, "lat": 51.5675266, "lon": 0.1172465, "tags": {"amenity": "bicycle_parking", "bicycle_parking": "stands", "capacity": "2", "covered": "no", "ref:GB:tflcid": "RWG156616"}}, {"type": "node", "id": 10277984946, "lat": 51.5673733, "lon": 0.1172815, "tags": {"amenity": "bicycle_parking", "bicycle_parking": "stands", "capacity": "2", "covered": "no", "ref:GB:tflcid": "RWG156617"}}, {"type": "node", "id": 10277986716, "lat": 51.5650316, "lon": 0.1019823, "tags": {"amenity": "bicycle_parking", "bicycle_parking": "stands", "capacity": "4", "covered": "no", "ref:GB:tflcid": "RWG156759"}}, {"type": "node", "id": 10277986717, "lat": 51.5655999, "lon": 0.1111165, "tags": {"amenity": "bicycle_parking", "bicycle_parking": "stands", "capacity": "10", "covered": "yes", "ref:GB:tflcid": "RWG289768"}}, {"type": "node", "id": 10277986829, "lat": 51.5651232, "lon": 0.1037146, "tags": {"amenity": "bicycle_parking", "bicycle_parking": "stands", "capacity": "6", "ref:GB:tflcid": "RWG156844"}}, {"type": "node", "id": 10277986830, "lat": 51.5653098, "lon": 0.1032749, "tags": {"amenity": "bicycle_parking", "bicycle_parking": "stands", "capacity": "4", "ref:GB:tflcid": "RWG156807"}}, {"type": "node", "id": 10277986831, "lat": 51.5663322, "lon": 0.1082754, "tags": {"amenity": "bicycle_parking", "bicycle_parking": "stands", "capacity": "4", "ref:GB:tflcid": "RWG156768"}}, {"type": "node", "id": 10277991875, "lat": 51.5286902, "lon": 0.1699602, "tags": {"amenity": "bicycle_parking", "capacity": "8", "ref:GB:tflcid": "RWG122723"}}, {"type": "node", "id": 10277991876, "lat": 51.5287377, "lon": 0.1706004, "tags": {"amenity": "bicycle_parking", "capacity": "8", "ref:GB:tflcid": "RWG122721"}}, {"type": "node", "id": 10277991959, "lat": 51.5989574, "lon": 0.1613235, "tags": {"amenity": "bicycle_parking", "bicycle_parking": "stands", "capacity": "4", "ref:GB:tflcid": "RWG156553"}}, {"type": "node", "id": 10277992232, "lat": 51.5285037, "lon": 0.1893748, "tags": {"amenity": "bicycle_parking", "bicycle_parking": "stands", "capacity": "8", "ref:GB:tflcid": "RWG122641"}}, {"type": "node", "id": 10277992234, "lat": 51.5296186, "lon": 0.1687905, "tags": {"amenity": "bicycle_parking", "bicycle_parking": "stands", "capacity": "6", "ref:GB:tflcid": "RWG122717"}}, {"type": "node", "id": 10277992237, "lat": 51.5990797, "lon": 0.1619708, "tags": {"amenity": "bicycle_parking", "bicycle_parking": "post_hoop", "capacity": "2", "ref:GB:tflcid": "RWG156550"}}, {"type": "node", "id": 10277993011, "lat": 51.5294636, "lon": 0.1680741, "tags": {"amenity": "bicycle_parking", "bicycle_lock": "provided", "bicycle_parking": "upright_stands", "capacity": "10", "covered": "yes", "ref:GB:tflcid": "RWG122714"}}, {"type": "node", "id": 10277995464, "lat": 51.5179902, "lon": 0.1709234, "tags": {"amenity": "bicycle_parking", "bicycle_parking": "stands", "capacity": "16", "covered": "yes", "ref:GB:tflcid": "RWG122772"}}, {"type": "node", "id": 10277995466, "lat": 51.5292612, "lon": 0.1686833, "tags": {"amenity": "bicycle_parking", "bicycle_parking": "stands", "capacity": "8", "ref:GB:tflcid": "RWG122715"}}, {"type": "node", "id": 10277995467, "lat": 51.5285979, "lon": 0.1699437, "tags": {"amenity": "bicycle_parking", "capacity": "8", "ref:GB:tflcid": "RWG122722"}}, {"type": "node", "id": 10277995468, "lat": 51.5285714, "lon": 0.1698272, "tags": {"amenity": "bicycle_parking", "capacity": "8", "ref:GB:tflcid": "RWG122724"}}, {"type": "node", "id": 10277995469, "lat": 51.5289635, "lon": 0.1695363, "tags": {"amenity": "bicycle_parking", "bicycle_parking": "stands", "capacity": "10", "ref:GB:tflcid": "RWG122720"}}, {"type": "node", "id": 10277995470, "lat": 51.529508, "lon": 0.1697331, "tags": {"amenity": "bicycle_parking", "bicycle_parking": "stands", "capacity": "8", "ref:GB:tflcid": "RWG122718"}}, {"type": "node", "id": 10277995489, "lat": 51.5992062, "lon": 0.1625181, "tags": {"amenity": "bicycle_parking", "bicycle_parking": "stands", "capacity": "2", "ref:GB:tflcid": "RWG156551"}}, {"type": "node", "id": 10277995640, "lat": 51.518054, "lon": 0.1707753, "tags": {"amenity": "bicycle_parking", "bicycle_parking": "stands", "capacity": "30", "covered": "yes", "ref:GB:tflcid": "RWG122771"}}, {"type": "node", "id": 10277995646, "lat": 51.5292967, "lon": 0.1704948, "tags": {"amenity": "bicycle_parking", "capacity": "12", "ref:GB:tflcid": "RWG122719"}}, {"type": "node", "id": 10277995657, "lat": 51.5977738, "lon": 0.1534686, "tags": {"amenity": "bicycle_parking", "bicycle_parking": "post_hoop", "capacity": "2", "ref:GB:tflcid": "RWG156576"}}, {"type": "node", "id": 10277995658, "lat": 51.5989116, "lon": 0.1622215, "tags": {"amenity": "bicycle_parking", "bicycle_parking": "stands", "capacity": "2", "ref:GB:tflcid": "RWG156546"}}, {"type": "node", "id": 10277995659, "lat": 51.5990107, "lon": 0.1616266, "tags": {"amenity": "bicycle_parking", "bicycle_parking": "stands", "capacity": "2", "ref:GB:tflcid": "RWG156552"}}, {"type": "node", "id": 10277995660, "lat": 51.5985634, "lon": 0.1609971, "tags": {"amenity": "bicycle_parking", "bicycle_parking": "stands", "capacity": "10", "ref:GB:tflcid": "RWG156547"}}, {"type": "node", "id": 10277996562, "lat": 51.5187975, "lon": 0.1698181, "tags": {"amenity": "bicycle_parking", "bicycle_parking": "stands", "capacity": "6", "covered": "yes", "ref:GB:tflcid": "RWG122769"}}, {"type": "node", "id": 10277996563, "lat": 51.5245469, "lon": 0.1758992, "tags": {"amenity": "bicycle_parking", "bicycle_parking": "stands", "capacity": "10", "covered": "yes", "ref:GB:tflcid": "RWG122735"}}, {"type": "node", "id": 10277996564, "lat": 51.5287519, "lon": 0.1898342, "tags": {"amenity": "bicycle_parking", "bicycle_parking": "stands", "capacity": "4", "ref:GB:tflcid": "RWG122643"}}, {"type": "node", "id": 10277996565, "lat": 51.5288017, "lon": 0.1901518, "tags": {"amenity": "bicycle_parking", "bicycle_parking": "stands", "capacity": "4", "ref:GB:tflcid": "RWG122740"}}, {"type": "node", "id": 10277996566, "lat": 51.5303589, "lon": 0.1876236, "tags": {"amenity": "bicycle_parking", "bicycle_parking": "stands", "capacity": "6", "ref:GB:tflcid": "RWG122661"}}, {"type": "node", "id": 10277996567, "lat": 51.5288993, "lon": 0.1892528, "tags": {"amenity": "bicycle_parking", "bicycle_parking": "stands", "capacity": "4", "ref:GB:tflcid": "RWG122642"}}, {"type": "node", "id": 10277996574, "lat": 51.5294704, "lon": 0.1689204, "tags": {"amenity": "bicycle_parking", "bicycle_parking": "stands", "capacity": "8", "ref:GB:tflcid": "RWG122716"}}, {"type": "node", "id": 10277996580, "lat": 51.5981837, "lon": 0.1574918, "tags": {"amenity": "bicycle_parking", "bicycle_parking": "stands", "capacity": "4", "ref:GB:tflcid": "RWG156554"}}, {"type": "node", "id": 10277996581, "lat": 51.5990472, "lon": 0.1628649, "tags": {"amenity": "bicycle_parking", "bicycle_parking": "stands", "capacity": "4", "ref:GB:tflcid": "RWG156545"}}, {"type": "node", "id": 10280259087, "lat": 51.5772029, "lon": 0.1794897, "tags": {"amenity": "bicycle_parking", "bicycle_parking": "stands", "capacity": "10", "covered": "yes", "ref:GB:tflcid": "RWG122754"}}, {"type": "node", "id": 10280259088, "lat": 51.5776634, "lon": 0.1786727, "tags": {"amenity": "bicycle_parking", "bicycle_parking": "stands", "capacity": "8", "ref:GB:tflcid": "RWG122800"}}, {"type": "node", "id": 10280259089, "lat": 51.5686189, "lon": 0.1804756, "tags": {"amenity": "bicycle_parking", "bicycle_parking": "stands", "capacity": "10", "ref:GB:tflcid": "RWG289780"}}, {"type": "node", "id": 10280259090, "lat": 51.5684357, "lon": 0.1808179, "tags": {"amenity": "bicycle_parking", "bicycle_parking": "stands", "capacity": "20", "covered": "yes", "ref:GB:tflcid": "RWG289777"}}, {"type": "node", "id": 10280259091, "lat": 51.5685641, "lon": 0.1805221, "tags": {"amenity": "bicycle_parking", "bicycle_parking": "stands", "capacity": "10", "ref:GB:tflcid": "RWG289779"}}, {"type": "node", "id": 10280259092, "lat": 51.5679286, "lon": 0.1808734, "tags": {"amenity": "bicycle_parking", "bicycle_parking": "stands", "capacity": "10", "covered": "yes", "ref:GB:tflcid": "RWG289782"}}, {"type": "node", "id": 10280259139, "lat": 51.5815497, "lon": 0.1744775, "tags": {"amenity": "bicycle_parking", "bicycle_parking": "upright_stands", "capacity": "10", "covered": "yes", "ref:GB:tflcid": "RWG156560"}}, {"type": "node", "id": 10280260221, "lat": 51.5814563, "lon": 0.1745566, "tags": {"amenity": "bicycle_parking", "bicycle_parking": "upright_stands", "capacity": "15", "covered": "yes", "ref:GB:tflcid": "RWG156561"}}, {"type": "node", "id": 10280260222, "lat": 51.5769466, "lon": 0.1775546, "tags": {"amenity": "bicycle_parking", "bicycle_parking": "stands", "capacity": "10", "ref:GB:tflcid": "RWG122755"}}, {"type": "node", "id": 10280260293, "lat": 51.5717386, "lon": 0.1892719, "tags": {"amenity": "bicycle_parking", "bicycle_parking": "post_hoop", "capacity": "4", "ref:GB:tflcid": "RWG122790"}}, {"type": "node", "id": 10280260294, "lat": 51.5653233, "lon": 0.1881655, "tags": {"amenity": "bicycle_parking", "bicycle_parking": "stands", "capacity": "6", "ref:GB:tflcid": "RWG122603"}}, {"type": "node", "id": 10280269992, "lat": 51.5582343, "lon": 0.0750412, "tags": {"amenity": "bicycle_parking", "bicycle_parking": "stands", "capacity": "12", "ref:GB:tflcid": "RWG157213"}}, {"type": "node", "id": 10280269993, "lat": 51.5583769, "lon": 0.0749853, "tags": {"amenity": "bicycle_parking", "bicycle_parking": "stands", "capacity": "10", "ref:GB:tflcid": "RWG157214"}}, {"type": "node", "id": 10280270646, "lat": 51.5763921, "lon": 0.0677248, "tags": {"amenity": "bicycle_parking", "bicycle_parking": "stands", "capacity": "14", "ref:GB:tflcid": "RWG220535"}}, {"type": "node", "id": 10280270717, "lat": 51.5582479, "lon": 0.0746112, "tags": {"amenity": "bicycle_parking", "bicycle_parking": "stands", "capacity": "8", "ref:GB:tflcid": "RWG157215"}}, {"type": "node", "id": 10280270718, "lat": 51.5594836, "lon": 0.0754791, "tags": {"amenity": "bicycle_parking", "bicycle_parking": "stands", "capacity": "6", "ref:GB:tflcid": "RWG157211"}}, {"type": "node", "id": 10280273723, "lat": 51.5583963, "lon": 0.0757404, "tags": {"amenity": "bicycle_parking", "bicycle_parking": "stands", "capacity": "6", "ref:GB:tflcid": "RWG157212"}}, {"type": "node", "id": 10280274711, "lat": 51.5763203, "lon": 0.0669383, "tags": {"amenity": "bicycle_parking", "bicycle_parking": "stands", "capacity": "10", "ref:GB:tflcid": "RWG220539"}}, {"type": "node", "id": 10280274712, "lat": 51.5765343, "lon": 0.0670705, "tags": {"amenity": "bicycle_parking", "bicycle_parking": "stands", "capacity": "14", "ref:GB:tflcid": "RWG220540"}}, {"type": "node", "id": 10280274713, "lat": 51.5588056, "lon": 0.0745129, "tags": {"amenity": "bicycle_parking", "bicycle_parking": "stands", "capacity": "12", "ref:GB:tflcid": "RWG157219"}}, {"type": "node", "id": 10280277501, "lat": 51.533941, "lon": 0.1672996, "tags": {"amenity": "bicycle_parking", "bicycle_parking": "stands", "capacity": "4", "ref:GB:tflcid": "RWG157018"}}, {"type": "node", "id": 10280281653, "lat": 51.5604998, "lon": 0.0794015, "tags": {"amenity": "bicycle_parking", "bicycle_parking": "upright_stands", "capacity": "6", "covered": "yes", "ref:GB:tflcid": "RWG157157"}}, {"type": "node", "id": 10280282736, "lat": 51.5600663, "lon": 0.0783089, "tags": {"amenity": "bicycle_parking", "bicycle_parking": "upright_stands", "capacity": "4", "ref:GB:tflcid": "RWG157209"}}, {"type": "node", "id": 10280282737, "lat": 51.5599982, "lon": 0.0780206, "tags": {"amenity": "bicycle_parking", "bicycle_parking": "upright_stands", "capacity": "4", "ref:GB:tflcid": "RWG157210"}}, {"type": "node", "id": 10280282738, "lat": 51.5605414, "lon": 0.0793832, "tags": {"amenity": "bicycle_parking", "bicycle_parking": "upright_stands", "capacity": "7", "covered": "yes", "ref:GB:tflcid": "RWG157156"}}, {"type": "node", "id": 10280284110, "lat": 51.5605115, "lon": 0.0793975, "tags": {"amenity": "bicycle_parking", "bicycle_parking": "stands", "capacity": "1", "covered": "yes", "ref:GB:tflcid": "RWG157159"}}, {"type": "node", "id": 10280284111, "lat": 51.5604899, "lon": 0.0794052, "tags": {"amenity": "bicycle_parking", "bicycle_parking": "stands", "capacity": "1", "covered": "yes", "ref:GB:tflcid": "RWG157158"}}, {"type": "node", "id": 10280284112, "lat": 51.5596823, "lon": 0.0823142, "tags": {"amenity": "bicycle_parking", "bicycle_parking": "stands", "capacity": "8", "ref:GB:tflcid": "RWG156865"}}, {"type": "node", "id": 10281975297, "lat": 51.5983511, "lon": 0.1769913, "tags": {"amenity": "bicycle_parking", "bicycle_parking": "stands", "capacity": "2", "ref:GB:tflcid": "RWG122693"}}, {"type": "node", "id": 10281997767, "lat": 51.5984955, "lon": 0.1764965, "tags": {"amenity": "bicycle_parking", "bicycle_parking": "stands", "capacity": "2", "covered": "no", "ref:GB:tflcid": "RWG122694"}}, {"type": "node", "id": 10282006215, "lat": 51.5460177, "lon": 0.0769348, "tags": {"amenity": "bicycle_parking", "bicycle_parking": "stands", "capacity": "28", "covered": "yes", "ref:GB:tflcid": "RWG156819"}}, {"type": "node", "id": 10282006217, "lat": 51.566719, "lon": 0.0877391, "tags": {"amenity": "bicycle_parking", "bicycle_parking": "stands", "capacity": "10", "ref:GB:tflcid": "RWG157160"}}, {"type": "node", "id": 10282006225, "lat": 51.5329194, "lon": 0.0818072, "tags": {"amenity": "bicycle_parking", "bicycle_parking": "upright_stands", "capacity": "12", "ref:GB:tflcid": "RWG157126"}}, {"type": "node", "id": 10282006259, "lat": 51.5391111, "lon": 0.0809464, "tags": {"amenity": "bicycle_parking", "bicycle_parking": "stands", "capacity": "12", "covered": "no", "ref:GB:tflcid": "RWG156894"}}, {"type": "node", "id": 10282006413, "lat": 51.5591432, "lon": 0.0830575, "tags": {"amenity": "bicycle_parking", "bicycle_parking": "stands", "capacity": "6", "ref:GB:tflcid": "RWG156864"}}, {"type": "node", "id": 10282006425, "lat": 51.5560938, "lon": 0.0898572, "tags": {"amenity": "bicycle_parking", "capacity": "4", "ref:GB:tflcid": "RWG289761"}}, {"type": "node", "id": 10282006442, "lat": 51.5397612, "lon": 0.1872349, "tags": {"amenity": "bicycle_parking", "bicycle_parking": "stands", "capacity": "6", "ref:GB:tflcid": "RWG122745"}}, {"type": "node", "id": 10282006452, "lat": 51.5837837, "lon": 0.1686261, "tags": {"amenity": "bicycle_parking", "bicycle_parking": "stands", "capacity": "12", "ref:GB:tflcid": "RWG156565"}}, {"type": "node", "id": 10282006478, "lat": 51.5802745, "lon": 0.0733297, "tags": {"amenity": "bicycle_parking", "bicycle_parking": "stands", "capacity": "6", "ref:GB:tflcid": "RWG156585"}}, {"type": "node", "id": 10282007319, "lat": 51.580494, "lon": 0.1781572, "tags": {"amenity": "bicycle_parking", "bicycle_parking": "post_hoop", "capacity": "1", "ref:GB:tflcid": "RWG122797"}}, {"type": "node", "id": 10282007320, "lat": 51.5805406, "lon": 0.1781489, "tags": {"amenity": "bicycle_parking", "bicycle_parking": "post_hoop", "capacity": "1", "ref:GB:tflcid": "RWG122798"}}, {"type": "node", "id": 10282007321, "lat": 51.5793344, "lon": 0.1786828, "tags": {"amenity": "bicycle_parking", "bicycle_parking": "stands", "capacity": "8", "ref:GB:tflcid": "RWG122799"}}, {"type": "node", "id": 10282007322, "lat": 51.5780825, "lon": 0.1806799, "tags": {"amenity": "bicycle_parking", "bicycle_parking": "stands", "capacity": "8", "ref:GB:tflcid": "RWG122756"}}, {"type": "node", "id": 10282007484, "lat": 51.5479844, "lon": 0.0798413, "tags": {"amenity": "bicycle_parking", "bicycle_parking": "stands", "capacity": "6", "ref:GB:tflcid": "RWG156920"}}, {"type": "node", "id": 10282007508, "lat": 51.5642533, "lon": 0.0761553, "tags": {"access": "private", "amenity": "bicycle_parking", "bicycle_parking": "shed", "capacity": "6", "covered": "yes", "operator": "Cyclehoop Rentals", "ref:GB:tflcid": "RWG156611"}}, {"type": "node", "id": 10282007559, "lat": 51.5577227, "lon": 0.0738023, "tags": {"amenity": "bicycle_parking", "bicycle_parking": "stands", "capacity": "8", "ref:GB:tflcid": "RWG157216"}}, {"type": "node", "id": 10282007560, "lat": 51.5499773, "lon": 0.0749286, "tags": {"amenity": "bicycle_parking", "bicycle_parking": "stands", "capacity": "6", "ref:GB:tflcid": "RWG156817"}}, {"type": "node", "id": 10282007562, "lat": 51.5568506, "lon": 0.0694396, "tags": {"amenity": "bicycle_parking", "bicycle_parking": "stands", "capacity": "4", "ref:GB:tflcid": "RWG157228"}}, {"type": "node", "id": 10282007563, "lat": 51.5559439, "lon": 0.0712349, "tags": {"amenity": "bicycle_parking", "bicycle_parking": "stands", "capacity": "6", "ref:GB:tflcid": "RWG157225"}}, {"type": "node", "id": 10282007579, "lat": 51.5642776, "lon": 0.0762047, "tags": {"access": "private", "amenity": "bicycle_parking", "bicycle_parking": "shed", "capacity": "12", "covered": "yes", "operator": "Cyclehoop Rentals", "ref:GB:tflcid": "RWG156612"}}, {"type": "node", "id": 10282007639, "lat": 51.5568214, "lon": 0.0695975, "tags": {"amenity": "bicycle_parking", "bicycle_parking": "stands", "capacity": "4", "ref:GB:tflcid": "RWG157226"}}, {"type": "node", "id": 10282007808, "lat": 51.5929799, "lon": 0.1811217, "tags": {"amenity": "bicycle_parking", "bicycle_parking": "stands", "capacity": "6", "covered": "no", "ref:GB:tflcid": "RWG122640"}}, {"type": "node", "id": 10282007836, "lat": 51.565558, "lon": 0.175898, "tags": {"amenity": "bicycle_parking", "bicycle_parking": "stands", "capacity": "2", "ref:GB:tflcid": "RWG156581"}}, {"type": "node", "id": 10282007837, "lat": 51.5655262, "lon": 0.1754693, "tags": {"amenity": "bicycle_parking", "bicycle_parking": "stands", "capacity": "2", "ref:GB:tflcid": "RWG156580"}}, {"type": "node", "id": 10282007850, "lat": 51.5677699, "lon": 0.1172631, "tags": {"amenity": "bicycle_parking", "bicycle_parking": "stands", "capacity": "12", "ref:GB:tflcid": "RWG156615"}}, {"type": "node", "id": 10282007851, "lat": 51.5677579, "lon": 0.1169369, "tags": {"amenity": "bicycle_parking", "bicycle_parking": "stands", "capacity": "8", "ref:GB:tflcid": "RWG156620"}}, {"type": "node", "id": 10282007891, "lat": 51.5704179, "lon": 0.1290219, "tags": {"amenity": "bicycle_parking", "bicycle_parking": "stands", "capacity": "6", "ref:GB:tflcid": "RWG156609"}}, {"type": "node", "id": 10282007900, "lat": 51.5921566, "lon": 0.08421, "tags": {"amenity": "bicycle_parking", "bicycle_parking": "stands", "capacity": "4", "ref:GB:tflcid": "RWG157051"}}, {"type": "node", "id": 10282007910, "lat": 51.5804678, "lon": 0.1781819, "tags": {"amenity": "bicycle_parking", "bicycle_parking": "post_hoop", "capacity": "1", "ref:GB:tflcid": "RWG122796"}}, {"type": "node", "id": 10282007954, "lat": 51.5835172, "lon": 0.167377, "tags": {"amenity": "bicycle_parking", "bicycle_parking": "stands", "capacity": "8", "ref:GB:tflcid": "RWG220536"}}, {"type": "node", "id": 10282007971, "lat": 51.5653768, "lon": 0.1755155, "tags": {"amenity": "bicycle_parking", "bicycle_parking": "stands", "capacity": "2", "ref:GB:tflcid": "RWG156593"}}, {"type": "node", "id": 10282008313, "lat": 51.5532821, "lon": 0.0733675, "tags": {"amenity": "bicycle_parking", "bicycle_parking": "stands", "capacity": "6", "ref:GB:tflcid": "RWG156810"}}, {"type": "node", "id": 10282008314, "lat": 51.5772886, "lon": 0.0833852, "tags": {"amenity": "bicycle_parking", "bicycle_parking": "stands", "capacity": "6", "ref:GB:tflcid": "RWG156772"}}, {"type": "node", "id": 10282008336, "lat": 51.5824465, "lon": 0.1647697, "tags": {"amenity": "bicycle_parking", "bicycle_parking": "stands", "capacity": "4", "ref:GB:tflcid": "RWG157323"}}, {"type": "node", "id": 10282008404, "lat": 51.5896438, "lon": 0.1682825, "tags": {"amenity": "bicycle_parking", "bicycle_parking": "stands", "capacity": "4", "ref:GB:tflcid": "RWG122628"}}, {"type": "node", "id": 10282008406, "lat": 51.5590496, "lon": 0.0669204, "tags": {"amenity": "bicycle_parking", "bicycle_parking": "stands", "capacity": "12", "ref:GB:tflcid": "RWG156861"}}, {"type": "node", "id": 10282008407, "lat": 51.5590904, "lon": 0.0670516, "tags": {"amenity": "bicycle_parking", "bicycle_parking": "stands", "capacity": "4", "ref:GB:tflcid": "RWG156862"}}, {"type": "node", "id": 10282008810, "lat": 51.5568793, "lon": 0.0695372, "tags": {"amenity": "bicycle_parking", "bicycle_parking": "stands", "capacity": "2", "ref:GB:tflcid": "RWG157227"}}, {"type": "node", "id": 10282008812, "lat": 51.5929956, "lon": 0.0849503, "tags": {"amenity": "bicycle_parking", "bicycle_parking": "stands", "capacity": "6", "ref:GB:tflcid": "RWG157053"}}, {"type": "node", "id": 10282009614, "lat": 51.5642957, "lon": 0.0762447, "tags": {"access": "private", "amenity": "bicycle_parking", "bicycle_parking": "shed", "capacity": "6", "covered": "yes", "operator": "Cyclehoop Rentals", "ref:GB:tflcid": "RWG156613"}}, {"type": "node", "id": 10282009624, "lat": 51.509353, "lon": 0.1206473, "tags": {"amenity": "bicycle_parking", "capacity": "5", "ref:GB:tflcid": "RWG171415"}}, {"type": "node", "id": 10282009647, "lat": 51.5906922, "lon": 0.1675726, "tags": {"amenity": "bicycle_parking", "bicycle_parking": "stands", "capacity": "8", "covered": "yes", "ref:GB:tflcid": "RWG122629"}}, {"type": "node", "id": 10282010009, "lat": 51.5953353, "lon": 0.1849577, "tags": {"amenity": "bicycle_parking", "bicycle_parking": "stands", "capacity": "10", "ref:GB:tflcid": "RWG122697"}}, {"type": "node", "id": 10282010010, "lat": 51.5957962, "lon": 0.1866708, "tags": {"amenity": "bicycle_parking", "bicycle_parking": "stands", "capacity": "6", "ref:GB:tflcid": "RWG122699"}}, {"type": "node", "id": 10282010011, "lat": 51.5953371, "lon": 0.1858386, "tags": {"amenity": "bicycle_parking", "bicycle_parking": "stands", "capacity": "10", "ref:GB:tflcid": "RWG122698"}}, {"type": "node", "id": 10282010018, "lat": 51.5586882, "lon": 0.0717034, "tags": {"amenity": "bicycle_parking", "bicycle_parking": "stands", "capacity": "6", "ref:GB:tflcid": "RWG157218"}}, {"type": "node", "id": 10282010019, "lat": 51.558634, "lon": 0.0717514, "tags": {"amenity": "bicycle_parking", "bicycle_parking": "stands", "capacity": "6", "ref:GB:tflcid": "RWG157217"}}, {"type": "node", "id": 10282010020, "lat": 51.5577723, "lon": 0.0699928, "tags": {"amenity": "bicycle_parking", "bicycle_parking": "stands", "capacity": "6", "ref:GB:tflcid": "RWG157224"}}, {"type": "node", "id": 10282010021, "lat": 51.5617193, "lon": 0.0699334, "tags": {"amenity": "bicycle_parking", "bicycle_parking": "stands", "capacity": "4", "ref:GB:tflcid": "RWG156610"}}, {"type": "node", "id": 10282010045, "lat": 51.5733898, "lon": 0.0835279, "tags": {"amenity": "bicycle_parking", "bicycle_parking": "stands", "capacity": "2", "ref:GB:tflcid": "RWG999398"}}, {"type": "node", "id": 10282010046, "lat": 51.5738328, "lon": 0.0846456, "tags": {"amenity": "bicycle_parking", "capacity": "8", "ref:GB:tflcid": "RWG156774"}}, {"type": "node", "id": 10282010047, "lat": 51.5750809, "lon": 0.0838048, "tags": {"amenity": "bicycle_parking", "capacity": "12", "ref:GB:tflcid": "RWG156773"}}, {"type": "node", "id": 10282010417, "lat": 51.5927463, "lon": 0.0844406, "tags": {"amenity": "bicycle_parking", "bicycle_parking": "stands", "capacity": "12", "ref:GB:tflcid": "RWG157052"}}, {"type": "node", "id": 10282010439, "lat": 51.561145, "lon": 0.0998054, "tags": {"amenity": "bicycle_parking", "bicycle_parking": "stands", "capacity": "6", "ref:GB:tflcid": "RWG156645"}}, {"type": "node", "id": 10282010440, "lat": 51.5593249, "lon": 0.1091595, "tags": {"amenity": "bicycle_parking", "bicycle_parking": "stands", "capacity": "8", "ref:GB:tflcid": "RWG156803"}}, {"type": "node", "id": 10282010467, "lat": 51.5796566, "lon": 0.1125109, "tags": {"amenity": "bicycle_parking", "bicycle_parking": "stands", "capacity": "20", "covered": "yes", "ref:GB:tflcid": "RWG157326"}}, {"type": "node", "id": 10282010473, "lat": 51.5372752, "lon": 0.0713269, "tags": {"amenity": "bicycle_parking", "bicycle_parking": "stands", "capacity": "1", "ref:GB:tflcid": "RWG156997"}}, {"type": "node", "id": 10282013811, "lat": 51.5829185, "lon": 0.1671994, "tags": {"amenity": "bicycle_parking", "bicycle_parking": "stands", "capacity": "14", "ref:GB:tflcid": "RWG156566"}}, {"type": "node", "id": 10282013814, "lat": 51.5093539, "lon": 0.1207072, "tags": {"amenity": "bicycle_parking", "capacity": "4", "ref:GB:tflcid": "RWG171413"}}, {"type": "node", "id": 10282013859, "lat": 51.5267081, "lon": 0.1656319, "tags": {"access": "private", "amenity": "bicycle_parking", "bicycle_parking": "shed", "capacity": "6", "covered": "yes", "operator": "Cyclehoop Rentals", "ref:GB:tflcid": "RWG122713"}}, {"type": "node", "id": 10282015717, "lat": 51.5471798, "lon": 0.0806093, "tags": {"amenity": "bicycle_parking", "bicycle_parking": "stands", "capacity": "6", "ref:GB:tflcid": "RWG156922"}}, {"type": "node", "id": 10282015737, "lat": 51.5617759, "lon": 0.0911469, "tags": {"amenity": "bicycle_parking", "bicycle_parking": "stands", "capacity": "24", "covered": "yes", "ref:GB:tflcid": "RWG157161"}}, {"type": "node", "id": 10282015770, "lat": 51.5678802, "lon": 0.0714668, "tags": {"amenity": "bicycle_parking", "bicycle_parking": "stands", "capacity": "6", "ref:GB:tflcid": "RWG289762"}}, {"type": "node", "id": 10282016934, "lat": 51.5913024, "lon": 0.1573603, "tags": {"amenity": "bicycle_parking", "bicycle_parking": "stands", "capacity": "6", "ref:GB:tflcid": "RWG156548"}}, {"type": "node", "id": 10282016935, "lat": 51.5973296, "lon": 0.1581814, "tags": {"amenity": "bicycle_parking", "bicycle_parking": "stands", "capacity": "6", "ref:GB:tflcid": "RWG156555"}}, {"type": "node", "id": 10282016936, "lat": 51.591062, "lon": 0.157714, "tags": {"amenity": "bicycle_parking", "bicycle_parking": "stands", "capacity": "6", "ref:GB:tflcid": "RWG156549"}}, {"type": "node", "id": 10282020709, "lat": 51.5339908, "lon": 0.1827484, "tags": {"amenity": "bicycle_parking", "bicycle_parking": "stands", "capacity": "4", "ref:GB:tflcid": "RWG122775"}}, {"type": "node", "id": 10282021847, "lat": 51.5705742, "lon": 0.1290892, "tags": {"amenity": "bicycle_parking", "bicycle_parking": "stands", "capacity": "6", "ref:GB:tflcid": "RWG156601"}}, {"type": "node", "id": 10282021860, "lat": 51.5909703, "lon": 0.0824672, "tags": {"amenity": "bicycle_parking", "bicycle_parking": "stands", "capacity": "6", "ref:GB:tflcid": "RWG157054"}}, {"type": "node", "id": 10282024137, "lat": 51.5727422, "lon": 0.1259276, "tags": {"amenity": "bicycle_parking", "bicycle_parking": "stands", "capacity": "6", "ref:GB:tflcid": "RWG156740"}}, {"type": "node", "id": 10282024138, "lat": 51.5729918, "lon": 0.1256422, "tags": {"amenity": "bicycle_parking", "bicycle_parking": "stands", "capacity": "6", "ref:GB:tflcid": "RWG156674"}}, {"type": "node", "id": 10282024148, "lat": 51.5796498, "lon": 0.1125473, "tags": {"amenity": "bicycle_parking", "bicycle_lock": "provided", "bicycle_parking": "stands", "capacity": "20", "covered": "yes", "ref:GB:tflcid": "RWG156568"}}, {"type": "node", "id": 10302568789, "lat": 51.5341839, "lon": 0.0877825, "tags": {"amenity": "bicycle_parking", "capacity": "8"}}, {"type": "node", "id": 10308641119, "lat": 51.5517909, "lon": 0.114669, "tags": {"amenity": "bicycle_parking", "bicycle_parking": "stands", "capacity": "6"}}, {"type": "node", "id": 10308641123, "lat": 51.5520539, "lon": 0.1147151, "tags": {"amenity": "bicycle_parking", "capacity": "4"}}, {"type": "node", "id": 10569084925, "lat": 51.5399656, "lon": 0.1005237, "tags": {"amenity": "bicycle_parking", "capacity": "2"}}, {"type": "node", "id": 10581122019, "lat": 51.5300012, "lon": 0.0783241, "tags": {"amenity": "bicycle_parking", "capacity": "6", "source": "mapillary"}}, {"type": "node", "id": 10583773852, "lat": 51.561293, "lon": 0.0759328, "tags": {"amenity": "bicycle_parking", "capacity": "6"}}, {"type": "node", "id": 10584170469, "lat": 51.538823, "lon": 0.0806161, "tags": {"amenity": "bicycle_parking", "bicycle_parking": "stands", "capacity": "18", "covered": "no"}}, {"type": "node", "id": 10584712899, "lat": 51.5398945, "lon": 0.0712111, "tags": {"amenity": "bicycle_parking", "capacity": "6"}}, {"type": "node", "id": 10606333425, "lat": 51.5543791, "lon": 0.0783101, "tags": {"access": "private", "amenity": "bicycle_parking", "covered": "yes", "source": "streetside"}}, {"type": "node", "id": 10686049060, "lat": 51.5582351, "lon": 0.0689232, "tags": {"amenity": "bicycle_parking"}}, {"type": "node", "id": 10686049061, "lat": 51.5582968, "lon": 0.0688672, "tags": {"amenity": "bicycle_parking"}}, {"type": "node", "id": 10704579081, "lat": 51.5361255, "lon": 0.0715711, "tags": {"amenity": "bicycle_parking", "capacity": "6"}}, {"type": "node", "id": 10706565052, "lat": 51.539131, "lon": 0.0781313, "tags": {"amenity": "bicycle_parking", "capacity": "40"}}, {"type": "node", "id": 10728702190, "lat": 51.5901333, "lon": 0.0823322, "tags": {"access": "yes", "amenity": "bicycle_parking", "covered": "no", "fee": "no", "source": "local knowledge;streetlevel imagery"}}, {"type": "node", "id": 10760189534, "lat": 51.5574246, "lon": 0.0723063, "tags": {"amenity": "bicycle_parking"}}, {"type": "node", "id": 10781722449, "lat": 51.5573049, "lon": 0.0720931, "tags": {"amenity": "bicycle_parking", "capacity": "6"}}, {"type": "node", "id": 10781728931, "lat": 51.5568909, "lon": 0.0715797, "tags": {"amenity": "bicycle_parking", "capacity": "12"}}, {"type": "node", "id": 11072072268, "lat": 51.5868581, "lon": 0.0807929, "tags": {"access": "yes", "amenity": "bicycle_parking", "covered": "no", "fee": "no"}}, {"type": "node", "id": 11197363590, "lat": 51.534225, "lon": 0.0837906, "tags": {"amenity": "bicycle_parking", "capacity": "8"}}, {"type": "node", "id": 11322690609, "lat": 51.590312, "lon": 0.0817901, "tags": {"access": "yes", "amenity": "bicycle_parking", "covered": "no", "fee": "no", "source": "local knowledge;survey;streetlevel imagery"}}, {"type": "node", "id": 11352289977, "lat": 51.5897963, "lon": 0.0818493, "tags": {"access": "yes", "amenity": "bicycle_parking", "covered": "no", "fee": "no", "source": "local knowledge;streetlevel imagery"}}, {"type": "node", "id": 11459526773, "lat": 51.5769184, "lon": 0.0676113, "tags": {"amenity": "bicycle_parking", "bicycle_parking": "safe_loops", "capacity": "10", "fee": "no"}}, {"type": "node", "id": 11484021500, "lat": 51.5930919, "lon": 0.0858886, "tags": {"amenity": "bicycle_parking", "bicycle_parking": "lockers", "covered": "no"}}, {"type": "node", "id": 11542943323, "lat": 51.5757086, "lon": 0.0679992, "tags": {"amenity": "bicycle_parking", "capacity": "10"}}, {"type": "node", "id": 11543657110, "lat": 51.5695524, "lon": 0.1245223, "tags": {"amenity": "bicycle_parking", "capacity": "8"}}, {"type": "node", "id": 11867180969, "lat": 51.5323634, "lon": 0.0760409, "tags": {"access": "yes", "amenity": "bicycle_parking", "bicycle_parking": "stands", "capacity": "16", "covered": "no", "fee": "no"}}, {"type": "node", "id": 11983094293, "lat": 51.5225149, "lon": 0.1863453, "tags": {"amenity": "bicycle_parking", "bicycle_parking": "stands", "capacity": "6", "covered": "no", "fee": "no"}}, {"type": "node", "id": 11997916327, "lat": 51.5858235, "lon": 0.0815799, "tags": {"access": "customers", "amenity": "bicycle_parking", "fee": "no"}}, {"type": "node", "id": 12068116416, "lat": 51.5368691, "lon": 0.0736016, "tags": {"amenity": "bicycle_parking", "capacity": "8"}}, {"type": "node", "id": 12068878625, "lat": 51.5329687, "lon": 0.0764122, "tags": {"amenity": "bicycle_parking"}}, {"type": "node", "id": 12068878643, "lat": 51.5336429, "lon": 0.0770175, "tags": {"amenity": "bicycle_parking"}}, {"type": "node", "id": 12068878659, "lat": 51.5339107, "lon": 0.077906, "tags": {"amenity": "bicycle_parking"}}, {"type": "node", "id": 12713984219, "lat": 51.5211437, "lon": 0.0722532, "tags": {"amenity": "bicycle_parking", "bicycle_parking": "stands", "capacity": "6", "covered": "yes"}}, {"type": "node", "id": 12862424386, "lat": 51.559209, "lon": 0.0693395, "tags": {"amenity": "bicycle_parking", "bicycle_parking": "two-tier", "covered": "yes"}}, {"type": "node", "id": 12862438115, "lat": 51.5591841, "lon": 0.0691375, "tags": {"amenity": "bicycle_parking", "bicycle_parking": "two-tier", "covered": "yes"}}, {"type": "node", "id": 13026762645, "lat": 51.5251762, "lon": 0.0794354, "tags": {"amenity": "bicycle_parking", "bicycle_parking": "stands", "capacity": "8", "covered": "yes", "fee": "no"}}, {"type": "node", "id": 13475138023, "lat": 51.5284754, "lon": 0.1049351, "tags": {"access": "customers", "amenity": "bicycle_parking", "bicycle_parking": "stands", "capacity": "6", "covered": "yes", "operator:type": "private"}}, {"type": "way", "id": 860751371, "center": {"lat": 51.5347647, "lon": 0.1555709}, "nodes": [8022616900, 8022616901, 8022616902, 8022616903, 8022616900], "tags": {"amenity": "bicycle_parking", "covered": "yes"}}, {"type": "way", "id": 860751389, "center": {"lat": 51.5727128, "lon": 0.1769253}, "nodes": [8022616996, 8022617011, 8022617010, 8022617009, 8022616996], "tags": {"amenity": "bicycle_parking", "covered": "yes"}}, {"type": "way", "id": 883214147, "center": {"lat": 51.5090633, "lon": 0.0721055}, "nodes": [8213542523, 8213542524, 8213542525, 8213542526, 8213542523], "tags": {"access": "yes", "amenity": "bicycle_parking", "bicycle_parking": "stands", "capacity": "14", "covered": "yes", "source": "survey"}}, {"type": "way", "id": 1005437468, "center": {"lat": 51.5194146, "lon": 0.1160602}, "nodes": [9276480261, 9276480262, 9900029518, 9276480264, 9900029519, 9276480260, 9276480261], "tags": {"access": "customers", "amenity": "bicycle_parking", "bicycle_parking": "building", "covered": "yes", "level": "0", "smoothness": "excellent", "surface": "paved"}}, {"type": "way", "id": 1010930943, "center": {"lat": 51.5477279, "lon": 0.1697}, "nodes": [9326760434, 9326760435, 9326760436, 9326760437, 9326760434], "tags": {"amenity": "bicycle_parking", "bicycle_parking": "shed", "building": "yes"}}, {"type": "way", "id": 1219625135, "center": {"lat": 51.5868733, "lon": 0.071586}, "nodes": [10705670086, 11300997770, 11300997737, 11300997738, 10705670104, 11300997769, 11300997768, 11300997739, 10705670086], "tags": {"amenity": "bicycle_parking", "bicycle_parking": "shed", "building": "yes"}}, {"type": "way", "id": 1219625145, "center": {"lat": 51.5869077, "lon": 0.0723816}, "nodes": [11300997755, 11300997915, 11300997926, 11300997756, 11300997757, 11300997758, 11300997755], "tags": {"amenity": "bicycle_parking", "bicycle_parking": "shed", "building": "yes"}}, {"type": "way", "id": 1219625148, "center": {"lat": 51.5871428, "lon": 0.0710408}, "nodes": [11300997762, 11300997763, 11300997764, 10705670096, 11300997765, 11300997766, 11300997767, 11195016379, 11300997762], "tags": {"amenity": "bicycle_parking", "bicycle_parking": "shed", "building": "yes"}}, {"type": "way", "id": 1231171903, "center": {"lat": 51.5914281, "lon": 0.0763657}, "nodes": [11418020876, 11418020877, 11418020878, 11418020879, 11418020876], "tags": {"access": "private", "amenity": "bicycle_parking", "bicycle_parking": "shed", "building": "school", "fee": "no"}}, {"type": "way", "id": 1421905897, "center": {"lat": 51.5292906, "lon": 0.1098834}, "nodes": [13067512571, 13067512570, 13067512569, 13067512568, 13067512571], "tags": {"access": "private", "amenity": "bicycle_parking", "building": "shed", "covered": "yes"}}]}