{"version": 0.6, "generator": "Overpass API 0.7.62.10 2d4cfc48", "osm3s": {"timestamp_osm_base": "2026-02-19T13:36:04Z", "copyright": "The data included in this document is from www.openstreetmap.org. The data is made available under ODbL."}, "elements": [{"type": "node", "id": 30159709, "lat": 51.3356882, "lon": -0.0043131, "tags": {"amenity": "bicycle_parking"}}, {"type": "node", "id": 262903084, "lat": 51.4353751, "lon": 0.1009855, "tags": {"amenity": "bicycle_parking", "bicycle_parking": "stands", "capacity": "12", "covered": "no"}}, {"type": "node", "id": 265818744, "lat": 51.3870469, "lon": -0.0652312, "tags": {"amenity": "bicycle_parking", "bicycle_parking": "stands", "capacity": "16", "covered": "no"}}, {"type": "node", "id": 270385527, "lat": 51.412218, "lon": -0.0656662, "tags": {"amenity": "bicycle_parking", "capacity": "12", "check_date": "2025-07-29"}}, {"type": "node", "id": 271047604, "lat": 51.4163225, "lon": -0.0728191, "tags": {"amenity": "bicycle_parking", "bicycle_parking": "stands", "capacity": "2", "check_date:capacity": "2023-03-15", "covered": "no"}}, {"type": "node", "id": 276848632, "lat": 51.4145661, "lon": -0.0524215, "tags": {"amenity": "bicycle_parking", "bicycle_parking": "stands", "capacity": "6", "covered": "yes"}}, {"type": "node", "id": 277675323, "lat": 51.4380249, "lon": -0.0544756, "tags": {"amenity": "bicycle_parking", "capacity": "4"}}, {"type": "node", "id": 286493148, "lat": 51.4123869, "lon": -0.0655157, "tags": {"amenity": "bicycle_parking", "bicycle_parking": "stands", "capacity": "12", "check_date": "2024-07-12", "covered": "no"}}, {"type": "node", "id": 288037177, "lat": 51.3998026, "lon": 0.0173112, "tags": {"amenity": "bicycle_parking", "bicycle_parking": "stands", "capacity": "80", "covered": "yes"}}, {"type": "node", "id": 293018530, "lat": 51.3780554, "lon": 0.101243, "tags": {"amenity": "bicycle_parking", "capacity": "4"}}, {"type": "node", "id": 298023994, "lat": 51.4068564, "lon": -0.0488224, "tags": {"access": "customers", "amenity": "bicycle_parking", "bicycle_parking": "shed", "capacity": "10", "fee": "yes"}}, {"type": "node", "id": 311217128, "lat": 51.3967478, "lon": -0.0495835, "tags": {"amenity": "bicycle_parking", "capacity": "24", "source:capacity": "survey"}}, {"type": "node", "id": 311420173, "lat": 51.3996403, "lon": 0.0174375, "tags": {"amenity": "bicycle_parking", "bicycle_parking": "stands", "capacity": "10", "check_date:capacity": "2025-07-22", "covered": "no"}}, {"type": "node", "id": 316077026, "lat": 51.3972328, "lon": -0.0741613, "tags": {"amenity": "bicycle_parking", "bicycle_parking": "stands", "capacity": "18", "covered": "no"}}, {"type": "node", "id": 319105325, "lat": 51.4268148, "lon": -0.0558398, "tags": {"amenity": "bicycle_parking", "capacity": "6"}}, {"type": "node", "id": 325253432, "lat": 51.3454393, "lon": -0.0204308, "tags": {"amenity": "bicycle_parking", "capacity": "20"}}, {"type": "node", "id": 325253433, "lat": 51.356155, "lon": -0.0332802, "tags": {"amenity": "bicycle_parking", "capacity": "24"}}, {"type": "node", "id": 333270470, "lat": 51.432539, "lon": -0.0203593, "tags": {"amenity": "bicycle_parking", "capacity": "10"}}, {"type": "node", "id": 333389436, "lat": 51.4271432, "lon": 0.0458651, "tags": {"amenity": "bicycle_parking", "bicycle_parking": "stands", "capacity": "4", "covered": "no"}}, {"type": "node", "id": 338825628, "lat": 51.4063959, "lon": -0.0578395, "tags": {"amenity": "bicycle_parking", "bicycle_parking": "stands", "capacity": "4", "covered": "no"}}, {"type": "node", "id": 363996578, "lat": 51.4032132, "lon": -0.0695612, "tags": {"amenity": "bicycle_parking", "bicycle_parking": "stands", "capacity": "4", "check_date": "2022-11-22", "covered": "no"}}, {"type": "node", "id": 387836950, "lat": 51.4059879, "lon": 0.0568717, "tags": {"amenity": "bicycle_parking", "capacity": "20", "name": "Chislehurst Station", "operator": "South Eastern"}}, {"type": "node", "id": 387842372, "lat": 51.4401495, "lon": 0.0487603, "tags": {"amenity": "bicycle_parking", "capacity": "10", "operator": "South Eastern"}}, {"type": "node", "id": 387842376, "lat": 51.4380542, "lon": 0.0697321, "tags": {"amenity": "bicycle_parking", "capacity": "20"}}, {"type": "node", "id": 418797358, "lat": 51.3999297, "lon": 0.045285, "tags": {"access": "yes", "amenity": "bicycle_parking", "bicycle_parking": "stands", "capacity": "13", "covered": "no", "fee": "no", "operator": "Southeastern", "operator:type": "private"}}, {"type": "node", "id": 418797367, "lat": 51.4167277, "lon": -0.0353417, "tags": {"amenity": "bicycle_parking", "capacity": "20", "fixme": "Does this exist inside the station, or was it just misplaced for the now separately mapped cycle parking outside the station?"}}, {"type": "node", "id": 419901247, "lat": 51.4025879, "lon": 0.0153626, "tags": {"amenity": "bicycle_parking", "bicycle_parking": "stands", "capacity": "4", "covered": "no"}}, {"type": "node", "id": 419901249, "lat": 51.4026257, "lon": 0.0155457, "tags": {"amenity": "bicycle_parking", "bicycle_parking": "stands", "capacity": "8", "check_date:capacity": "2025-05-22", "covered": "no"}}, {"type": "node", "id": 419912309, "lat": 51.4036857, "lon": 0.0185908, "tags": {"amenity": "bicycle_parking", "bicycle_parking": "stands", "capacity": "10", "covered": "yes"}}, {"type": "node", "id": 419912310, "lat": 51.4035584, "lon": 0.0185378, "tags": {"amenity": "bicycle_parking", "capacity": "18", "check_date": "2024-05-18", "covered": "yes"}}, {"type": "node", "id": 419912311, "lat": 51.4034246, "lon": 0.0185342, "tags": {"amenity": "bicycle_parking", "bicycle_parking": "stands", "capacity": "16", "check_date": "2024-05-29", "covered": "no"}}, {"type": "node", "id": 420300529, "lat": 51.405382, "lon": 0.0146182, "tags": {"amenity": "bicycle_parking", "bicycle_parking": "stands", "capacity": "4", "covered": "no"}}, {"type": "node", "id": 420302566, "lat": 51.4042174, "lon": 0.0204608, "tags": {"amenity": "bicycle_parking", "bicycle_parking": "stands", "capacity": "12", "covered": "yes"}}, {"type": "node", "id": 420319358, "lat": 51.4001788, "lon": 0.0321842, "tags": {"amenity": "bicycle_parking", "capacity": "4"}}, {"type": "node", "id": 420331777, "lat": 51.3967368, "lon": 0.038816, "tags": {"amenity": "bicycle_parking", "bicycle_parking": "stands", "capacity": "8", "covered": "no"}}, {"type": "node", "id": 420364327, "lat": 51.3964389, "lon": 0.0237429, "tags": {"amenity": "bicycle_parking", "bicycle_parking": "stands", "capacity": "20", "covered": "no", "fee": "no"}}, {"type": "node", "id": 420729594, "lat": 51.4008422, "lon": 0.0162041, "tags": {"amenity": "bicycle_parking", "bicycle_parking": "stands", "capacity": "6", "check_date": "2024-06-01", "covered": "no"}}, {"type": "node", "id": 420729613, "lat": 51.401728, "lon": 0.015427, "tags": {"amenity": "bicycle_parking", "bicycle_parking": "stands", "capacity": "6", "covered": "no"}}, {"type": "node", "id": 420771846, "lat": 51.4079265, "lon": 0.0165256, "tags": {"amenity": "bicycle_parking", "bicycle_parking": "stands", "capacity": "10", "covered": "no"}}, {"type": "node", "id": 420783210, "lat": 51.4033766, "lon": 0.0143413, "tags": {"amenity": "bicycle_parking", "bicycle_parking": "stands", "capacity": "12", "check_date": "2024-05-18", "covered": "no"}}, {"type": "node", "id": 420787959, "lat": 51.402702, "lon": 0.0171855, "tags": {"amenity": "bicycle_parking", "bicycle_parking": "stands", "capacity": "10", "check_date": "2024-07-07", "covered": "no"}}, {"type": "node", "id": 420897833, "lat": 51.3897469, "lon": 0.0720898, "tags": {"amenity": "bicycle_parking", "capacity": "8"}}, {"type": "node", "id": 422080749, "lat": 51.4197396, "lon": -0.0798382, "tags": {"amenity": "bicycle_parking", "bicycle_parking": "stands", "capacity": "4", "check_date": "2025-12-13", "covered": "no"}}, {"type": "node", "id": 425907415, "lat": 51.3933304, "lon": 0.0342485, "tags": {"amenity": "bicycle_parking", "bicycle_parking": "stands", "capacity": "8", "covered": "no"}}, {"type": "node", "id": 425982791, "lat": 51.3748717, "lon": 0.098478, "tags": {"amenity": "bicycle_parking", "bicycle_parking": "stands", "capacity": "10", "covered": "no"}}, {"type": "node", "id": 518524420, "lat": 51.419424, "lon": -0.0638318, "tags": {"amenity": "bicycle_parking", "bicycle_parking": "stands", "capacity": "18", "covered": "no"}}, {"type": "node", "id": 538092678, "lat": 51.4124894, "lon": -0.0451471, "tags": {"amenity": "bicycle_parking", "bicycle_parking": "two-tier", "capacity": "16", "check_date": "2024-07-08", "covered": "yes"}}, {"type": "node", "id": 652802334, "lat": 51.439259, "lon": 0.050643, "tags": {"amenity": "bicycle_parking", "bicycle_parking": "stands", "capacity": "6", "colour": "silver;black", "covered": "no", "cyclestreets_id": "204284", "mapillary": "4037362699673856", "material": "metal", "survey:date": "2024-06-09"}}, {"type": "node", "id": 663852763, "lat": 51.3799576, "lon": -0.0324463, "tags": {"amenity": "bicycle_parking"}}, {"type": "node", "id": 663852775, "lat": 51.3811888, "lon": -0.0291309, "tags": {"access": "customers", "amenity": "bicycle_parking", "bicycle_parking": "shed", "check_date": "2025-12-13", "check_date:fee": "2025-12-13", "covered": "yes", "fee": "no"}}, {"type": "node", "id": 766133424, "lat": 51.3798313, "lon": -0.0139186, "tags": {"amenity": "bicycle_parking", "bicycle_parking": "stands", "capacity": "20", "covered": "no"}}, {"type": "node", "id": 775891932, "lat": 51.378789, "lon": 0.1046858, "tags": {"amenity": "bicycle_parking", "capacity": "10"}}, {"type": "node", "id": 775891958, "lat": 51.4093176, "lon": 0.010599, "tags": {"amenity": "bicycle_parking", "bicycle_parking": "stands", "capacity": "10", "covered": "no", "mapillary": "942518213267090", "survey:date": "2019-09-21"}}, {"type": "node", "id": 874452303, "lat": 51.396051, "lon": -0.0603878, "tags": {"amenity": "bicycle_parking", "bicycle_parking": "stands", "capacity": "8", "covered": "no"}}, {"type": "node", "id": 992479415, "lat": 51.3565575, "lon": 0.1080742, "tags": {"amenity": "bicycle_parking", "covered": "yes"}}, {"type": "node", "id": 992596779, "lat": 51.4339135, "lon": 0.1036724, "tags": {"amenity": "bicycle_parking", "bicycle_parking": "stands", "capacity": "16", "check_date": "2023-05-24", "covered": "yes"}}, {"type": "node", "id": 1078628317, "lat": 51.4328774, "lon": -0.0788134, "tags": {"amenity": "bicycle_parking", "bicycle_parking": "stands", "capacity": "2", "mapillary": "183974596832434", "survey:date": "2019-07-31"}}, {"type": "node", "id": 1101789558, "lat": 51.4437648, "lon": -0.0733215, "tags": {"amenity": "bicycle_parking", "capacity": "8", "covered": "no"}}, {"type": "node", "id": 1102057965, "lat": 51.4435696, "lon": -0.0680394, "tags": {"amenity": "bicycle_parking", "capacity": "8", "covered": "no"}}, {"type": "node", "id": 1107477113, "lat": 51.4434717, "lon": -0.0776253, "tags": {"amenity": "bicycle_parking", "capacity": "4"}}, {"type": "node", "id": 1593536352, "lat": 51.3317053, "lon": 0.0523431, "tags": {"amenity": "bicycle_parking", "bicycle_parking": "stands", "capacity": "5", "covered": "no"}}, {"type": "node", "id": 1836930913, "lat": 51.4086826, "lon": -0.0592957, "tags": {"amenity": "bicycle_parking", "bicycle_parking": "stands", "capacity": "8", "covered": "yes"}}, {"type": "node", "id": 1880541109, "lat": 51.4169964, "lon": -0.0734149, "tags": {"amenity": "bicycle_parking", "bicycle_parking": "stands", "capacity": "8", "covered": "no"}}, {"type": "node", "id": 2031635740, "lat": 51.4205694, "lon": -0.0676517, "tags": {"amenity": "bicycle_parking", "bicycle_parking": "stands", "capacity": "48", "covered": "no", "supervised": "no"}}, {"type": "node", "id": 2047270254, "lat": 51.4197792, "lon": -0.0793863, "tags": {"access": "yes", "amenity": "bicycle_parking", "bicycle_parking": "stands", "capacity": "4", "covered": "no", "fee": "no", "source": "photograph"}}, {"type": "node", "id": 2320705566, "lat": 51.2902546, "lon": -0.0516004, "tags": {"amenity": "bicycle_parking", "bicycle_parking": "stands", "capacity": "15", "covered": "yes"}}, {"type": "node", "id": 2320708483, "lat": 51.3083054, "lon": -0.0780858, "tags": {"amenity": "bicycle_parking", "bicycle_parking": "stands", "capacity": "10", "check_date": "2025-03-29", "covered": "yes"}}, {"type": "node", "id": 2320708485, "lat": 51.3084602, "lon": -0.0781426, "tags": {"amenity": "bicycle_parking", "bicycle_parking": "stands", "capacity": "4", "check_date": "2023-01-28", "covered": "no"}}, {"type": "node", "id": 2332033027, "lat": 51.4095823, "lon": -0.0807687, "tags": {"access": "customers", "amenity": "bicycle_parking", "capacity": "3", "covered": "no"}}, {"type": "node", "id": 2346204556, "lat": 51.4170739, "lon": -0.0810767, "tags": {"amenity": "bicycle_parking", "bicycle_parking": "stands", "capacity": "4", "check_date": "2025-11-30", "covered": "no"}}, {"type": "node", "id": 2352147273, "lat": 51.4184488, "lon": -0.0799823, "tags": {"amenity": "bicycle_parking", "bicycle_parking": "stands", "capacity": "2", "covered": "no"}}, {"type": "node", "id": 2352147322, "lat": 51.4189975, "lon": -0.0794027, "tags": {"amenity": "bicycle_parking", "bicycle_parking": "stands", "capacity": "4", "covered": "no"}}, {"type": "node", "id": 2399573943, "lat": 51.3847617, "lon": -0.0709394, "tags": {"amenity": "bicycle_parking", "bicycle_parking": "stands", "capacity": "16", "check_date:capacity": "2021-01-01", "covered": "no"}}, {"type": "node", "id": 2482150712, "lat": 51.3768452, "lon": -0.0145885, "tags": {"amenity": "bicycle_parking", "bicycle_parking": "stands", "capacity": "6", "covered": "no", "source": "Survey;Bing"}}, {"type": "node", "id": 2526395797, "lat": 51.3596791, "lon": -0.0599504, "tags": {"amenity": "bicycle_parking", "source": "survey"}}, {"type": "node", "id": 2582186811, "lat": 51.4203275, "lon": -0.0785254, "tags": {"amenity": "bicycle_parking", "bicycle_parking": "stands", "capacity": "4", "check_date": "2025-12-13", "covered": "no"}}, {"type": "node", "id": 2582186822, "lat": 51.4204481, "lon": -0.0784791, "tags": {"amenity": "bicycle_parking", "bicycle_parking": "stands", "capacity": "8", "check_date": "2025-12-13", "covered": "no"}}, {"type": "node", "id": 2614600476, "lat": 51.399841, "lon": 0.0176249, "tags": {"amenity": "bicycle_parking", "bicycle_parking": "stands", "capacity": "80", "check_date:capacity": "2025-07-22", "covered": "yes"}}, {"type": "node", "id": 2656383023, "lat": 51.4018251, "lon": 0.0158356, "tags": {"amenity": "bicycle_parking", "bicycle_parking": "stands", "capacity": "2", "covered": "no"}}, {"type": "node", "id": 2710716388, "lat": 51.4008315, "lon": 0.0166581, "tags": {"amenity": "bicycle_parking", "bicycle_parking": "stands", "capacity": "4", "covered": "no"}}, {"type": "node", "id": 2743777594, "lat": 51.4061475, "lon": 0.0014834, "tags": {"access": "yes", "amenity": "bicycle_parking", "bicycle_parking": "stands", "capacity": "10", "covered": "no"}}, {"type": "node", "id": 2780044194, "lat": 51.3456997, "lon": 0.1307225, "tags": {"amenity": "bicycle_parking", "capacity": "5", "covered": "yes"}}, {"type": "node", "id": 3018759072, "lat": 51.4189507, "lon": -0.0675856, "tags": {"amenity": "bicycle_parking", "capacity": "4"}}, {"type": "node", "id": 3032576504, "lat": 51.4298875, "lon": -0.013129, "tags": {"amenity": "bicycle_parking", "bicycle_parking": "stands", "capacity": "3", "covered": "no"}}, {"type": "node", "id": 3239638857, "lat": 51.4309128, "lon": -0.0594659, "tags": {"amenity": "bicycle_parking", "bicycle_parking": "stands", "capacity": "2", "covered": "no"}}, {"type": "node", "id": 3239638858, "lat": 51.4312595, "lon": -0.0598202, "tags": {"amenity": "bicycle_parking", "bicycle_parking": "stands", "capacity": "4", "covered": "no"}}, {"type": "node", "id": 3239638859, "lat": 51.4310838, "lon": -0.0598341, "tags": {"amenity": "bicycle_parking", "bicycle_parking": "stands", "capacity": "2", "check_date": "2026-01-17", "covered": "no"}}, {"type": "node", "id": 3390971516, "lat": 51.4199229, "lon": -0.0667302, "tags": {"amenity": "bicycle_parking", "bicycle_parking": "stands", "capacity": "4", "covered": "no"}}, {"type": "node", "id": 3598508884, "lat": 51.3772017, "lon": -0.028269, "tags": {"amenity": "bicycle_parking", "bicycle_parking": "stands", "capacity": "8", "check_date:capacity": "2021-11-19", "covered": "no"}}, {"type": "node", "id": 3598508887, "lat": 51.3896583, "lon": -0.026372, "tags": {"amenity": "bicycle_parking", "bicycle_parking": "stands", "capacity": "16", "check_date:capacity": "2021-01-25", "covered": "no"}}, {"type": "node", "id": 3598508889, "lat": 51.3901493, "lon": -0.0271618, "tags": {"amenity": "bicycle_parking", "bicycle_parking": "stands", "capacity": "6", "check_date:capacity": "2025-03-09", "covered": "no"}}, {"type": "node", "id": 3598509701, "lat": 51.3983412, "lon": -0.0433238, "tags": {"amenity": "bicycle_parking", "bicycle_parking": "stands", "capacity": "6", "covered": "no"}}, {"type": "node", "id": 3740794259, "lat": 51.4408076, "lon": -0.0619422, "tags": {"amenity": "bicycle_parking", "bicycle_parking": "stands", "capacity": "10", "covered": "no"}}, {"type": "node", "id": 3796700584, "lat": 51.4149176, "lon": -0.0549698, "tags": {"amenity": "bicycle_parking", "bicycle_parking": "stands", "capacity": "4", "check_date": "2025-10-27", "covered": "no"}}, {"type": "node", "id": 3796700595, "lat": 51.4151816, "lon": -0.0546844, "tags": {"amenity": "bicycle_parking", "bicycle_parking": "stands", "capacity": "4"}}, {"type": "node", "id": 3796700599, "lat": 51.4155175, "lon": -0.0533291, "tags": {"amenity": "bicycle_parking", "bicycle_parking": "stands", "capacity": "10", "covered": "no"}}, {"type": "node", "id": 3860006055, "lat": 51.4422905, "lon": -0.0018788, "tags": {"amenity": "bicycle_parking", "bicycle_parking": "stands", "capacity": "8", "covered": "no"}}, {"type": "node", "id": 3886927069, "lat": 51.4260666, "lon": -0.0518261, "tags": {"amenity": "bicycle_parking", "bicycle_parking": "stands", "capacity": "2", "covered": "no"}}, {"type": "node", "id": 3886927071, "lat": 51.4260376, "lon": -0.0514983, "tags": {"amenity": "bicycle_parking", "bicycle_parking": "stands", "capacity": "2", "covered": "no"}}, {"type": "node", "id": 3892498680, "lat": 51.442376, "lon": -0.034622, "tags": {"amenity": "bicycle_parking", "bicycle_parking": "stands", "capacity": "6", "covered": "no"}}, {"type": "node", "id": 3892498684, "lat": 51.4420399, "lon": -0.0329698, "tags": {"amenity": "bicycle_parking", "bicycle_parking": "stands", "capacity": "6", "covered": "no"}}, {"type": "node", "id": 4006779963, "lat": 51.4336448, "lon": -0.010796, "tags": {"amenity": "bicycle_parking"}}, {"type": "node", "id": 4165911067, "lat": 51.411403, "lon": -0.0659813, "tags": {"amenity": "bicycle_parking", "bicycle_parking": "stands", "capacity": "8", "check_date:capacity": "2021-02-27", "covered": "no"}}, {"type": "node", "id": 4221681289, "lat": 51.4303116, "lon": -0.0801465, "tags": {"access": "yes", "amenity": "bicycle_parking", "bicycle_parking": "stands", "capacity": "2", "fee": "no"}}, {"type": "node", "id": 4221818869, "lat": 51.4130655, "lon": -0.0512817, "tags": {"amenity": "bicycle_parking", "bicycle_parking": "stands", "capacity": "4", "check_date:capacity": "2021-07-08", "covered": "no"}}, {"type": "node", "id": 4314950754, "lat": 51.4205835, "lon": 0.1325513, "tags": {"amenity": "bicycle_parking", "bicycle_parking": "stands", "capacity": "8", "covered": "no"}}, {"type": "node", "id": 5205406280, "lat": 51.4249827, "lon": 0.102496, "tags": {"amenity": "bicycle_parking"}}, {"type": "node", "id": 5274482789, "lat": 51.4386865, "lon": 0.0214223, "tags": {"amenity": "bicycle_parking", "bicycle_parking": "stands", "capacity": "4", "covered": "no"}}, {"type": "node", "id": 5421414788, "lat": 51.4329752, "lon": -0.0194353, "tags": {"amenity": "bicycle_parking", "capacity": "10"}}, {"type": "node", "id": 5590317314, "lat": 51.3936592, "lon": 0.111195, "tags": {"amenity": "bicycle_parking", "bicycle_parking": "stands", "capacity": "8", "covered": "yes"}}, {"type": "node", "id": 5827483467, "lat": 51.4255676, "lon": 0.1043312, "tags": {"access": "yes", "amenity": "bicycle_parking", "bicycle_parking": "stands", "capacity": "8", "fee": "no", "lit": "yes", "mapillary": "294583068810654", "survey:date": "2020-11-12"}}, {"type": "node", "id": 5827483469, "lat": 51.4264322, "lon": 0.0999592, "tags": {"access": "yes", "amenity": "bicycle_parking", "capacity": "8", "lit": "yes"}}, {"type": "node", "id": 5827483470, "lat": 51.4265542, "lon": 0.1004346, "tags": {"access": "yes", "amenity": "bicycle_parking", "capacity": "4", "lit": "yes"}}, {"type": "node", "id": 5827483471, "lat": 51.4263869, "lon": 0.1012502, "tags": {"access": "yes", "amenity": "bicycle_parking", "bicycle_parking": "stands", "capacity": "6", "covered": "no", "lit": "yes"}}, {"type": "node", "id": 5863959270, "lat": 51.4142708, "lon": -0.0079395, "tags": {"amenity": "bicycle_parking", "bicycle_parking": "stands", "capacity": "10", "check_date:capacity": "2022-12-28", "covered": "yes"}}, {"type": "node", "id": 6035741687, "lat": 51.4227816, "lon": -0.0180095, "tags": {"access": "customers", "amenity": "bicycle_parking", "bicycle_parking": "stands", "covered": "no"}}, {"type": "node", "id": 6382828577, "lat": 51.3735368, "lon": 0.0978075, "tags": {"access": "yes", "amenity": "bicycle_parking", "bicycle_parking": "stands", "capacity": "8", "covered": "no", "fee": "no", "lit": "yes", "supervised": "no"}}, {"type": "node", "id": 6392138664, "lat": 51.3765477, "lon": 0.0998464, "tags": {"amenity": "bicycle_parking", "bicycle_parking": "stands", "capacity": "10", "covered": "no"}}, {"type": "node", "id": 6433854965, "lat": 51.3152247, "lon": 0.1159512, "tags": {"amenity": "bicycle_parking", "bicycle_parking": "stands", "capacity": "8", "covered": "no"}}, {"type": "node", "id": 6589895521, "lat": 51.420097, "lon": -0.0780327, "tags": {"amenity": "bicycle_parking", "capacity": "4"}}, {"type": "node", "id": 6591487271, "lat": 51.4121849, "lon": -0.0670936, "tags": {"amenity": "bicycle_parking", "bicycle_parking": "stands", "capacity": "4", "covered": "no"}}, {"type": "node", "id": 6610728805, "lat": 51.4191953, "lon": -0.0188994, "tags": {"amenity": "bicycle_parking", "bicycle_parking": "stands", "capacity": "10", "check_date:capacity": "2023-12-25", "covered": "no"}}, {"type": "node", "id": 6633984335, "lat": 51.4102834, "lon": -0.024437, "tags": {"amenity": "bicycle_parking", "bicycle_parking": "stands", "capacity": "4", "covered": "no"}}, {"type": "node", "id": 6633984336, "lat": 51.4100773, "lon": -0.0247811, "tags": {"amenity": "bicycle_parking", "bicycle_parking": "stands", "capacity": "4", "covered": "no"}}, {"type": "node", "id": 6634154542, "lat": 51.4196314, "lon": -0.018133, "tags": {"amenity": "bicycle_parking", "bicycle_parking": "stands", "capacity": "17", "covered": "no", "fee": "no"}}, {"type": "node", "id": 6699210817, "lat": 51.4198057, "lon": -0.0765935, "tags": {"access": "yes", "amenity": "bicycle_parking", "bicycle_parking": "stands", "capacity": "2", "covered": "no"}}, {"type": "node", "id": 6699245161, "lat": 51.4225113, "lon": -0.0659767, "tags": {"access": "yes", "amenity": "bicycle_parking", "bicycle_parking": "stands", "capacity": "8", "covered": "no"}}, {"type": "node", "id": 6723061736, "lat": 51.3975074, "lon": -0.075015, "tags": {"amenity": "bicycle_parking", "bicycle_parking": "stands", "capacity": "8", "covered": "no", "fee": "no"}}, {"type": "node", "id": 6948580790, "lat": 51.4143862, "lon": 0.0200813, "tags": {"amenity": "bicycle_parking", "covered": "no"}}, {"type": "node", "id": 7018319750, "lat": 51.4421276, "lon": -0.0099522, "tags": {"access": "yes", "amenity": "bicycle_parking", "bicycle_parking": "stands", "fee": "no", "lit": "no", "opening_hours": "24/7", "supervised": "no", "surface": "paved"}}, {"type": "node", "id": 7018319751, "lat": 51.4420672, "lon": -0.0092381, "tags": {"access": "yes", "amenity": "bicycle_parking", "bicycle_parking": "stands", "capacity": "10", "covered": "no", "fee": "no", "opening_hours": "24/7", "surface": "paved"}}, {"type": "node", "id": 7057869843, "lat": 51.4323737, "lon": -0.078293, "tags": {"amenity": "bicycle_parking", "bicycle_parking": "stands", "capacity": "4", "covered": "no"}}, {"type": "node", "id": 7122430209, "lat": 51.4401096, "lon": 0.0498419, "tags": {"amenity": "bicycle_parking"}}, {"type": "node", "id": 7211896321, "lat": 51.372188, "lon": 0.1109825, "tags": {"amenity": "bicycle_parking", "bicycle_parking": "stands", "covered": "no"}}, {"type": "node", "id": 7618346916, "lat": 51.3815529, "lon": -0.0290564, "tags": {"amenity": "bicycle_parking", "bicycle_parking": "stands", "capacity": "20", "covered": "yes"}}, {"type": "node", "id": 7701793690, "lat": 51.4197348, "lon": -0.0807673, "tags": {"amenity": "bicycle_parking", "bicycle_parking": "stands", "capacity": "2", "covered": "no"}}, {"type": "node", "id": 7701793691, "lat": 51.4200174, "lon": -0.0797119, "tags": {"amenity": "bicycle_parking", "bicycle_parking": "hoop", "capacity": "4"}}, {"type": "node", "id": 8271944999, "lat": 51.4166826, "lon": -0.0770842, "tags": {"amenity": "bicycle_parking", "bicycle_parking": "lockers", "covered": "yes"}}, {"type": "node", "id": 8311768622, "lat": 51.4432193, "lon": 0.1254925, "tags": {"amenity": "bicycle_parking", "bicycle_parking": "stands", "capacity": "6", "covered": "no"}}, {"type": "node", "id": 8330279983, "lat": 51.4410456, "lon": -0.0617308, "tags": {"amenity": "bicycle_parking", "bicycle_parking": "stands", "capacity": "18"}}, {"type": "node", "id": 8403474872, "lat": 51.4143115, "lon": -0.0751327, "tags": {"access": "private", "amenity": "bicycle_parking", "bicycle_parking": "lockers", "capacity": "6", "colour": "darkgreen", "covered": "yes", "fee": "yes", "operator": "cyclehoop", "operator:type": "local_authority"}}, {"type": "node", "id": 8440356691, "lat": 51.4186525, "lon": -0.0613474, "tags": {"access": "yes", "amenity": "bicycle_parking", "bicycle_parking": "stands", "capacity": "6", "covered": "no", "fee": "no", "operator:type": "public"}}, {"type": "node", "id": 8454104094, "lat": 51.4166059, "lon": -0.0785377, "tags": {"access": "private", "amenity": "bicycle_parking", "bicycle_parking": "lockers", "capacity": "6", "colour": "darkgreen", "covered": "yes", "fee": "yes", "operator": "cyclehoop", "operator:type": "local_authority"}}, {"type": "node", "id": 8454987472, "lat": 51.4140723, "lon": -0.0512079, "tags": {"amenity": "bicycle_parking", "bicycle_parking": "stands", "capacity": "6"}}, {"type": "node", "id": 8465175552, "lat": 51.4393225, "lon": -0.0550261, "tags": {"amenity": "bicycle_parking", "bicycle_parking": "stands", "capacity": "6", "check_date:capacity": "2026-01-17", "covered": "no"}}, {"type": "node", "id": 8513030812, "lat": 51.4144704, "lon": -0.0145693, "tags": {"amenity": "bicycle_parking", "bicycle_parking": "stands", "capacity": "10", "covered": "no", "fee": "no"}}, {"type": "node", "id": 8610523604, "lat": 51.4196506, "lon": -0.0798883, "tags": {"access": "yes", "amenity": "bicycle_parking", "bicycle_parking": "stands", "capacity": "6", "covered": "no", "fee": "no"}}, {"type": "node", "id": 8610523607, "lat": 51.4196671, "lon": -0.0797112, "tags": {"access": "yes", "amenity": "bicycle_parking", "bicycle_parking": "stands", "capacity": "4", "covered": "no", "fee": "no"}}, {"type": "node", "id": 8620153711, "lat": 51.4211188, "lon": -0.0015944, "tags": {"amenity": "bicycle_parking", "bicycle_parking": "stands", "capacity": "14", "covered": "no"}}, {"type": "node", "id": 8635100976, "lat": 51.3953519, "lon": 0.1071219, "tags": {"amenity": "bicycle_parking", "bicycle_parking": "stands", "capacity": "6", "covered": "no"}}, {"type": "node", "id": 8652973601, "lat": 51.393846, "lon": 0.1144699, "tags": {"amenity": "bicycle_parking", "bicycle_parking": "stands", "capacity": "8", "covered": "no"}}, {"type": "node", "id": 8710479870, "lat": 51.3935357, "lon": 0.1130356, "tags": {"amenity": "bicycle_parking", "bicycle_parking": "stands", "capacity": "12", "covered": "no"}}, {"type": "node", "id": 8735815828, "lat": 51.404532, "lon": 0.1032663, "tags": {"amenity": "bicycle_parking", "bicycle_parking": "stands", "capacity": "6", "covered": "no"}}, {"type": "node", "id": 8749645273, "lat": 51.3774641, "lon": 0.0179328, "tags": {"amenity": "bicycle_parking", "bicycle_parking": "stands", "capacity": "8", "covered": "no"}}, {"type": "node", "id": 8773402651, "lat": 51.4231573, "lon": -0.0580821, "tags": {"amenity": "bicycle_parking", "capacity": "6", "colour": "green", "covered": "yes", "lit": "no", "operator": "Cyclehoop", "operator:phone": "+44 20 8699 1338", "operator:type": "private", "operator:website": "https://cyclehoop.rentals/", "payment:cash": "no"}}, {"type": "node", "id": 8831313076, "lat": 51.3925159, "lon": 0.1115324, "tags": {"amenity": "bicycle_parking", "bicycle_parking": "stands", "capacity": "12", "covered": "no"}}, {"type": "node", "id": 8846875492, "lat": 51.3678489, "lon": 0.0561869, "tags": {"amenity": "bicycle_parking", "bicycle_parking": "stands", "capacity": "12", "covered": "no"}}, {"type": "node", "id": 8917207365, "lat": 51.4159149, "lon": -0.0685924, "tags": {"addr:street": "Lullington Road", "amenity": "bicycle_parking", "capacity": "6", "colour": "green", "covered": "yes", "lit": "no", "operator": "Cyclehoop", "operator:phone": "+44 20 8699 1338", "operator:type": "private", "operator:website": "https://cyclehoop.rentals/", "payment:cash": "no"}}, {"type": "node", "id": 8917256711, "lat": 51.4171848, "lon": -0.0655399, "tags": {"access": "private", "addr:street": "Thicket Road", "amenity": "bicycle_parking", "bicycle_parking": "shed", "capacity": "6", "colour": "green", "covered": "yes", "lit": "no", "operator": "Cyclehoop", "operator:phone": "+44 20 8699 1338", "operator:type": "private", "operator:website": "https://cyclehoop.rentals/", "payment:cash": "no"}}, {"type": "node", "id": 9236374204, "lat": 51.4439337, "lon": -0.0201369, "tags": {"access": "yes", "amenity": "bicycle_parking", "bicycle_parking": "stands", "capacity": "8", "covered": "no", "fee": "no"}}, {"type": "node", "id": 9236374205, "lat": 51.4437939, "lon": -0.0201849, "tags": {"access": "yes", "amenity": "bicycle_parking", "bicycle_parking": "stands", "capacity": "8", "covered": "no", "fee": "no"}}, {"type": "node", "id": 9236501690, "lat": 51.4311093, "lon": 0.0212037, "tags": {"access": "yes", "amenity": "bicycle_parking", "bicycle_parking": "stands", "capacity": "6"}}, {"type": "node", "id": 9236501691, "lat": 51.4304948, "lon": 0.0213624, "tags": {"amenity": "bicycle_parking", "bicycle_parking": "stands", "capacity": "8"}}, {"type": "node", "id": 9236501692, "lat": 51.4306171, "lon": 0.0208831, "tags": {"amenity": "bicycle_parking", "bicycle_parking": "stands", "capacity": "6", "covered": "no"}}, {"type": "node", "id": 9236501693, "lat": 51.4306382, "lon": 0.0200167, "tags": {"amenity": "bicycle_parking", "capacity": "6"}}, {"type": "node", "id": 9236501694, "lat": 51.4300827, "lon": 0.0261594, "tags": {"amenity": "bicycle_parking", "bicycle_parking": "stands", "capacity": "8", "covered": "no"}}, {"type": "node", "id": 9236501695, "lat": 51.4283518, "lon": 0.0275779, "tags": {"amenity": "bicycle_parking", "bicycle_parking": "stands", "capacity": "8"}}, {"type": "node", "id": 9236501696, "lat": 51.4270317, "lon": 0.0294545, "tags": {"amenity": "bicycle_parking", "bicycle_parking": "stands", "capacity": "8"}}, {"type": "node", "id": 9236501697, "lat": 51.4358725, "lon": 0.0234946, "tags": {"amenity": "bicycle_parking", "bicycle_parking": "stands", "capacity": "6", "covered": "no"}}, {"type": "node", "id": 9236526154, "lat": 51.4431774, "lon": 0.0151466, "tags": {"amenity": "bicycle_parking", "bicycle_parking": "stands", "capacity": "2"}}, {"type": "node", "id": 9237796718, "lat": 51.4423923, "lon": -0.0473318, "tags": {"access": "yes", "amenity": "bicycle_parking", "bicycle_parking": "stands", "capacity": "8", "covered": "no", "fee": "no"}}, {"type": "node", "id": 9237825477, "lat": 51.4428185, "lon": -0.02758, "tags": {"access": "yes", "amenity": "bicycle_parking", "bicycle_parking": "stands", "capacity": "6", "covered": "no", "fee": "no"}}, {"type": "node", "id": 9243791578, "lat": 51.4197376, "lon": -0.0153321, "tags": {"amenity": "bicycle_parking", "bicycle_parking": "stands", "capacity": "16", "covered": "no", "fee": "no"}}, {"type": "node", "id": 9243805268, "lat": 51.419556, "lon": -0.0179639, "tags": {"amenity": "bicycle_parking", "bicycle_parking": "stands", "capacity": "10", "check_date:capacity": "2023-12-25", "covered": "no", "fee": "no"}}, {"type": "node", "id": 9248244646, "lat": 51.4423311, "lon": -0.0423008, "tags": {"access": "yes", "amenity": "bicycle_parking", "bicycle_parking": "stands", "capacity": "4", "covered": "no", "fee": "no"}}, {"type": "node", "id": 9248269251, "lat": 51.4426741, "lon": -0.0422156, "tags": {"access": "yes", "amenity": "bicycle_parking", "bicycle_parking": "stands", "capacity": "6", "covered": "no", "description": "Useful for visitors to the health centre", "fee": "no"}}, {"type": "node", "id": 9248475707, "lat": 51.4429735, "lon": -0.0272043, "tags": {"access": "yes", "amenity": "bicycle_parking", "bicycle_parking": "stands", "capacity": "8", "covered": "no", "fee": "no"}}, {"type": "node", "id": 9248475708, "lat": 51.4321217, "lon": -0.0319366, "tags": {"access": "yes", "amenity": "bicycle_parking", "bicycle_parking": "stands", "capacity": "10", "covered": "yes", "fee": "no"}}, {"type": "node", "id": 9248475709, "lat": 51.4319393, "lon": -0.0314849, "tags": {"access": "yes", "amenity": "bicycle_parking", "bicycle_parking": "stands", "capacity": "10", "covered": "yes", "fee": "no"}}, {"type": "node", "id": 9248475710, "lat": 51.4315759, "lon": -0.0322708, "tags": {"access": "yes", "amenity": "bicycle_parking", "bicycle_parking": "stands", "capacity": "10", "covered": "yes", "fee": "no"}}, {"type": "node", "id": 9248475711, "lat": 51.4314965, "lon": -0.0341093, "tags": {"access": "yes", "amenity": "bicycle_parking", "bicycle_parking": "stands", "capacity": "10", "covered": "yes", "fee": "no"}}, {"type": "node", "id": 9248475712, "lat": 51.4314406, "lon": -0.0353501, "tags": {"access": "yes", "amenity": "bicycle_parking", "bicycle_parking": "stands", "capacity": "10", "covered": "yes", "fee": "no"}}, {"type": "node", "id": 9248475713, "lat": 51.4308591, "lon": -0.0339886, "tags": {"access": "yes", "amenity": "bicycle_parking", "bicycle_parking": "stands", "capacity": "10", "covered": "yes", "fee": "no"}}, {"type": "node", "id": 9248475714, "lat": 51.4305981, "lon": -0.0342833, "tags": {"access": "yes", "amenity": "bicycle_parking", "bicycle_parking": "stands", "capacity": "12", "covered": "no", "fee": "no", "indoor": "no", "level": "0", "lit": "no", "operator:type": "private", "source": "survey"}}, {"type": "node", "id": 9248504572, "lat": 51.4268274, "lon": -0.0266219, "tags": {"access": "yes", "amenity": "bicycle_parking", "bicycle_parking": "stands", "capacity": "3", "covered": "no", "fee": "no"}}, {"type": "node", "id": 9248504573, "lat": 51.427246, "lon": -0.0297336, "tags": {"access": "yes", "amenity": "bicycle_parking", "bicycle_parking": "stands", "capacity": "2", "covered": "no", "fee": "no"}}, {"type": "node", "id": 9248567412, "lat": 51.4290518, "lon": -0.0136263, "tags": {"access": "yes", "amenity": "bicycle_parking", "bicycle_parking": "stands", "capacity": "6", "covered": "no", "fee": "no"}}, {"type": "node", "id": 9248587592, "lat": 51.4326497, "lon": -0.0170246, "tags": {"access": "yes", "amenity": "bicycle_parking", "bicycle_parking": "stands", "capacity": "2", "covered": "no", "fee": "no"}}, {"type": "node", "id": 9248587593, "lat": 51.4334611, "lon": -0.0175013, "tags": {"amenity": "bicycle_parking", "bicycle_parking": "stands", "capacity": "8", "covered": "no", "fee": "no", "indoor": "no", "level": "0", "lit": "yes", "operator:type": "public", "source": "survey"}}, {"type": "node", "id": 9248587594, "lat": 51.436336, "lon": -0.0204468, "tags": {"access": "yes", "amenity": "bicycle_parking", "bicycle_parking": "stands", "capacity": "6", "covered": "no", "fee": "no"}}, {"type": "node", "id": 9248662183, "lat": 51.4264792, "lon": -0.0542548, "tags": {"access": "yes", "amenity": "bicycle_parking", "bicycle_parking": "stands", "capacity": "4", "check_date:capacity": "2026-01-17", "covered": "no", "fee": "no"}}, {"type": "node", "id": 9248662184, "lat": 51.426433, "lon": -0.0540542, "tags": {"access": "yes", "amenity": "bicycle_parking", "bicycle_parking": "stands", "capacity": "2", "covered": "no", "fee": "no"}}, {"type": "node", "id": 9248662185, "lat": 51.426418, "lon": -0.0539662, "tags": {"access": "yes", "amenity": "bicycle_parking", "bicycle_parking": "stands", "capacity": "2", "covered": "no", "fee": "no"}}, {"type": "node", "id": 9248662186, "lat": 51.4265078, "lon": -0.053943, "tags": {"access": "yes", "amenity": "bicycle_parking", "bicycle_parking": "stands", "capacity": "10", "covered": "no", "fee": "no"}}, {"type": "node", "id": 9248662187, "lat": 51.4263963, "lon": -0.0538902, "tags": {"access": "yes", "amenity": "bicycle_parking", "bicycle_parking": "stands", "capacity": "4", "covered": "no", "fee": "no"}}, {"type": "node", "id": 9248662188, "lat": 51.4262311, "lon": -0.0529438, "tags": {"access": "yes", "amenity": "bicycle_parking", "bicycle_parking": "stands", "capacity": "4", "covered": "no", "fee": "no"}}, {"type": "node", "id": 9248662189, "lat": 51.4261202, "lon": -0.0519382, "tags": {"access": "yes", "amenity": "bicycle_parking", "bicycle_parking": "stands", "capacity": "2", "fee": "no"}}, {"type": "node", "id": 9248662190, "lat": 51.4258581, "lon": -0.0496862, "tags": {"access": "yes", "amenity": "bicycle_parking", "bicycle_parking": "stands", "capacity": "4", "covered": "no", "fee": "no"}}, {"type": "node", "id": 9248662191, "lat": 51.4258319, "lon": -0.0495734, "tags": {"access": "yes", "amenity": "bicycle_parking", "bicycle_parking": "stands", "capacity": "4", "covered": "no", "fee": "no"}}, {"type": "node", "id": 9248662192, "lat": 51.4256734, "lon": -0.0480467, "tags": {"access": "yes", "amenity": "bicycle_parking", "bicycle_parking": "stands", "capacity": "2", "covered": "no", "fee": "no"}}, {"type": "node", "id": 9248662193, "lat": 51.4256617, "lon": -0.0478164, "tags": {"access": "yes", "amenity": "bicycle_parking", "bicycle_parking": "stands", "capacity": "2", "covered": "no", "fee": "no"}}, {"type": "node", "id": 9248662194, "lat": 51.4257694, "lon": -0.0478936, "tags": {"access": "yes", "amenity": "bicycle_parking", "bicycle_parking": "stands", "capacity": "2", "covered": "no", "fee": "no"}}, {"type": "node", "id": 9248662195, "lat": 51.4256263, "lon": -0.044639, "tags": {"access": "yes", "amenity": "bicycle_parking", "bicycle_parking": "stands", "capacity": "2", "covered": "no", "fee": "no"}}, {"type": "node", "id": 9248662196, "lat": 51.4256363, "lon": -0.0444432, "tags": {"access": "yes", "amenity": "bicycle_parking", "bicycle_parking": "stands", "capacity": "2", "covered": "no", "fee": "no"}}, {"type": "node", "id": 9248662197, "lat": 51.4256697, "lon": -0.0441859, "tags": {"access": "yes", "amenity": "bicycle_parking", "bicycle_parking": "stands", "capacity": "6", "covered": "no", "fee": "no"}}, {"type": "node", "id": 9248685893, "lat": 51.4267081, "lon": -0.0554209, "tags": {"access": "yes", "amenity": "bicycle_parking", "bicycle_parking": "stands", "capacity": "2", "covered": "no", "fee": "no"}}, {"type": "node", "id": 9248685894, "lat": 51.4266944, "lon": -0.0553483, "tags": {"access": "yes", "amenity": "bicycle_parking", "bicycle_parking": "stands", "capacity": "2", "covered": "no", "fee": "no"}}, {"type": "node", "id": 9250233159, "lat": 51.4355613, "lon": -0.0339241, "tags": {"access": "yes", "amenity": "bicycle_parking", "bicycle_parking": "stands", "capacity": "6", "covered": "no", "description": "Three stands tucked away in a dark, unoverlooked corner behind the disabled car parking bay.", "fee": "no"}}, {"type": "node", "id": 9294258885, "lat": 51.4422914, "lon": -0.0466293, "tags": {"access": "yes", "amenity": "bicycle_parking", "bicycle_parking": "stands", "capacity": "4", "covered": "no", "fee": "no"}}, {"type": "node", "id": 9294272133, "lat": 51.4423741, "lon": -0.0427042, "tags": {"access": "yes", "amenity": "bicycle_parking", "bicycle_parking": "stands", "capacity": "4", "covered": "no", "fee": "no"}}, {"type": "node", "id": 9297767460, "lat": 51.427129, "lon": 0.0136126, "tags": {"access": "yes", "amenity": "bicycle_parking", "bicycle_parking": "stands", "capacity": "2"}}, {"type": "node", "id": 9297767461, "lat": 51.4270965, "lon": 0.0136099, "tags": {"access": "yes", "amenity": "bicycle_parking", "bicycle_parking": "stands", "capacity": "2"}}, {"type": "node", "id": 9297767462, "lat": 51.4270661, "lon": 0.013609, "tags": {"access": "yes", "amenity": "bicycle_parking", "bicycle_parking": "stands", "capacity": "2"}}, {"type": "node", "id": 9297767463, "lat": 51.4268653, "lon": 0.0124651, "tags": {"access": "yes", "amenity": "bicycle_parking", "bicycle_parking": "stands", "capacity": "2", "covered": "yes"}}, {"type": "node", "id": 9297767464, "lat": 51.42623, "lon": 0.0122272, "tags": {"access": "yes", "amenity": "bicycle_parking", "bicycle_parking": "shed", "capacity": "18", "fee": "no"}}, {"type": "node", "id": 9297819662, "lat": 51.4242839, "lon": -0.0040831, "tags": {"access": "yes", "amenity": "bicycle_parking", "bicycle_parking": "stands", "capacity": "10"}}, {"type": "node", "id": 9297819663, "lat": 51.4275379, "lon": -0.0110459, "tags": {"access": "yes", "amenity": "bicycle_parking", "bicycle_parking": "stands", "capacity": "30"}}, {"type": "node", "id": 9297834397, "lat": 51.4342275, "lon": 0.0092184, "tags": {"access": "yes", "amenity": "bicycle_parking", "bicycle_parking": "stands", "capacity": "6"}}, {"type": "node", "id": 9354478246, "lat": 51.4010199, "lon": 0.0165159, "tags": {"amenity": "bicycle_parking", "bicycle_parking": "stands", "capacity": "6", "covered": "no"}}, {"type": "node", "id": 9354478247, "lat": 51.4010814, "lon": 0.016703, "tags": {"amenity": "bicycle_parking", "bicycle_parking": "stands", "capacity": "4", "covered": "no"}}, {"type": "node", "id": 9489400436, "lat": 51.443645, "lon": 0.0243832, "tags": {"amenity": "bicycle_parking"}}, {"type": "node", "id": 9524909206, "lat": 51.4436173, "lon": -0.0256473, "tags": {"access": "yes", "amenity": "bicycle_parking", "bicycle_parking": "stands", "capacity": "12", "covered": "no", "fee": "no"}}, {"type": "node", "id": 9609495007, "lat": 51.4404522, "lon": 0.0519126, "tags": {"amenity": "bicycle_parking"}}, {"type": "node", "id": 9634034324, "lat": 51.3865632, "lon": -0.0656692, "tags": {"access": "yes", "amenity": "bicycle_parking", "bicycle_parking": "stands", "capacity": "8", "covered": "no", "fee": "no"}}, {"type": "node", "id": 9735144368, "lat": 51.4117593, "lon": -0.0268546, "tags": {"amenity": "bicycle_parking", "bicycle_parking": "stands", "capacity": "8", "covered": "no", "fee": "no"}}, {"type": "node", "id": 9735157103, "lat": 51.4092439, "lon": -0.0253034, "tags": {"access": "yes", "amenity": "bicycle_parking", "bicycle_parking": "stands", "capacity": "8", "covered": "no"}}, {"type": "node", "id": 9735157104, "lat": 51.4088031, "lon": -0.0253648, "tags": {"access": "yes", "amenity": "bicycle_parking", "bicycle_parking": "stands", "capacity": "4", "covered": "no"}}, {"type": "node", "id": 9735157105, "lat": 51.4087429, "lon": -0.0248197, "tags": {"access": "yes", "amenity": "bicycle_parking", "bicycle_parking": "stands", "capacity": "8", "covered": "no"}}, {"type": "node", "id": 9735157106, "lat": 51.4078097, "lon": -0.0253149, "tags": {"access": "yes", "amenity": "bicycle_parking", "bicycle_parking": "stands", "capacity": "4", "covered": "no"}}, {"type": "node", "id": 9735157107, "lat": 51.4077224, "lon": -0.0258378, "tags": {"access": "yes", "amenity": "bicycle_parking", "bicycle_parking": "stands", "capacity": "4", "covered": "no"}}, {"type": "node", "id": 9735157108, "lat": 51.4071288, "lon": -0.0277918, "tags": {"access": "yes", "amenity": "bicycle_parking", "bicycle_parking": "stands", "capacity": "2", "covered": "no"}}, {"type": "node", "id": 9735157109, "lat": 51.4064964, "lon": -0.0286481, "tags": {"access": "yes", "amenity": "bicycle_parking", "bicycle_parking": "stands", "capacity": "6", "covered": "no"}}, {"type": "node", "id": 9735157110, "lat": 51.4064341, "lon": -0.0291179, "tags": {"access": "yes", "amenity": "bicycle_parking", "bicycle_parking": "stands", "capacity": "4", "covered": "no"}}, {"type": "node", "id": 9735157111, "lat": 51.40621, "lon": -0.0293396, "tags": {"access": "yes", "amenity": "bicycle_parking", "bicycle_parking": "stands", "capacity": "8", "covered": "no"}}, {"type": "node", "id": 9735157112, "lat": 51.4064263, "lon": -0.0300254, "tags": {"access": "yes", "amenity": "bicycle_parking", "bicycle_parking": "stands", "capacity": "4", "covered": "no"}}, {"type": "node", "id": 9735157113, "lat": 51.4063074, "lon": -0.0300769, "tags": {"access": "yes", "amenity": "bicycle_parking", "bicycle_parking": "stands", "capacity": "6", "covered": "no"}}, {"type": "node", "id": 9735157115, "lat": 51.4071769, "lon": -0.0317064, "tags": {"access": "yes", "amenity": "bicycle_parking", "bicycle_parking": "stands", "capacity": "6", "covered": "no"}}, {"type": "node", "id": 9735157116, "lat": 51.4067763, "lon": -0.0324862, "tags": {"access": "yes", "amenity": "bicycle_parking", "bicycle_parking": "stands", "capacity": "4", "covered": "no"}}, {"type": "node", "id": 9735182717, "lat": 51.4085273, "lon": -0.0387534, "tags": {"access": "yes", "amenity": "bicycle_parking", "bicycle_parking": "stands", "capacity": "6", "covered": "no", "fee": "no", "operator:type": "public"}}, {"type": "node", "id": 9735182718, "lat": 51.4086942, "lon": -0.0397226, "tags": {"access": "yes", "amenity": "bicycle_parking", "bicycle_parking": "stands", "capacity": "4", "covered": "no", "fee": "no"}}, {"type": "node", "id": 9735187423, "lat": 51.4109127, "lon": -0.0259959, "tags": {"access": "yes", "amenity": "bicycle_parking", "bicycle_parking": "stands", "capacity": "40", "covered": "yes"}}, {"type": "node", "id": 9737098826, "lat": 51.4101068, "lon": -0.0234246, "tags": {"access": "yes", "amenity": "bicycle_parking", "bicycle_parking": "stands", "capacity": "4", "covered": "no"}}, {"type": "node", "id": 9755801934, "lat": 51.4099058, "lon": -0.0642347, "tags": {"access": "yes", "amenity": "bicycle_parking", "bicycle_parking": "stands", "capacity": "4", "covered": "no", "fee": "no"}}, {"type": "node", "id": 9942023630, "lat": 51.4177194, "lon": -0.0773784, "tags": {"access": "customers", "amenity": "bicycle_parking", "bicycle_parking": "lockers", "capacity": "4", "covered": "yes", "fee": "yes", "operator": "cyclehoop"}}, {"type": "node", "id": 9999707323, "lat": 51.3624728, "lon": -0.0687367, "tags": {"access": "yes", "amenity": "bicycle_parking", "capacity": "6", "covered": "no", "fee": "no"}}, {"type": "node", "id": 10025760393, "lat": 51.444236, "lon": -0.0259146, "tags": {"access": "yes", "amenity": "bicycle_parking", "bicycle_parking": "stands", "capacity": "10", "covered": "no", "fee": "no", "indoor": "no", "level": "0", "lit": "yes", "operator:type": "public", "source": "survey"}}, {"type": "node", "id": 10162860245, "lat": 51.4073171, "lon": 0.0576719, "tags": {"access": "yes", "amenity": "bicycle_parking", "bicycle_parking": "stands", "capacity": "8", "covered": "no", "fee": "no"}}, {"type": "node", "id": 10272889204, "lat": 51.40485, "lon": -0.0338808, "tags": {"access": "customers", "amenity": "bicycle_parking", "bicycle_parking": "stands", "capacity": "20", "covered": "no", "fee": "no"}}, {"type": "node", "id": 10272914712, "lat": 51.4048296, "lon": -0.0332552, "tags": {"access": "customers", "amenity": "bicycle_parking", "bicycle_parking": "stands", "capacity": "10", "covered": "no", "fee": "no"}}, {"type": "node", "id": 10272914715, "lat": 51.4055635, "lon": -0.0329779, "tags": {"access": "customers", "amenity": "bicycle_parking", "bicycle_parking": "stands", "capacity": "10", "covered": "yes", "fee": "no", "indoor": "no"}}, {"type": "node", "id": 10275588829, "lat": 51.3761084, "lon": -0.0173219, "tags": {"amenity": "bicycle_parking", "bicycle_parking": "stands", "capacity": "4", "covered": "no", "ref:GB:tflcid": "RWG291867"}}, {"type": "node", "id": 10275588935, "lat": 51.3755327, "lon": -0.0137361, "tags": {"amenity": "bicycle_parking", "bicycle_parking": "stands", "capacity": "16", "covered": "no", "ref:GB:tflcid": "RWG204555"}}, {"type": "node", "id": 10275588936, "lat": 51.3757544, "lon": -0.0137389, "tags": {"amenity": "bicycle_parking", "bicycle_parking": "stands", "capacity": "8", "covered": "yes", "ref:GB:tflcid": "RWG291870"}}, {"type": "node", "id": 10275588937, "lat": 51.3751546, "lon": -0.0109189, "tags": {"amenity": "bicycle_parking", "bicycle_parking": "stands", "capacity": "8", "covered": "no", "ref:GB:tflcid": "RWG204551"}}, {"type": "node", "id": 10275588938, "lat": 51.3754526, "lon": -0.0123961, "tags": {"amenity": "bicycle_parking", "bicycle_parking": "stands", "capacity": "12", "covered": "yes", "ref:GB:tflcid": "RWG204554"}}, {"type": "node", "id": 10275589046, "lat": 51.3822329, "lon": -0.0194176, "tags": {"amenity": "bicycle_parking", "bicycle_parking": "stands", "capacity": "6", "covered": "no", "ref:GB:tflcid": "RWG204636"}}, {"type": "node", "id": 10275589047, "lat": 51.3800931, "lon": -0.0183497, "tags": {"amenity": "bicycle_parking", "bicycle_parking": "stands", "capacity": "6", "covered": "no", "ref:GB:tflcid": "RWG204642"}}, {"type": "node", "id": 10275589048, "lat": 51.3768873, "lon": -0.0201222, "tags": {"amenity": "bicycle_parking", "bicycle_parking": "stands", "capacity": "2", "covered": "no", "ref:GB:tflcid": "RWG204599"}}, {"type": "node", "id": 10275589049, "lat": 51.3759062, "lon": -0.0145301, "tags": {"amenity": "bicycle_parking", "bicycle_parking": "stands", "capacity": "4", "covered": "no", "ref:GB:tflcid": "RWG291869"}}, {"type": "node", "id": 10275589050, "lat": 51.3760093, "lon": -0.0161852, "tags": {"amenity": "bicycle_parking", "bicycle_parking": "stands", "capacity": "4", "covered": "no", "ref:GB:tflcid": "RWG291868"}}, {"type": "node", "id": 10275589051, "lat": 51.3752235, "lon": -0.0111592, "tags": {"amenity": "bicycle_parking", "bicycle_parking": "stands", "capacity": "8", "covered": "no", "ref:GB:tflcid": "RWG204552"}}, {"type": "node", "id": 10275589315, "lat": 51.3766134, "lon": -0.0187743, "tags": {"amenity": "bicycle_parking", "bicycle_parking": "stands", "capacity": "4", "covered": "no", "ref:GB:tflcid": "RWG291865"}}, {"type": "node", "id": 10275589316, "lat": 51.3771617, "lon": -0.0215398, "tags": {"amenity": "bicycle_parking", "bicycle_parking": "stands", "capacity": "4", "covered": "no", "ref:GB:tflcid": "RWG204598"}}, {"type": "node", "id": 10275589317, "lat": 51.3762281, "lon": -0.0173322, "tags": {"amenity": "bicycle_parking", "bicycle_parking": "stands", "capacity": "4", "covered": "no", "ref:GB:tflcid": "RWG291866"}}, {"type": "node", "id": 10275589318, "lat": 51.3753571, "lon": -0.0117415, "tags": {"amenity": "bicycle_parking", "bicycle_parking": "stands", "capacity": "8", "covered": "yes", "ref:GB:tflcid": "RWG204553"}}, {"type": "node", "id": 10277991719, "lat": 51.3659363, "lon": 0.0574863, "tags": {"amenity": "bicycle_parking", "bicycle_parking": "stands", "capacity": "2", "ref:GB:tflcid": "RWG204517"}}, {"type": "node", "id": 10277991894, "lat": 51.3680134, "lon": 0.0616461, "tags": {"amenity": "bicycle_parking", "bicycle_parking": "stands", "capacity": "4", "ref:GB:tflcid": "RWG204511"}}, {"type": "node", "id": 10277991895, "lat": 51.3658024, "lon": 0.058789, "tags": {"amenity": "bicycle_parking", "bicycle_parking": "stands", "capacity": "6", "ref:GB:tflcid": "RWG204521"}}, {"type": "node", "id": 10277991896, "lat": 51.366017, "lon": 0.0583425, "tags": {"amenity": "bicycle_parking", "bicycle_parking": "stands", "capacity": "6", "covered": "no", "ref:GB:tflcid": "RWG204520"}}, {"type": "node", "id": 10277991897, "lat": 51.3663741, "lon": 0.0578244, "tags": {"amenity": "bicycle_parking", "bicycle_parking": "wall_loops", "capacity": "10", "covered": "yes", "ref:GB:tflcid": "RWG204519"}}, {"type": "node", "id": 10277991962, "lat": 51.3659534, "lon": 0.0574959, "tags": {"amenity": "bicycle_parking", "bicycle_parking": "stands", "capacity": "2", "ref:GB:tflcid": "RWG204516"}}, {"type": "node", "id": 10277991963, "lat": 51.3659188, "lon": 0.0574784, "tags": {"amenity": "bicycle_parking", "bicycle_parking": "stands", "capacity": "2", "ref:GB:tflcid": "RWG204518"}}, {"type": "node", "id": 10277995504, "lat": 51.365642, "lon": 0.0591185, "tags": {"amenity": "bicycle_parking", "bicycle_parking": "stands", "capacity": "6", "ref:GB:tflcid": "RWG204522"}}, {"type": "node", "id": 10278000915, "lat": 51.3659897, "lon": 0.0575123, "tags": {"amenity": "bicycle_parking", "bicycle_parking": "stands", "capacity": "2", "ref:GB:tflcid": "RWG204514"}}, {"type": "node", "id": 10278000916, "lat": 51.3659695, "lon": 0.0575049, "tags": {"amenity": "bicycle_parking", "bicycle_parking": "stands", "capacity": "2", "ref:GB:tflcid": "RWG204515"}}, {"type": "node", "id": 10278000917, "lat": 51.3671175, "lon": 0.058873, "tags": {"amenity": "bicycle_parking", "bicycle_parking": "stands", "capacity": "20", "covered": "yes", "ref:GB:tflcid": "RWG204512"}}, {"type": "node", "id": 10280248305, "lat": 51.3880603, "lon": 0.0677037, "tags": {"amenity": "bicycle_parking", "bicycle_parking": "stands", "capacity": "10", "ref:GB:tflcid": "RWG197960"}}, {"type": "node", "id": 10280252457, "lat": 51.390187, "lon": -0.0651202, "tags": {"amenity": "bicycle_parking", "bicycle_parking": "stands", "capacity": "4", "covered": "no", "fee": "no", "ref:GB:tflcid": "RWG204447"}}, {"type": "node", "id": 10280252458, "lat": 51.3899396, "lon": -0.0650616, "tags": {"amenity": "bicycle_parking", "bicycle_parking": "stands", "capacity": "4", "covered": "no", "ref:GB:tflcid": "RWG204448"}}, {"type": "node", "id": 10280252459, "lat": 51.3923853, "lon": -0.0601175, "tags": {"amenity": "bicycle_parking", "bicycle_parking": "stands", "capacity": "4", "covered": "no", "ref:GB:tflcid": "RWG204449"}}, {"type": "node", "id": 10280252493, "lat": 51.3899516, "lon": 0.0712181, "tags": {"amenity": "bicycle_parking", "bicycle_parking": "stands", "capacity": "8", "ref:GB:tflcid": "RWG197957"}}, {"type": "node", "id": 10280252494, "lat": 51.3882033, "lon": 0.0736582, "tags": {"amenity": "bicycle_parking", "bicycle_parking": "stands", "capacity": "8", "ref:GB:tflcid": "RWG197946"}}, {"type": "node", "id": 10280252495, "lat": 51.3893958, "lon": 0.0744432, "tags": {"amenity": "bicycle_parking", "bicycle_parking": "stands", "capacity": "4", "ref:GB:tflcid": "RWG197941"}}, {"type": "node", "id": 10280258448, "lat": 51.4345687, "lon": 0.0648215, "tags": {"amenity": "bicycle_parking", "bicycle_parking": "stands", "capacity": "4", "ref:GB:tflcid": "RWG198000"}}, {"type": "node", "id": 10280259054, "lat": 51.4219666, "lon": -0.0695904, "tags": {"amenity": "bicycle_parking", "bicycle_parking": "wall_loops", "capacity": "8", "ref:GB:tflcid": "RWG204312"}}, {"type": "node", "id": 10280259055, "lat": 51.4205925, "lon": -0.068743, "tags": {"amenity": "bicycle_parking", "bicycle_parking": "stands", "capacity": "8", "ref:GB:tflcid": "RWG204309"}}, {"type": "node", "id": 10280259059, "lat": 51.4344781, "lon": 0.0642004, "tags": {"amenity": "bicycle_parking", "bicycle_parking": "stands", "capacity": "8", "covered": "yes", "ref:GB:tflcid": "RWG197997"}}, {"type": "node", "id": 10280259060, "lat": 51.4349326, "lon": 0.0642869, "tags": {"amenity": "bicycle_parking", "bicycle_parking": "stands", "capacity": "10", "ref:GB:tflcid": "RWG197996"}}, {"type": "node", "id": 10280259121, "lat": 51.4219669, "lon": -0.0695912, "tags": {"amenity": "bicycle_parking", "bicycle_parking": "wall_loops", "capacity": "1", "ref:GB:tflcid": "RWG204315"}}, {"type": "node", "id": 10280259122, "lat": 51.4219661, "lon": -0.0695895, "tags": {"amenity": "bicycle_parking", "bicycle_parking": "wall_loops", "capacity": "1", "ref:GB:tflcid": "RWG204314"}}, {"type": "node", "id": 10280259128, "lat": 51.4310583, "lon": 0.0618948, "tags": {"amenity": "bicycle_parking", "bicycle_parking": "stands", "capacity": "6", "ref:GB:tflcid": "RWG197809"}}, {"type": "node", "id": 10280259129, "lat": 51.4342841, "lon": 0.065107, "tags": {"amenity": "bicycle_parking", "bicycle_parking": "stands", "capacity": "4", "ref:GB:tflcid": "RWG197998"}}, {"type": "node", "id": 10280259326, "lat": 51.4219481, "lon": -0.0696365, "tags": {"amenity": "bicycle_parking", "bicycle_parking": "stands", "capacity": "6", "ref:GB:tflcid": "RWG204308"}}, {"type": "node", "id": 10280259327, "lat": 51.4219666, "lon": -0.0695904, "tags": {"amenity": "bicycle_parking", "bicycle_parking": "wall_loops", "capacity": "4", "ref:GB:tflcid": "RWG204310"}}, {"type": "node", "id": 10280259329, "lat": 51.4368083, "lon": 0.0544148, "tags": {"amenity": "bicycle_parking", "bicycle_parking": "stands", "capacity": "10", "ref:GB:tflcid": "RWG276873"}}, {"type": "node", "id": 10280259330, "lat": 51.4309989, "lon": 0.0576535, "tags": {"amenity": "bicycle_parking", "bicycle_parking": "stands", "capacity": "4", "ref:GB:tflcid": "RWG197952"}}, {"type": "node", "id": 10280259331, "lat": 51.4344924, "lon": 0.0651271, "tags": {"amenity": "bicycle_parking", "bicycle_parking": "stands", "capacity": "4", "covered": "no", "ref:GB:tflcid": "RWG197999"}}, {"type": "node", "id": 10280260117, "lat": 51.444248, "lon": -0.0685881, "tags": {"amenity": "bicycle_parking", "bicycle_parking": "stands", "capacity": "2", "ref:GB:tflcid": "RWG103103"}}, {"type": "node", "id": 10280260118, "lat": 51.41555, "lon": -0.064146, "tags": {"access": "private", "amenity": "bicycle_parking", "bicycle_parking": "shed", "capacity": "6", "covered": "yes", "operator": "Cyclehoop Rentals", "ref:GB:tflcid": "RWG204328"}}, {"type": "node", "id": 10280260152, "lat": 51.4376154, "lon": 0.0720473, "tags": {"amenity": "bicycle_parking", "bicycle_parking": "stands", "capacity": "10", "covered": "no", "ref:GB:tflcid": "RWG197880"}}, {"type": "node", "id": 10280260159, "lat": 51.4085681, "lon": -0.0371351, "tags": {"amenity": "bicycle_parking", "bicycle_parking": "stands", "capacity": "2", "covered": "no", "ref:GB:tflcid": "RWG278502"}}, {"type": "node", "id": 10280260160, "lat": 51.4085744, "lon": -0.0371315, "tags": {"amenity": "bicycle_parking", "bicycle_parking": "stands", "capacity": "2", "covered": "yes", "ref:GB:tflcid": "RWG278503"}}, {"type": "node", "id": 10280260161, "lat": 51.4424081, "lon": -0.0481652, "tags": {"amenity": "bicycle_parking", "bicycle_parking": "stands", "capacity": "8", "ref:GB:tflcid": "RWG204403"}}, {"type": "node", "id": 10280260167, "lat": 51.428007, "lon": 0.013303, "tags": {"amenity": "bicycle_parking", "bicycle_parking": "stands", "capacity": "2", "ref:GB:tflcid": "RWG197654"}}, {"type": "node", "id": 10280260170, "lat": 51.4022855, "lon": 0.0996168, "tags": {"amenity": "bicycle_parking", "bicycle_parking": "stands", "capacity": "2", "ref:GB:tflcid": "RWG197920"}}, {"type": "node", "id": 10280260182, "lat": 51.3825705, "lon": -0.068835, "tags": {"amenity": "bicycle_parking", "bicycle_parking": "stands", "capacity": "8", "ref:GB:tflcid": "RWG204461"}}, {"type": "node", "id": 10280260183, "lat": 51.3808141, "lon": -0.0715615, "tags": {"amenity": "bicycle_parking", "bicycle_parking": "stands", "capacity": "8", "ref:GB:tflcid": "RWG204458"}}, {"type": "node", "id": 10280260184, "lat": 51.3817821, "lon": -0.0696666, "tags": {"amenity": "bicycle_parking", "bicycle_parking": "stands", "capacity": "8", "ref:GB:tflcid": "RWG204459"}}, {"type": "node", "id": 10280260212, "lat": 51.4186161, "lon": -0.0679748, "tags": {"amenity": "bicycle_parking", "bicycle_parking": "stands", "capacity": "8", "covered": "yes", "ref:GB:tflcid": "RWG204318"}}, {"type": "node", "id": 10280260255, "lat": 51.4392102, "lon": -0.0547489, "tags": {"amenity": "bicycle_parking", "bicycle_parking": "stands", "capacity": "4", "covered": "no", "ref:GB:tflcid": "RWG204493"}}, {"type": "node", "id": 10280260260, "lat": 51.4440185, "lon": -0.0682811, "tags": {"amenity": "bicycle_parking", "bicycle_parking": "stands", "capacity": "2", "ref:GB:tflcid": "RWG103102"}}, {"type": "node", "id": 10280260261, "lat": 51.4136911, "lon": -0.0668502, "tags": {"amenity": "bicycle_parking", "bicycle_parking": "stands", "capacity": "20", "covered": "yes", "ref:GB:tflcid": "RWG204416"}}, {"type": "node", "id": 10280260262, "lat": 51.4117413, "lon": -0.0667492, "tags": {"amenity": "bicycle_parking", "bicycle_parking": "stands", "capacity": "4", "covered": "no", "ref:GB:tflcid": "RWG204333"}}, {"type": "node", "id": 10280260263, "lat": 51.414014, "lon": -0.0625332, "tags": {"access": "private", "amenity": "bicycle_parking", "bicycle_parking": "shed", "capacity": "24", "covered": "yes", "operator": "Cyclehoop Rentals", "ref:GB:tflcid": "RWG204423"}}, {"type": "node", "id": 10280260264, "lat": 51.4174183, "lon": -0.0610119, "tags": {"amenity": "bicycle_parking", "bicycle_parking": "stands", "capacity": "8", "covered": "yes", "ref:GB:tflcid": "RWG204565"}}, {"type": "node", "id": 10280260265, "lat": 51.4194461, "lon": -0.0565555, "tags": {"access": "private", "amenity": "bicycle_parking", "bicycle_lock": "provided", "bicycle_parking": "shed", "capacity": "6", "covered": "yes", "on_carriageway": "yes", "operator": "Cyclehoop Rentals", "ref:GB:tflcid": "RWG293345"}}, {"type": "node", "id": 10280260274, "lat": 51.4196393, "lon": 0.0658187, "tags": {"amenity": "bicycle_parking", "bicycle_parking": "stands", "capacity": "2", "ref:GB:tflcid": "RWG197968"}}, {"type": "node", "id": 10280261015, "lat": 51.430858, "lon": 0.0575314, "tags": {"access": "private", "amenity": "bicycle_parking", "bicycle_parking": "shed", "capacity": "6", "covered": "yes", "operator": "Cyclehoop Rentals", "ref:GB:tflcid": "RWG197953"}}, {"type": "node", "id": 10280261068, "lat": 51.4391375, "lon": -0.0545248, "tags": {"amenity": "bicycle_parking", "bicycle_parking": "stands", "capacity": "8", "covered": "no", "ref:GB:tflcid": "RWG204494"}}, {"type": "node", "id": 10280261087, "lat": 51.4120369, "lon": -0.0452251, "tags": {"amenity": "bicycle_parking", "bicycle_parking": "stands", "capacity": "8", "covered": "no", "ref:GB:tflcid": "RWG204615"}}, {"type": "node", "id": 10280261088, "lat": 51.4087, "lon": -0.0376052, "tags": {"amenity": "bicycle_parking", "bicycle_parking": "stands", "capacity": "10", "covered": "yes", "ref:GB:tflcid": "RWG278507"}}, {"type": "node", "id": 10280261089, "lat": 51.4090286, "lon": -0.0418508, "tags": {"amenity": "bicycle_parking", "bicycle_parking": "stands", "capacity": "6", "covered": "no", "ref:GB:tflcid": "RWG204618", "wheelchair": "yes"}}, {"type": "node", "id": 10280261090, "lat": 51.4089209, "lon": -0.0404702, "tags": {"amenity": "bicycle_parking", "bicycle_parking": "stands", "capacity": "4", "covered": "no", "ref:GB:tflcid": "RWG204463"}}, {"type": "node", "id": 10280261099, "lat": 51.4191818, "lon": 0.0664262, "tags": {"amenity": "bicycle_parking", "bicycle_parking": "stands", "capacity": "8", "ref:GB:tflcid": "RWG197967"}}, {"type": "node", "id": 10280261100, "lat": 51.4209791, "lon": 0.0690072, "tags": {"amenity": "bicycle_parking", "bicycle_parking": "stands", "capacity": "10", "ref:GB:tflcid": "RWG197970"}}, {"type": "node", "id": 10280261101, "lat": 51.4177011, "lon": 0.0679527, "tags": {"amenity": "bicycle_parking", "bicycle_parking": "stands", "capacity": "6", "ref:GB:tflcid": "RWG198009"}}, {"type": "node", "id": 10280261650, "lat": 51.4397603, "lon": 0.0759429, "tags": {"amenity": "bicycle_parking", "bicycle_parking": "stands", "capacity": "4", "ref:GB:tflcid": "RWG197873"}}, {"type": "node", "id": 10280261651, "lat": 51.4389433, "lon": 0.0748778, "tags": {"amenity": "bicycle_parking", "bicycle_parking": "stands", "capacity": "12", "ref:GB:tflcid": "RWG197878"}}, {"type": "node", "id": 10280261672, "lat": 51.3918961, "lon": -0.066029, "tags": {"amenity": "bicycle_parking", "bicycle_parking": "stands", "capacity": "4", "covered": "no", "fee": "no", "ref:GB:tflcid": "RWG204489"}}, {"type": "node", "id": 10280261673, "lat": 51.3917203, "lon": -0.0658991, "tags": {"amenity": "bicycle_parking", "bicycle_parking": "stands", "capacity": "4", "covered": "no", "fee": "no", "ref:GB:tflcid": "RWG204490"}}, {"type": "node", "id": 10280261675, "lat": 51.3913149, "lon": -0.0585307, "tags": {"amenity": "bicycle_parking", "bicycle_parking": "stands", "capacity": "12", "covered": "no", "ref:GB:tflcid": "RWG204350"}}, {"type": "node", "id": 10280261726, "lat": 51.3849822, "lon": -0.0667049, "tags": {"amenity": "bicycle_parking", "capacity": "8", "ref:GB:tflcid": "RWG278491"}}, {"type": "node", "id": 10280261748, "lat": 51.3892063, "lon": 0.0726405, "tags": {"amenity": "bicycle_parking", "bicycle_parking": "stands", "capacity": "4", "ref:GB:tflcid": "RWG197947"}}, {"type": "node", "id": 10280261749, "lat": 51.39019, "lon": 0.0747252, "tags": {"amenity": "bicycle_parking", "bicycle_parking": "stands", "capacity": "4", "ref:GB:tflcid": "RWG197911"}}, {"type": "node", "id": 10280262710, "lat": 51.4396673, "lon": 0.0757463, "tags": {"amenity": "bicycle_parking", "bicycle_parking": "stands", "capacity": "2", "ref:GB:tflcid": "RWG197874"}}, {"type": "node", "id": 10280262712, "lat": 51.3829263, "lon": -0.0643016, "tags": {"amenity": "bicycle_parking", "capacity": "22", "covered": "no", "ref:GB:tflcid": "RWG204455"}}, {"type": "node", "id": 10280262713, "lat": 51.3924196, "lon": -0.0604268, "tags": {"amenity": "bicycle_parking", "bicycle_parking": "stands", "capacity": "18", "covered": "yes", "ref:GB:tflcid": "RWG204452"}}, {"type": "node", "id": 10280266246, "lat": 51.3893066, "lon": 0.0722954, "tags": {"amenity": "bicycle_parking", "bicycle_parking": "stands", "capacity": "2", "ref:GB:tflcid": "RWG197949"}}, {"type": "node", "id": 10280266247, "lat": 51.3886364, "lon": 0.0735336, "tags": {"amenity": "bicycle_parking", "bicycle_parking": "stands", "capacity": "20", "ref:GB:tflcid": "RWG197944"}}, {"type": "node", "id": 10280266248, "lat": 51.3885868, "lon": 0.0734008, "tags": {"amenity": "bicycle_parking", "bicycle_parking": "stands", "capacity": "6", "ref:GB:tflcid": "RWG197945"}}, {"type": "node", "id": 10280269930, "lat": 51.4442168, "lon": -0.0716471, "tags": {"amenity": "bicycle_parking", "bicycle_lock": "bring_own", "bicycle_parking": "lockers", "capacity": "4", "ref:GB:tflcid": "RWG103107"}}, {"type": "node", "id": 10280269977, "lat": 51.4375296, "lon": 0.0718345, "tags": {"amenity": "bicycle_parking", "bicycle_parking": "stands", "capacity": "4", "ref:GB:tflcid": "RWG197882"}}, {"type": "node", "id": 10280269978, "lat": 51.4372009, "lon": 0.0704298, "tags": {"amenity": "bicycle_parking", "bicycle_parking": "stands", "capacity": "6", "ref:GB:tflcid": "RWG197929"}}, {"type": "node", "id": 10280269987, "lat": 51.4412927, "lon": -0.047592, "tags": {"amenity": "bicycle_parking", "bicycle_parking": "stands", "capacity": "2", "ref:GB:tflcid": "RWG204402"}}, {"type": "node", "id": 10280269988, "lat": 51.441271, "lon": -0.047656, "tags": {"amenity": "bicycle_parking", "bicycle_parking": "stands", "capacity": "2", "ref:GB:tflcid": "RWG204401"}}, {"type": "node", "id": 10280269995, "lat": 51.4301078, "lon": 0.0082398, "tags": {"amenity": "bicycle_parking", "bicycle_parking": "stands", "capacity": "4", "ref:GB:tflcid": "RWG197653"}}, {"type": "node", "id": 10280269996, "lat": 51.4306001, "lon": 0.0082071, "tags": {"amenity": "bicycle_parking", "bicycle_parking": "stands", "capacity": "6", "ref:GB:tflcid": "RWG197983"}}, {"type": "node", "id": 10280269997, "lat": 51.4278782, "lon": 0.0132995, "tags": {"amenity": "bicycle_parking", "bicycle_parking": "stands", "capacity": "2", "ref:GB:tflcid": "RWG197655"}}, {"type": "node", "id": 10280270000, "lat": 51.3604544, "lon": 0.0876875, "tags": {"amenity": "bicycle_parking", "bicycle_parking": "stands", "capacity": "4", "ref:GB:tflcid": "RWG198006"}}, {"type": "node", "id": 10280270001, "lat": 51.3605899, "lon": 0.0877972, "tags": {"amenity": "bicycle_parking", "bicycle_parking": "stands", "capacity": "4", "ref:GB:tflcid": "RWG198005"}}, {"type": "node", "id": 10280270002, "lat": 51.3556548, "lon": 0.0972724, "tags": {"amenity": "bicycle_parking", "bicycle_parking": "stands", "capacity": "4", "ref:GB:tflcid": "RWG197950"}}, {"type": "node", "id": 10280270003, "lat": 51.3562655, "lon": 0.104824, "tags": {"amenity": "bicycle_parking", "bicycle_parking": "stands", "capacity": "6", "ref:GB:tflcid": "RWG197935"}}, {"type": "node", "id": 10280270004, "lat": 51.3564199, "lon": 0.1051532, "tags": {"amenity": "bicycle_parking", "bicycle_parking": "stands", "capacity": "6", "ref:GB:tflcid": "RWG197936"}}, {"type": "node", "id": 10280270538, "lat": 51.4387375, "lon": -0.0529996, "tags": {"amenity": "bicycle_parking", "bicycle_parking": "stands", "capacity": "6", "ref:GB:tflcid": "RWG204419"}}, {"type": "node", "id": 10280270539, "lat": 51.4390411, "lon": -0.0542693, "tags": {"amenity": "bicycle_parking", "bicycle_parking": "stands", "capacity": "4", "covered": "no", "ref:GB:tflcid": "RWG204495"}}, {"type": "node", "id": 10280270540, "lat": 51.4393974, "lon": -0.0547393, "tags": {"amenity": "bicycle_parking", "bicycle_parking": "stands", "capacity": "4", "ref:GB:tflcid": "RWG204486"}}, {"type": "node", "id": 10280270541, "lat": 51.43926, "lon": -0.0542735, "tags": {"amenity": "bicycle_parking", "bicycle_parking": "stands", "capacity": "4", "ref:GB:tflcid": "RWG204485"}}, {"type": "node", "id": 10280270549, "lat": 51.4439149, "lon": -0.0681601, "tags": {"amenity": "bicycle_parking", "bicycle_parking": "stands", "capacity": "2", "ref:GB:tflcid": "RWG103101"}}, {"type": "node", "id": 10280270550, "lat": 51.4129108, "lon": -0.0661837, "tags": {"access": "private", "amenity": "bicycle_parking", "bicycle_parking": "shed", "capacity": "12", "covered": "yes", "operator": "Cyclehoop Rentals", "ref:GB:tflcid": "RWG204329"}}, {"type": "node", "id": 10280270554, "lat": 51.421977, "lon": 0.0619006, "tags": {"amenity": "bicycle_parking", "bicycle_parking": "stands", "capacity": "6", "ref:GB:tflcid": "RWG197924"}}, {"type": "node", "id": 10280270555, "lat": 51.4202994, "lon": 0.0647861, "tags": {"amenity": "bicycle_parking", "bicycle_parking": "stands", "capacity": "8", "ref:GB:tflcid": "RWG197969"}}, {"type": "node", "id": 10280270630, "lat": 51.4372531, "lon": 0.0723658, "tags": {"amenity": "bicycle_parking", "bicycle_parking": "stands", "capacity": "12", "covered": "no", "ref:GB:tflcid": "RWG197881"}}, {"type": "node", "id": 10280270650, "lat": 51.3565155, "lon": 0.105356, "tags": {"amenity": "bicycle_parking", "bicycle_parking": "stands", "capacity": "6", "ref:GB:tflcid": "RWG197937"}}, {"type": "node", "id": 10280270709, "lat": 51.420193, "lon": -0.0653112, "tags": {"amenity": "bicycle_parking", "bicycle_parking": "stands", "capacity": "4", "covered": "no", "ref:GB:tflcid": "RWG204319"}}, {"type": "node", "id": 10280270716, "lat": 51.40861, "lon": -0.0370952, "tags": {"amenity": "bicycle_parking", "bicycle_parking": "stands", "capacity": "2", "covered": "yes", "ref:GB:tflcid": "RWG278504"}}, {"type": "node", "id": 10280270719, "lat": 51.4257783, "lon": -0.0053852, "tags": {"amenity": "bicycle_parking", "bicycle_parking": "stands", "capacity": "8", "ref:GB:tflcid": "RWG197801"}}, {"type": "node", "id": 10280272737, "lat": 51.4068643, "lon": 0.0989403, "tags": {"amenity": "bicycle_parking", "bicycle_parking": "stands", "capacity": "3", "ref:GB:tflcid": "RWG197908"}}, {"type": "node", "id": 10280272738, "lat": 51.4043887, "lon": 0.1049908, "tags": {"amenity": "bicycle_parking", "bicycle_parking": "stands", "capacity": "8", "covered": "no", "ref:GB:tflcid": "RWG197900"}}, {"type": "node", "id": 10280272739, "lat": 51.3990179, "lon": 0.1047707, "tags": {"amenity": "bicycle_parking", "bicycle_parking": "stands", "capacity": "14", "covered": "yes", "ref:GB:tflcid": "RWG197907"}}, {"type": "node", "id": 10280272924, "lat": 51.4037844, "lon": 0.1057709, "tags": {"amenity": "bicycle_parking", "bicycle_parking": "stands", "capacity": "8", "ref:GB:tflcid": "RWG197901"}}, {"type": "node", "id": 10280272925, "lat": 51.4037924, "lon": 0.1054731, "tags": {"amenity": "bicycle_parking", "bicycle_parking": "stands", "capacity": "4", "ref:GB:tflcid": "RWG197902"}}, {"type": "node", "id": 10280272969, "lat": 51.3427382, "lon": -0.0631499, "tags": {"amenity": "bicycle_parking", "bicycle_parking": "stands", "capacity": "16", "covered": "yes", "ref:GB:tflcid": "RWG207636"}}, {"type": "node", "id": 10280272970, "lat": 51.344359, "lon": -0.0609284, "tags": {"amenity": "bicycle_parking", "bicycle_parking": "stands", "capacity": "6", "ref:GB:tflcid": "RWG207512"}}, {"type": "node", "id": 10280272971, "lat": 51.3442177, "lon": -0.0611913, "tags": {"amenity": "bicycle_parking", "bicycle_parking": "stands", "capacity": "4", "ref:GB:tflcid": "RWG207513"}}, {"type": "node", "id": 10280272972, "lat": 51.3438761, "lon": -0.0618405, "tags": {"amenity": "bicycle_parking", "bicycle_parking": "stands", "capacity": "6", "ref:GB:tflcid": "RWG207632"}}, {"type": "node", "id": 10280272979, "lat": 51.4259, "lon": 0.1048165, "tags": {"amenity": "bicycle_parking", "bicycle_parking": "stands", "capacity": "4", "ref:GB:tflcid": "RWG197889"}}, {"type": "node", "id": 10280272980, "lat": 51.4197236, "lon": 0.1073886, "tags": {"amenity": "bicycle_parking", "bicycle_parking": "stands", "capacity": "4", "ref:GB:tflcid": "RWG198003"}}, {"type": "node", "id": 10280272993, "lat": 51.3424767, "lon": -0.017365, "tags": {"amenity": "bicycle_parking", "bicycle_parking": "stands", "capacity": "16", "ref:GB:tflcid": "RWG204418"}}, {"type": "node", "id": 10280273720, "lat": 51.4399133, "lon": -0.0507585, "tags": {"amenity": "bicycle_parking", "bicycle_parking": "stands", "capacity": "2", "ref:GB:tflcid": "RWG204399"}}, {"type": "node", "id": 10280273721, "lat": 51.4399631, "lon": -0.0507567, "tags": {"amenity": "bicycle_parking", "bicycle_parking": "stands", "capacity": "2", "ref:GB:tflcid": "RWG204400"}}, {"type": "node", "id": 10280273724, "lat": 51.4263145, "lon": -0.0104791, "tags": {"amenity": "bicycle_parking", "bicycle_parking": "upright_stands", "capacity": "6", "ref:GB:tflcid": "RWG276870"}}, {"type": "node", "id": 10280273738, "lat": 51.3822399, "lon": -0.0691266, "tags": {"amenity": "bicycle_parking", "bicycle_parking": "stands", "capacity": "6", "ref:GB:tflcid": "RWG278492"}}, {"type": "node", "id": 10280277454, "lat": 51.3739031, "lon": 0.001503, "tags": {"amenity": "bicycle_parking", "bicycle_parking": "stands", "capacity": "4", "covered": "no", "ref:GB:tflcid": "RWG204585"}}, {"type": "node", "id": 10280277455, "lat": 51.3696641, "lon": 0.0009607, "tags": {"amenity": "bicycle_parking", "bicycle_parking": "stands", "capacity": "1", "covered": "no", "ref:GB:tflcid": "RWG204589"}}, {"type": "node", "id": 10280277456, "lat": 51.3699154, "lon": 0.00137, "tags": {"amenity": "bicycle_parking", "bicycle_parking": "stands", "capacity": "2", "covered": "no", "ref:GB:tflcid": "RWG204592"}}, {"type": "node", "id": 10280277457, "lat": 51.36967, "lon": 0.0011393, "tags": {"amenity": "bicycle_parking", "bicycle_parking": "stands", "capacity": "1", "covered": "no", "ref:GB:tflcid": "RWG204590"}}, {"type": "node", "id": 10280277458, "lat": 51.3692486, "lon": 0.0012155, "tags": {"amenity": "bicycle_parking", "bicycle_parking": "stands", "capacity": "8", "covered": "no", "ref:GB:tflcid": "RWG204588"}}, {"type": "node", "id": 10280277459, "lat": 51.3688441, "lon": -0.0023521, "tags": {"amenity": "bicycle_parking", "bicycle_parking": "stands", "capacity": "8", "covered": "no", "ref:GB:tflcid": "RWG278495"}}, {"type": "node", "id": 10280277616, "lat": 51.3697119, "lon": 0.0012006, "tags": {"amenity": "bicycle_parking", "bicycle_parking": "stands", "capacity": "1", "covered": "yes", "ref:GB:tflcid": "RWG204591"}}, {"type": "node", "id": 10280277617, "lat": 51.3699219, "lon": 0.0010805, "tags": {"amenity": "bicycle_parking", "bicycle_parking": "stands", "capacity": "2", "covered": "no", "ref:GB:tflcid": "RWG204593"}}, {"type": "node", "id": 10280277629, "lat": 51.4386392, "lon": -0.0530287, "tags": {"amenity": "bicycle_parking", "bicycle_parking": "stands", "capacity": "6", "ref:GB:tflcid": "RWG204422"}}, {"type": "node", "id": 10280277630, "lat": 51.439758, "lon": -0.0557924, "tags": {"amenity": "bicycle_parking", "bicycle_parking": "stands", "capacity": "6", "ref:GB:tflcid": "RWG204487"}}, {"type": "node", "id": 10280277637, "lat": 51.409417, "lon": -0.043421, "tags": {"amenity": "bicycle_parking", "bicycle_parking": "stands", "capacity": "4", "covered": "no", "ref:GB:tflcid": "RWG204644"}}, {"type": "node", "id": 10280277639, "lat": 51.4438666, "lon": -0.0700102, "tags": {"amenity": "bicycle_parking", "bicycle_lock": "bring_own", "bicycle_parking": "lockers", "capacity": "4", "ref:GB:tflcid": "RWG103106"}}, {"type": "node", "id": 10280277641, "lat": 51.4140932, "lon": -0.0627425, "tags": {"access": "private", "amenity": "bicycle_parking", "bicycle_parking": "shed", "capacity": "18", "covered": "yes", "operator": "Cyclehoop Rentals", "ref:GB:tflcid": "RWG204424"}}, {"type": "node", "id": 10280277671, "lat": 51.4181663, "lon": 0.0675182, "tags": {"amenity": "bicycle_parking", "bicycle_parking": "stands", "capacity": "6", "ref:GB:tflcid": "RWG198010"}}, {"type": "node", "id": 10280277672, "lat": 51.4199162, "lon": 0.0693748, "tags": {"amenity": "bicycle_parking", "bicycle_parking": "stands", "capacity": "6", "ref:GB:tflcid": "RWG290999"}}, {"type": "node", "id": 10280281212, "lat": 51.4086324, "lon": -0.0370871, "tags": {"amenity": "bicycle_parking", "bicycle_parking": "stands", "capacity": "2", "covered": "no", "ref:GB:tflcid": "RWG278505"}}, {"type": "node", "id": 10280281213, "lat": 51.4089588, "lon": -0.0371923, "tags": {"amenity": "bicycle_parking", "bicycle_parking": "stands", "capacity": "20", "covered": "no", "ref:GB:tflcid": "RWG278506"}}, {"type": "node", "id": 10280281216, "lat": 51.4074059, "lon": 0.0114323, "tags": {"amenity": "bicycle_parking", "bicycle_parking": "stands", "capacity": "8", "covered": "no", "ref:GB:tflcid": "RWG204408"}}, {"type": "node", "id": 10280285426, "lat": 51.3658811, "lon": 0.0545267, "tags": {"amenity": "bicycle_parking", "bicycle_parking": "stands", "capacity": "20", "covered": "yes", "ref:GB:tflcid": "RWG204513"}}, {"type": "node", "id": 10280285427, "lat": 51.3675864, "lon": 0.0559075, "tags": {"amenity": "bicycle_parking", "bicycle_parking": "stands", "capacity": "6", "ref:GB:tflcid": "RWG204444"}}, {"type": "node", "id": 10280285451, "lat": 51.4170094, "lon": -0.0516614, "tags": {"access": "private", "amenity": "bicycle_parking", "bicycle_parking": "shed", "capacity": "6", "covered": "yes", "on_carriageway": "yes", "operator": "Cyclehoop Rentals", "ref:GB:tflcid": "RWG293347"}}, {"type": "node", "id": 10280285467, "lat": 51.4196067, "lon": 0.1073174, "tags": {"amenity": "bicycle_parking", "bicycle_parking": "stands", "capacity": "4", "ref:GB:tflcid": "RWG198002"}}, {"type": "node", "id": 10280285473, "lat": 51.3416325, "lon": -0.0150854, "tags": {"amenity": "bicycle_parking", "bicycle_parking": "stands", "capacity": "8", "covered": "no", "ref:GB:tflcid": "RWG204426"}}, {"type": "node", "id": 10280285474, "lat": 51.3415356, "lon": -0.0148312, "tags": {"amenity": "bicycle_parking", "bicycle_parking": "stands", "capacity": "6", "ref:GB:tflcid": "RWG204428"}}, {"type": "node", "id": 10280285475, "lat": 51.3424121, "lon": -0.0164222, "tags": {"amenity": "bicycle_parking", "bicycle_parking": "stands", "capacity": "8", "ref:GB:tflcid": "RWG204425"}}, {"type": "node", "id": 10280285541, "lat": 51.432285, "lon": -0.0808576, "tags": {"amenity": "bicycle_parking", "bicycle_parking": "stands", "capacity": "4", "ref:GB:tflcid": "RWG103132"}}, {"type": "node", "id": 10280285545, "lat": 51.4038375, "lon": 0.1054183, "tags": {"amenity": "bicycle_parking", "bicycle_parking": "stands", "capacity": "4", "ref:GB:tflcid": "RWG197903"}}, {"type": "node", "id": 10280285578, "lat": 51.3659587, "lon": 0.0570491, "tags": {"amenity": "bicycle_parking", "bicycle_parking": "stands", "bicycle_parking:stands": "p_stand", "capacity": "4", "covered": "yes", "ref:GB:tflcid": "RWG204524"}}, {"type": "node", "id": 10280285579, "lat": 51.3659754, "lon": 0.0570787, "tags": {"amenity": "bicycle_parking", "bicycle_lock": "bring_own", "bicycle_parking": "lockers", "capacity": "2", "covered": "yes", "ref:GB:tflcid": "RWG204523"}}, {"type": "node", "id": 10280285580, "lat": 51.3664911, "lon": 0.0567161, "tags": {"amenity": "bicycle_parking", "bicycle_parking": "stands", "capacity": "8", "covered": "yes", "ref:GB:tflcid": "RWG204525"}}, {"type": "node", "id": 10280285613, "lat": 51.4028125, "lon": 0.1089006, "tags": {"amenity": "bicycle_parking", "bicycle_parking": "stands", "capacity": "8", "covered": "no", "ref:GB:tflcid": "RWG197854"}}, {"type": "node", "id": 10280285814, "lat": 51.4304133, "lon": -0.0804985, "tags": {"amenity": "bicycle_parking", "bicycle_parking": "stands", "capacity": "2", "ref:GB:tflcid": "RWG103130"}}, {"type": "node", "id": 10280285824, "lat": 51.4170536, "lon": -0.0554433, "tags": {"access": "private", "amenity": "bicycle_parking", "bicycle_parking": "shed", "capacity": "6", "covered": "yes", "operator": "Cyclehoop Rentals", "ref:GB:tflcid": "RWG204569"}}, {"type": "node", "id": 10280285825, "lat": 51.4176629, "lon": -0.0534029, "tags": {"access": "private", "amenity": "bicycle_parking", "bicycle_parking": "shed", "capacity": "6", "covered": "yes", "operator": "Cyclehoop Rentals", "ref:GB:tflcid": "RWG204571"}}, {"type": "node", "id": 10280285826, "lat": 51.4174496, "lon": -0.0526054, "tags": {"access": "private", "amenity": "bicycle_parking", "bicycle_parking": "shed", "capacity": "6", "covered": "yes", "operator": "Cyclehoop Rentals", "ref:GB:tflcid": "RWG204572"}}, {"type": "node", "id": 10280285835, "lat": 51.3411743, "lon": -0.0143041, "tags": {"amenity": "bicycle_parking", "bicycle_parking": "stands", "capacity": "8", "ref:GB:tflcid": "RWG204430"}}, {"type": "node", "id": 10280285836, "lat": 51.3408525, "lon": -0.0141161, "tags": {"amenity": "bicycle_parking", "bicycle_parking": "stands", "capacity": "8", "ref:GB:tflcid": "RWG204432"}}, {"type": "node", "id": 10280287315, "lat": 51.366466, "lon": 0.0566842, "tags": {"amenity": "bicycle_parking", "bicycle_parking": "stands", "capacity": "10", "covered": "yes", "ref:GB:tflcid": "RWG204526"}}, {"type": "node", "id": 10280288409, "lat": 51.3652641, "lon": 0.0558445, "tags": {"amenity": "bicycle_parking", "bicycle_parking": "stands", "capacity": "10", "covered": "yes", "ref:GB:tflcid": "RWG204527"}}, {"type": "node", "id": 10280288414, "lat": 51.4171125, "lon": -0.0553962, "tags": {"access": "private", "amenity": "bicycle_parking", "bicycle_parking": "shed", "capacity": "6", "covered": "yes", "operator": "Cyclehoop Rentals", "ref:GB:tflcid": "RWG204570"}}, {"type": "node", "id": 10280289930, "lat": 51.4170191, "lon": -0.0568445, "tags": {"amenity": "bicycle_parking", "bicycle_parking": "stands", "capacity": "4", "covered": "no", "ref:GB:tflcid": "RWG204568"}}, {"type": "node", "id": 10280289939, "lat": 51.3450164, "lon": -0.0595284, "tags": {"amenity": "bicycle_parking", "bicycle_parking": "stands", "capacity": "2", "covered": "no", "ref:GB:tflcid": "RWG207509"}}, {"type": "node", "id": 10280289940, "lat": 51.3435963, "lon": -0.062326, "tags": {"amenity": "bicycle_parking", "bicycle_parking": "stands", "capacity": "4", "ref:GB:tflcid": "RWG207633"}}, {"type": "node", "id": 10280289947, "lat": 51.425994, "lon": 0.1049221, "tags": {"amenity": "bicycle_parking", "bicycle_parking": "stands", "capacity": "4", "ref:GB:tflcid": "RWG197891"}}, {"type": "node", "id": 10280289948, "lat": 51.4258188, "lon": 0.1047166, "tags": {"amenity": "bicycle_parking", "bicycle_parking": "stands", "capacity": "4", "ref:GB:tflcid": "RWG197888"}}, {"type": "node", "id": 10280289949, "lat": 51.4256227, "lon": 0.1057337, "tags": {"amenity": "bicycle_parking", "bicycle_parking": "stands", "capacity": "16", "ref:GB:tflcid": "RWG197956"}}, {"type": "node", "id": 10280294712, "lat": 51.439091, "lon": 0.0569867, "tags": {"amenity": "bicycle_parking", "bicycle_parking": "stands", "capacity": "6", "ref:GB:tflcid": "RWG197928"}}, {"type": "node", "id": 10280294713, "lat": 51.4384881, "lon": 0.0711017, "tags": {"amenity": "bicycle_parking", "bicycle_parking": "stands", "capacity": "6", "ref:GB:tflcid": "RWG197883"}}, {"type": "node", "id": 10280297111, "lat": 51.4057585, "lon": 0.0152913, "tags": {"amenity": "bicycle_parking", "bicycle_parking": "stands", "capacity": "12", "ref:GB:tflcid": "RWG204501"}}, {"type": "node", "id": 10280297112, "lat": 51.4063884, "lon": 0.0153728, "tags": {"amenity": "bicycle_parking", "bicycle_parking": "stands", "capacity": "12", "covered": "no", "ref:GB:tflcid": "RWG204631"}}, {"type": "node", "id": 10280297113, "lat": 51.4069781, "lon": 0.0161468, "tags": {"amenity": "bicycle_parking", "bicycle_parking": "stands", "capacity": "4", "ref:GB:tflcid": "RWG204632"}}, {"type": "node", "id": 10280297114, "lat": 51.4066019, "lon": 0.0136724, "tags": {"amenity": "bicycle_parking", "bicycle_parking": "stands", "capacity": "4", "covered": "yes", "ref:GB:tflcid": "RWG204397"}}, {"type": "node", "id": 10280297115, "lat": 51.4061042, "lon": 0.0164375, "tags": {"amenity": "bicycle_parking", "bicycle_parking": "post_hoop", "capacity": "2", "ref:GB:tflcid": "RWG204630"}}, {"type": "node", "id": 10280297116, "lat": 51.4021123, "lon": 0.0995515, "tags": {"amenity": "bicycle_parking", "bicycle_parking": "stands", "capacity": "2", "ref:GB:tflcid": "RWG197921"}}, {"type": "node", "id": 10280297117, "lat": 51.4021411, "lon": 0.0992486, "tags": {"amenity": "bicycle_parking", "bicycle_parking": "stands", "capacity": "2", "ref:GB:tflcid": "RWG197918"}}, {"type": "node", "id": 10280297118, "lat": 51.4022502, "lon": 0.0992949, "tags": {"amenity": "bicycle_parking", "bicycle_parking": "stands", "capacity": "2", "ref:GB:tflcid": "RWG197919"}}, {"type": "node", "id": 10280297119, "lat": 51.4112059, "lon": 0.1044057, "tags": {"amenity": "bicycle_parking", "bicycle_parking": "stands", "capacity": "2", "ref:GB:tflcid": "RWG197896"}}, {"type": "node", "id": 10280297120, "lat": 51.4112115, "lon": 0.1043659, "tags": {"amenity": "bicycle_parking", "bicycle_parking": "stands", "capacity": "2", "ref:GB:tflcid": "RWG197895"}}, {"type": "node", "id": 10280297145, "lat": 51.3796248, "lon": -0.074272, "tags": {"amenity": "bicycle_parking", "bicycle_parking": "stands", "capacity": "8", "ref:GB:tflcid": "RWG207888"}}, {"type": "node", "id": 10280297146, "lat": 51.3823129, "lon": -0.0689376, "tags": {"amenity": "bicycle_parking", "bicycle_parking": "stands", "capacity": "6", "ref:GB:tflcid": "RWG204460"}}, {"type": "node", "id": 10281975237, "lat": 51.37654, "lon": 0.1016711, "tags": {"amenity": "bicycle_parking", "bicycle_parking": "stands", "capacity": "8", "ref:GB:tflcid": "RWG197981"}}, {"type": "node", "id": 10281975238, "lat": 51.3742357, "lon": 0.0983641, "tags": {"amenity": "bicycle_parking", "bicycle_parking": "stands", "capacity": "6", "ref:GB:tflcid": "RWG197985"}}, {"type": "node", "id": 10281975241, "lat": 51.4207801, "lon": 0.0210477, "tags": {"amenity": "bicycle_parking", "bicycle_parking": "stands", "capacity": "4", "ref:GB:tflcid": "RWG197797"}}, {"type": "node", "id": 10281975242, "lat": 51.4146446, "lon": 0.0189146, "tags": {"amenity": "bicycle_parking", "bicycle_parking": "stands", "capacity": "1", "ref:GB:tflcid": "RWG291002"}}, {"type": "node", "id": 10281975245, "lat": 51.3974211, "lon": -0.0787884, "tags": {"amenity": "bicycle_parking", "bicycle_parking": "stands", "capacity": "6", "covered": "no", "ref:GB:tflcid": "RWG204344"}}, {"type": "node", "id": 10281975246, "lat": 51.3929908, "lon": -0.0787629, "tags": {"amenity": "bicycle_parking", "bicycle_parking": "upright_stands", "capacity": "24", "covered": "yes", "ref:GB:tflcid": "RWG207610"}}, {"type": "node", "id": 10281975305, "lat": 51.4329691, "lon": 0.1013646, "tags": {"amenity": "bicycle_parking", "bicycle_parking": "stands", "capacity": "2", "ref:GB:tflcid": "RWG197916"}}, {"type": "node", "id": 10281975306, "lat": 51.4329685, "lon": 0.1015425, "tags": {"amenity": "bicycle_parking", "bicycle_parking": "stands", "capacity": "1", "ref:GB:tflcid": "RWG197917"}}, {"type": "node", "id": 10281997725, "lat": 51.3763927, "lon": 0.1022949, "tags": {"amenity": "bicycle_parking", "bicycle_parking": "stands", "capacity": "18", "ref:GB:tflcid": "RWG197984"}}, {"type": "node", "id": 10281997726, "lat": 51.375916, "lon": 0.1021632, "tags": {"access": "private", "amenity": "bicycle_parking", "bicycle_parking": "stands", "capacity": "16", "ref:GB:tflcid": "RWG197982"}}, {"type": "node", "id": 10281997727, "lat": 51.4199393, "lon": 0.0196307, "tags": {"amenity": "bicycle_parking", "bicycle_parking": "stands", "capacity": "8", "ref:GB:tflcid": "RWG197800"}}, {"type": "node", "id": 10281997728, "lat": 51.4210124, "lon": 0.021443, "tags": {"amenity": "bicycle_parking", "bicycle_parking": "stands", "capacity": "8", "ref:GB:tflcid": "RWG197796"}}, {"type": "node", "id": 10281997762, "lat": 51.4362429, "lon": 0.0443864, "tags": {"amenity": "bicycle_parking", "bicycle_parking": "stands", "capacity": "6", "covered": "yes", "ref:GB:tflcid": "RWG197870"}}, {"type": "node", "id": 10281997763, "lat": 51.4295879, "lon": 0.0571166, "tags": {"amenity": "bicycle_parking", "bicycle_parking": "stands", "capacity": "2", "ref:GB:tflcid": "RWG197817"}}, {"type": "node", "id": 10281997764, "lat": 51.4298328, "lon": 0.0571461, "tags": {"amenity": "bicycle_parking", "bicycle_parking": "stands", "capacity": "10", "ref:GB:tflcid": "RWG197821"}}, {"type": "node", "id": 10281997770, "lat": 51.424857, "lon": 0.0981213, "tags": {"amenity": "bicycle_parking", "bicycle_parking": "stands", "capacity": "14", "ref:GB:tflcid": "RWG198001"}}, {"type": "node", "id": 10281997816, "lat": 51.3765974, "lon": 0.1008, "tags": {"amenity": "bicycle_parking", "bicycle_parking": "stands", "capacity": "4", "ref:GB:tflcid": "RWG197980"}}, {"type": "node", "id": 10281997829, "lat": 51.4361599, "lon": 0.0453698, "tags": {"amenity": "bicycle_parking", "bicycle_parking": "stands", "capacity": "10", "ref:GB:tflcid": "RWG197825"}}, {"type": "node", "id": 10281997868, "lat": 51.4171483, "lon": 0.1292765, "tags": {"amenity": "bicycle_parking", "bicycle_parking": "stands", "capacity": "6", "ref:GB:tflcid": "RWG197496"}}, {"type": "node", "id": 10281998327, "lat": 51.416717, "lon": 0.1273423, "tags": {"amenity": "bicycle_parking", "bicycle_parking": "stands", "capacity": "6", "ref:GB:tflcid": "RWG197497"}}, {"type": "node", "id": 10281998334, "lat": 51.444229, "lon": -0.0427362, "tags": {"amenity": "bicycle_parking", "bicycle_parking": "stands", "capacity": "2", "ref:GB:tflcid": "RWG204610"}}, {"type": "node", "id": 10281998336, "lat": 51.4438833, "lon": -0.0427041, "tags": {"amenity": "bicycle_parking", "bicycle_parking": "stands", "capacity": "2", "ref:GB:tflcid": "RWG204608"}}, {"type": "node", "id": 10281998338, "lat": 51.443425, "lon": -0.0424461, "tags": {"amenity": "bicycle_parking", "bicycle_parking": "stands", "capacity": "2", "ref:GB:tflcid": "RWG204605"}}, {"type": "node", "id": 10281998376, "lat": 51.3955883, "lon": -0.0679694, "tags": {"amenity": "bicycle_parking", "bicycle_parking": "stands", "capacity": "4", "covered": "no", "ref:GB:tflcid": "RWG204488"}}, {"type": "node", "id": 10281998385, "lat": 51.4323576, "lon": -0.0628035, "tags": {"amenity": "bicycle_parking", "bicycle_parking": "stands", "capacity": "6", "covered": "yes", "ref:GB:tflcid": "RWG204436"}}, {"type": "node", "id": 10281998390, "lat": 51.4262362, "lon": -0.035276, "tags": {"amenity": "bicycle_parking", "bicycle_parking": "stands", "capacity": "12", "covered": "yes", "ref:GB:tflcid": "RWG291874"}}, {"type": "node", "id": 10281998397, "lat": 51.3954247, "lon": -0.0768149, "tags": {"amenity": "bicycle_parking", "bicycle_parking": "stands", "capacity": "8", "ref:GB:tflcid": "RWG204338"}}, {"type": "node", "id": 10281998398, "lat": 51.3973882, "lon": -0.0753654, "tags": {"amenity": "bicycle_parking", "bicycle_parking": "stands", "capacity": "10", "covered": "no", "ref:GB:tflcid": "RWG204335"}}, {"type": "node", "id": 10281998427, "lat": 51.4246699, "lon": -0.0331888, "tags": {"amenity": "bicycle_parking", "bicycle_parking": "stands", "bicycle_parking:stands": "m_stand", "capacity": "10", "covered": "yes", "ref:GB:tflcid": "RWG291875"}}, {"type": "node", "id": 10281998434, "lat": 51.3532619, "lon": -0.0603874, "tags": {"amenity": "bicycle_parking", "bicycle_parking": "stands", "capacity": "2", "ref:GB:tflcid": "RWG207883"}}, {"type": "node", "id": 10281998439, "lat": 51.331917, "lon": -0.0753397, "tags": {"amenity": "bicycle_parking", "bicycle_parking": "stands", "capacity": "16", "ref:GB:tflcid": "RWG207651"}}, {"type": "node", "id": 10281998442, "lat": 51.3946732, "lon": -0.0243074, "tags": {"amenity": "bicycle_parking", "bicycle_parking": "stands", "capacity": "8", "covered": "no", "ref:GB:tflcid": "RWG278500"}}, {"type": "node", "id": 10281998452, "lat": 51.3751259, "lon": -0.0475542, "tags": {"amenity": "bicycle_parking", "bicycle_parking": "stands", "capacity": "12", "ref:GB:tflcid": "RWG204440"}}, {"type": "node", "id": 10281998453, "lat": 51.3743816, "lon": -0.0506562, "tags": {"amenity": "bicycle_parking", "bicycle_parking": "stands", "capacity": "4", "ref:GB:tflcid": "RWG207417"}}, {"type": "node", "id": 10281998518, "lat": 51.4145066, "lon": 0.0169829, "tags": {"amenity": "bicycle_parking", "bicycle_parking": "stands", "capacity": "4", "ref:GB:tflcid": "RWG197814"}}, {"type": "node", "id": 10281998526, "lat": 51.4262707, "lon": 0.0977669, "tags": {"amenity": "bicycle_parking", "bicycle_parking": "wall_loops", "capacity": "8", "ref:GB:tflcid": "RWG198004"}}, {"type": "node", "id": 10281998556, "lat": 51.3641619, "lon": -0.0810765, "tags": {"amenity": "bicycle_parking", "bicycle_parking": "stands", "capacity": "16", "ref:GB:tflcid": "RWG207617"}}, {"type": "node", "id": 10281998557, "lat": 51.3645587, "lon": -0.0798469, "tags": {"amenity": "bicycle_parking", "bicycle_parking": "stands", "capacity": "20", "ref:GB:tflcid": "RWG207273"}}, {"type": "node", "id": 10281998566, "lat": 51.4392169, "lon": -0.03449, "tags": {"amenity": "bicycle_parking", "bicycle_parking": "wall_loops", "capacity": "5", "ref:GB:tflcid": "RWG204596"}}, {"type": "node", "id": 10281998945, "lat": 51.3963931, "lon": -0.0696415, "tags": {"amenity": "bicycle_parking", "bicycle_parking": "stands", "capacity": "4", "ref:GB:tflcid": "RWG204497"}}, {"type": "node", "id": 10281998960, "lat": 51.4248894, "lon": -0.0334262, "tags": {"amenity": "bicycle_parking", "bicycle_parking": "stands", "bicycle_parking:stands": "m_stand", "capacity": "30", "covered": "yes", "ref:GB:tflcid": "RWG291873"}}, {"type": "node", "id": 10281998980, "lat": 51.3909168, "lon": -0.028206, "tags": {"amenity": "bicycle_parking", "bicycle_parking": "stands", "capacity": "6", "covered": "no", "ref:GB:tflcid": "RWG204325"}}, {"type": "node", "id": 10281999019, "lat": 51.4257166, "lon": 0.0995932, "tags": {"amenity": "bicycle_parking", "bicycle_parking": "stands", "capacity": "6", "ref:GB:tflcid": "RWG197897"}}, {"type": "node", "id": 10281999036, "lat": 51.3534777, "lon": 0.0898294, "tags": {"amenity": "bicycle_parking", "bicycle_parking": "stands", "capacity": "4", "ref:GB:tflcid": "RWG197986"}}, {"type": "node", "id": 10281999037, "lat": 51.3549904, "lon": 0.089704, "tags": {"amenity": "bicycle_parking", "bicycle_parking": "stands", "capacity": "8", "ref:GB:tflcid": "RWG197987"}}, {"type": "node", "id": 10281999038, "lat": 51.355459, "lon": 0.0897525, "tags": {"amenity": "bicycle_parking", "bicycle_parking": "stands", "capacity": "8", "ref:GB:tflcid": "RWG197988"}}, {"type": "node", "id": 10281999039, "lat": 51.3565852, "lon": 0.0877019, "tags": {"amenity": "bicycle_parking", "capacity": "5", "ref:GB:tflcid": "RWG197958"}}, {"type": "node", "id": 10281999043, "lat": 51.4437287, "lon": -0.0423305, "tags": {"amenity": "bicycle_parking", "bicycle_parking": "stands", "capacity": "8", "ref:GB:tflcid": "RWG204609"}}, {"type": "node", "id": 10281999069, "lat": 51.3980188, "lon": -0.0772264, "tags": {"amenity": "bicycle_parking", "bicycle_parking": "stands", "capacity": "4", "covered": "no", "ref:GB:tflcid": "RWG204626"}}, {"type": "node", "id": 10281999088, "lat": 51.4306147, "lon": -0.0660008, "tags": {"amenity": "bicycle_parking", "bicycle_parking": "stands", "capacity": "12", "ref:GB:tflcid": "RWG204394"}}, {"type": "node", "id": 10282005113, "lat": 51.4429326, "lon": -0.0425447, "tags": {"amenity": "bicycle_parking", "bicycle_parking": "stands", "capacity": "2", "ref:GB:tflcid": "RWG204607"}}, {"type": "node", "id": 10282005140, "lat": 51.3975217, "lon": -0.0756528, "tags": {"amenity": "bicycle_parking", "bicycle_parking": "stands", "capacity": "6", "covered": "no", "ref:GB:tflcid": "RWG204337"}}, {"type": "node", "id": 10282005149, "lat": 51.3528978, "lon": -0.0599723, "tags": {"amenity": "bicycle_parking", "bicycle_parking": "stands", "capacity": "2", "ref:GB:tflcid": "RWG207885"}}, {"type": "node", "id": 10282005174, "lat": 51.3545095, "lon": -0.0423451, "tags": {"amenity": "bicycle_parking", "bicycle_parking": "stands", "capacity": "8", "check_date:capacity": "2025-09-21", "covered": "no", "ref:GB:tflcid": "RWG207879"}}, {"type": "node", "id": 10282005175, "lat": 51.3520641, "lon": -0.0381983, "tags": {"amenity": "bicycle_parking", "bicycle_parking": "stands", "capacity": "6", "ref:GB:tflcid": "RWG207630"}}, {"type": "node", "id": 10282005833, "lat": 51.4167661, "lon": 0.127415, "tags": {"amenity": "bicycle_parking", "bicycle_parking": "stands", "capacity": "6", "ref:GB:tflcid": "RWG197498"}}, {"type": "node", "id": 10282005834, "lat": 51.4163729, "lon": 0.1281852, "tags": {"amenity": "bicycle_parking", "bicycle_parking": "stands", "capacity": "6", "ref:GB:tflcid": "RWG197904"}}, {"type": "node", "id": 10282005835, "lat": 51.416373, "lon": 0.1281213, "tags": {"amenity": "bicycle_parking", "bicycle_parking": "stands", "capacity": "6", "ref:GB:tflcid": "RWG197905"}}, {"type": "node", "id": 10282005845, "lat": 51.4388916, "lon": -0.0347569, "tags": {"amenity": "bicycle_parking", "bicycle_parking": "wall_loops", "capacity": "5", "ref:GB:tflcid": "RWG204600"}}, {"type": "node", "id": 10282005846, "lat": 51.4385045, "lon": -0.0334456, "tags": {"amenity": "bicycle_parking", "bicycle_parking": "stands", "capacity": "2", "ref:GB:tflcid": "RWG204594"}}, {"type": "node", "id": 10282006023, "lat": 51.3530214, "lon": -0.060105, "tags": {"amenity": "bicycle_parking", "bicycle_parking": "stands", "capacity": "2", "ref:GB:tflcid": "RWG207884"}}, {"type": "node", "id": 10282006035, "lat": 51.3742952, "lon": -0.0510895, "tags": {"amenity": "bicycle_parking", "bicycle_parking": "stands", "capacity": "4", "ref:GB:tflcid": "RWG207416"}}, {"type": "node", "id": 10282006213, "lat": 51.3488219, "lon": -0.0102454, "tags": {"amenity": "bicycle_parking", "bicycle_parking": "stands", "capacity": "12", "ref:GB:tflcid": "RWG204530"}}, {"type": "node", "id": 10282006220, "lat": 51.4403366, "lon": 0.0505615, "tags": {"amenity": "bicycle_parking", "bicycle_parking": "stands", "capacity": "16", "covered": "yes", "ref:GB:tflcid": "RWG197804"}}, {"type": "node", "id": 10282006237, "lat": 51.3874959, "lon": 0.1137983, "tags": {"amenity": "bicycle_parking", "bicycle_parking": "stands", "capacity": "2", "ref:GB:tflcid": "RWG197962"}}, {"type": "node", "id": 10282006242, "lat": 51.4412453, "lon": -0.0660824, "tags": {"amenity": "bicycle_parking", "bicycle_parking": "stands", "capacity": "10", "covered": "yes", "ref:GB:tflcid": "RWG103137"}}, {"type": "node", "id": 10282006246, "lat": 51.3716539, "lon": 0.093123, "tags": {"amenity": "bicycle_parking", "bicycle_parking": "stands", "capacity": "8", "ref:GB:tflcid": "RWG197951"}}, {"type": "node", "id": 10282006251, "lat": 51.3121119, "lon": 0.034392, "tags": {"amenity": "bicycle_parking", "bicycle_parking": "stands", "capacity": "12", "ref:GB:tflcid": "RWG278499"}}, {"type": "node", "id": 10282006422, "lat": 51.4183466, "lon": 0.1238432, "tags": {"amenity": "bicycle_parking", "bicycle_parking": "wall_loops", "capacity": "12", "ref:GB:tflcid": "RWG197686"}}, {"type": "node", "id": 10282006432, "lat": 51.4030367, "lon": -0.0364452, "tags": {"amenity": "bicycle_parking", "bicycle_parking": "stands", "capacity": "4", "covered": "no", "ref:GB:tflcid": "RWG204343"}}, {"type": "node", "id": 10282006436, "lat": 51.4060186, "lon": -0.0609467, "tags": {"access": "private", "amenity": "bicycle_parking", "bicycle_parking": "shed", "capacity": "6", "covered": "yes", "on_carriageway": "yes", "operator": "Cyclehoop Rentals", "ref:GB:tflcid": "RWG204412"}}, {"type": "node", "id": 10282006445, "lat": 51.4295533, "lon": -0.0337285, "tags": {"amenity": "bicycle_parking", "bicycle_parking": "stands", "capacity": "8", "ref:GB:tflcid": "RWG204646"}}, {"type": "node", "id": 10282006456, "lat": 51.4172583, "lon": 0.0443809, "tags": {"amenity": "bicycle_parking", "bicycle_parking": "stands", "capacity": "14", "covered": "yes", "ref:GB:tflcid": "RWG197639"}}, {"type": "node", "id": 10282006479, "lat": 51.3900088, "lon": 0.0502408, "tags": {"amenity": "bicycle_parking", "bicycle_parking": "post_hoop", "capacity": "2", "ref:GB:tflcid": "RWG197906"}}, {"type": "node", "id": 10282006481, "lat": 51.3666469, "lon": 0.0822703, "tags": {"amenity": "bicycle_parking", "bicycle_parking": "stands", "capacity": "6", "ref:GB:tflcid": "RWG204612"}}, {"type": "node", "id": 10282006483, "lat": 51.4372063, "lon": -0.0185394, "tags": {"amenity": "bicycle_parking", "bicycle_parking": "post_hoop", "capacity": "2", "ref:GB:tflcid": "RWG197475"}}, {"type": "node", "id": 10282006484, "lat": 51.4427, "lon": 0.1009623, "tags": {"amenity": "bicycle_parking", "bicycle_parking": "stands", "capacity": "6", "ref:GB:tflcid": "RWG171643"}}, {"type": "node", "id": 10282006527, "lat": 51.3793155, "lon": 0.0791183, "tags": {"amenity": "bicycle_parking", "bicycle_parking": "stands", "capacity": "2", "ref:GB:tflcid": "RWG204532"}}, {"type": "node", "id": 10282007309, "lat": 51.4388681, "lon": -0.0332376, "tags": {"amenity": "bicycle_parking", "bicycle_parking": "stands", "capacity": "2", "ref:GB:tflcid": "RWG204595"}}, {"type": "node", "id": 10282007310, "lat": 51.4423311, "lon": -0.0342492, "tags": {"amenity": "bicycle_parking", "bicycle_parking": "stands", "capacity": "2", "ref:GB:tflcid": "RWG204575"}}, {"type": "node", "id": 10282007428, "lat": 51.391929, "lon": 0.0005164, "tags": {"amenity": "bicycle_parking", "bicycle_parking": "stands", "capacity": "4", "covered": "no", "ref:GB:tflcid": "RWG204342"}}, {"type": "node", "id": 10282007445, "lat": 51.3917592, "lon": -0.0380935, "tags": {"amenity": "bicycle_parking", "bicycle_parking": "wall_loops", "capacity": "5", "ref:GB:tflcid": "RWG204406"}}, {"type": "node", "id": 10282007446, "lat": 51.3919281, "lon": -0.037571, "tags": {"amenity": "bicycle_parking", "bicycle_parking": "stands", "capacity": "4", "ref:GB:tflcid": "RWG204407"}}, {"type": "node", "id": 10282007498, "lat": 51.443598, "lon": 0.0181382, "tags": {"amenity": "bicycle_parking", "bicycle_parking": "stands", "capacity": "10", "covered": "yes", "ref:GB:tflcid": "RWG197581"}}, {"type": "node", "id": 10282007521, "lat": 51.3924624, "lon": 0.0019778, "tags": {"amenity": "bicycle_parking", "bicycle_parking": "stands", "capacity": "6", "covered": "no", "ref:GB:tflcid": "RWG204340"}}, {"type": "node", "id": 10282007566, "lat": 51.3777649, "lon": 0.0101186, "tags": {"amenity": "bicycle_parking", "bicycle_parking": "stands", "capacity": "4", "covered": "no", "ref:GB:tflcid": "RWG204484"}}, {"type": "node", "id": 10282007567, "lat": 51.3771159, "lon": 0.0110408, "tags": {"amenity": "bicycle_parking", "bicycle_parking": "stands", "capacity": "4", "covered": "no", "ref:GB:tflcid": "RWG204483"}}, {"type": "node", "id": 10282007571, "lat": 51.4436141, "lon": 0.0181967, "tags": {"amenity": "bicycle_parking", "bicycle_parking": "stands", "capacity": "10", "covered": "yes", "ref:GB:tflcid": "RWG197582"}}, {"type": "node", "id": 10282007572, "lat": 51.4436289, "lon": 0.019918, "tags": {"access": "private", "amenity": "bicycle_parking", "bicycle_parking": "shed", "capacity": "12", "covered": "yes", "operator": "Cyclehoop Rentals", "ref:GB:tflcid": "RWG197585"}}, {"type": "node", "id": 10282007584, "lat": 51.3990489, "lon": -0.0411807, "tags": {"amenity": "bicycle_parking", "bicycle_parking": "stands", "capacity": "8", "covered": "no", "ref:GB:tflcid": "RWG204324"}}, {"type": "node", "id": 10282007627, "lat": 51.3861278, "lon": -0.0403692, "tags": {"amenity": "bicycle_parking", "bicycle_parking": "stands", "capacity": "6", "ref:GB:tflcid": "RWG204389"}}, {"type": "node", "id": 10282007629, "lat": 51.4151183, "lon": -0.0742293, "tags": {"access": "private", "amenity": "bicycle_parking", "bicycle_parking": "shed", "capacity": "6", "covered": "yes", "on_carriageway": "yes", "operator": "Cyclehoop Rentals", "ref:GB:tflcid": "RWG204601"}}, {"type": "node", "id": 10282007630, "lat": 51.4413203, "lon": 0.1507309, "tags": {"amenity": "bicycle_parking", "bicycle_parking": "stands", "capacity": "2", "ref:GB:tflcid": "RWG171622"}}, {"type": "node", "id": 10282007652, "lat": 51.3989961, "lon": 0.1135659, "tags": {"amenity": "bicycle_parking", "bicycle_parking": "stands", "capacity": "4", "ref:GB:tflcid": "RWG197871"}}, {"type": "node", "id": 10282007734, "lat": 51.3924305, "lon": 0.0022606, "tags": {"amenity": "bicycle_parking", "bicycle_parking": "stands", "capacity": "6", "covered": "no", "ref:GB:tflcid": "RWG204339"}}, {"type": "node", "id": 10282007735, "lat": 51.3922685, "lon": 0.0014407, "tags": {"amenity": "bicycle_parking", "bicycle_parking": "stands", "capacity": "4", "covered": "no", "ref:GB:tflcid": "RWG204341"}}, {"type": "node", "id": 10282007783, "lat": 51.3859897, "lon": -0.040405, "tags": {"amenity": "bicycle_parking", "bicycle_parking": "stands", "capacity": "4", "ref:GB:tflcid": "RWG204390"}}, {"type": "node", "id": 10282007786, "lat": 51.4157328, "lon": -0.0767228, "tags": {"access": "private", "amenity": "bicycle_parking", "bicycle_lock": "provided", "bicycle_parking": "shed", "capacity": "6", "covered": "yes", "operator": "Cyclehoop Rentals", "ref:GB:tflcid": "RWG293343"}}, {"type": "node", "id": 10282007787, "lat": 51.4155609, "lon": -0.0733802, "tags": {"access": "private", "amenity": "bicycle_parking", "bicycle_parking": "shed", "capacity": "6", "covered": "yes", "on_carriageway": "yes", "operator": "Cyclehoop Rentals", "ref:GB:tflcid": "RWG293344"}}, {"type": "node", "id": 10282007791, "lat": 51.4423244, "lon": 0.1251413, "tags": {"amenity": "bicycle_parking", "bicycle_parking": "stands", "capacity": "2", "ref:GB:tflcid": "RWG171657"}}, {"type": "node", "id": 10282007792, "lat": 51.4416076, "lon": 0.1473217, "tags": {"amenity": "bicycle_parking", "bicycle_parking": "stands", "capacity": "2", "covered": "no", "ref:GB:tflcid": "RWG171620"}}, {"type": "node", "id": 10282007857, "lat": 51.425798, "lon": -0.0483997, "tags": {"amenity": "bicycle_parking", "bicycle_parking": "stands", "capacity": "2", "ref:GB:tflcid": "RWG204388"}}, {"type": "node", "id": 10282007861, "lat": 51.4336783, "lon": 0.0392565, "tags": {"amenity": "bicycle_parking", "bicycle_parking": "stands", "capacity": "6", "ref:GB:tflcid": "RWG276866"}}, {"type": "node", "id": 10282007864, "lat": 51.3404693, "lon": -0.011847, "tags": {"amenity": "bicycle_parking", "bicycle_parking": "stands", "capacity": "4", "ref:GB:tflcid": "RWG204435"}}, {"type": "node", "id": 10282007869, "lat": 51.3868952, "lon": 0.1091036, "tags": {"amenity": "bicycle_parking", "bicycle_parking": "stands", "capacity": "8", "ref:GB:tflcid": "RWG291001"}}, {"type": "node", "id": 10282007872, "lat": 51.4196323, "lon": 0.108349, "tags": {"amenity": "bicycle_parking", "bicycle_parking": "stands", "capacity": "4", "ref:GB:tflcid": "RWG276874"}}, {"type": "node", "id": 10282007881, "lat": 51.3443483, "lon": -0.0063001, "tags": {"amenity": "bicycle_parking", "bicycle_parking": "stands", "capacity": "2", "ref:GB:tflcid": "RWG204446"}}, {"type": "node", "id": 10282007908, "lat": 51.4115461, "lon": -0.0117744, "tags": {"access": "private", "amenity": "bicycle_parking", "bicycle_parking": "shed", "capacity": "6", "covered": "yes", "operator": "Cyclehoop Rentals", "ref:GB:tflcid": "RWG204410"}}, {"type": "node", "id": 10282007932, "lat": 51.3989283, "lon": -0.0423319, "tags": {"amenity": "bicycle_parking", "bicycle_parking": "stands", "capacity": "6", "covered": "no", "ref:GB:tflcid": "RWG204323"}}, {"type": "node", "id": 10282007944, "lat": 51.4412104, "lon": 0.0868682, "tags": {"amenity": "bicycle_parking", "bicycle_parking": "stands", "capacity": "4", "covered": "no", "ref:GB:tflcid": "RWG197933"}}, {"type": "node", "id": 10282007974, "lat": 51.4384384, "lon": 0.0112039, "tags": {"amenity": "bicycle_parking", "bicycle_parking": "stands", "capacity": "8", "ref:GB:tflcid": "RWG197586"}}, {"type": "node", "id": 10282008319, "lat": 51.4434457, "lon": 0.0176672, "tags": {"amenity": "bicycle_parking", "bicycle_parking": "stands", "capacity": "2", "ref:GB:tflcid": "RWG197578"}}, {"type": "node", "id": 10282008325, "lat": 51.4242423, "lon": -0.0317902, "tags": {"amenity": "bicycle_parking", "bicycle_parking": "stands", "capacity": "14", "covered": "no", "ref:GB:tflcid": "RWG291876"}}, {"type": "node", "id": 10282008326, "lat": 51.4184743, "lon": -0.0186597, "tags": {"amenity": "bicycle_parking", "bicycle_parking": "stands", "capacity": "2", "covered": "yes", "ref:GB:tflcid": "RWG204345"}}, {"type": "node", "id": 10282008327, "lat": 51.4187333, "lon": -0.0184885, "tags": {"amenity": "bicycle_parking", "bicycle_parking": "stands", "capacity": "4", "covered": "yes", "ref:GB:tflcid": "RWG204346"}}, {"type": "node", "id": 10282008348, "lat": 51.3702691, "lon": 0.0431909, "tags": {"amenity": "bicycle_parking", "capacity": "4", "ref:GB:tflcid": "RWG204559"}}, {"type": "node", "id": 10282008354, "lat": 51.4372644, "lon": 0.0132411, "tags": {"amenity": "bicycle_parking", "bicycle_lock": "provided", "bicycle_parking": "stands", "capacity": "10", "covered": "yes", "ref:GB:tflcid": "RWG197588"}}, {"type": "node", "id": 10282008377, "lat": 51.3338264, "lon": -0.0766781, "tags": {"access": "yes", "amenity": "bicycle_parking", "bicycle_parking": "stands", "capacity": "4", "covered": "no", "ref:GB:tflcid": "RWG207662"}}, {"type": "node", "id": 10282008381, "lat": 51.4257474, "lon": -0.0386736, "tags": {"amenity": "bicycle_parking", "bicycle_parking": "stands", "capacity": "8", "ref:GB:tflcid": "RWG204633"}}, {"type": "node", "id": 10282008382, "lat": 51.426888, "lon": -0.0403119, "tags": {"amenity": "bicycle_parking", "bicycle_parking": "stands", "capacity": "10", "ref:GB:tflcid": "RWG204634"}}, {"type": "node", "id": 10282008387, "lat": 51.4420863, "lon": -0.0474478, "tags": {"amenity": "bicycle_parking", "bicycle_parking": "stands", "capacity": "4", "ref:GB:tflcid": "RWG204404"}}, {"type": "node", "id": 10282008392, "lat": 51.4259717, "lon": -0.0505116, "tags": {"amenity": "bicycle_parking", "bicycle_parking": "stands", "capacity": "2", "ref:GB:tflcid": "RWG204378"}}, {"type": "node", "id": 10282008401, "lat": 51.3404717, "lon": -0.0120091, "tags": {"amenity": "bicycle_parking", "bicycle_parking": "stands", "capacity": "4", "ref:GB:tflcid": "RWG204434"}}, {"type": "node", "id": 10282008828, "lat": 51.4355579, "lon": 0.1257182, "tags": {"amenity": "bicycle_parking", "bicycle_parking": "stands", "capacity": "10", "covered": "yes", "ref:GB:tflcid": "RWG171655"}}, {"type": "node", "id": 10282008830, "lat": 51.4017639, "lon": 0.0353192, "tags": {"access": "private", "amenity": "bicycle_parking", "bicycle_parking": "shed", "capacity": "6", "covered": "yes", "operator": "Cyclehoop Rentals", "ref:GB:tflcid": "RWG198022"}}, {"type": "node", "id": 10282008833, "lat": 51.4234295, "lon": 0.0872634, "tags": {"amenity": "bicycle_parking", "bicycle_parking": "stands", "capacity": "10", "covered": "yes", "ref:GB:tflcid": "RWG197652"}}, {"type": "node", "id": 10282009609, "lat": 51.4107404, "lon": -0.0676612, "tags": {"amenity": "bicycle_parking", "bicycle_lock": "bring_own", "bicycle_parking": "lockers", "capacity": "2", "ref:GB:tflcid": "RWG204334"}}, {"type": "node", "id": 10282009613, "lat": 51.3764103, "lon": 0.0102855, "tags": {"amenity": "bicycle_parking", "bicycle_parking": "stands", "bicycle_parking:stands": "m_stand", "capacity": "40", "covered": "yes", "ref:GB:tflcid": "RWG204482"}}, {"type": "node", "id": 10282009622, "lat": 51.3745081, "lon": 0.0450739, "tags": {"amenity": "bicycle_parking", "bicycle_parking": "stands", "capacity": "8", "ref:GB:tflcid": "RWG204567"}}, {"type": "node", "id": 10282009623, "lat": 51.3702817, "lon": 0.0432914, "tags": {"amenity": "bicycle_parking", "capacity": "4", "ref:GB:tflcid": "RWG204560"}}, {"type": "node", "id": 10282009660, "lat": 51.3767964, "lon": -0.0602851, "tags": {"amenity": "bicycle_parking", "bicycle_parking": "stands", "capacity": "4", "ref:GB:tflcid": "RWG207400"}}, {"type": "node", "id": 10282010411, "lat": 51.3761647, "lon": 0.0109339, "tags": {"amenity": "bicycle_parking", "bicycle_parking": "stands", "capacity": "8", "covered": "no", "ref:GB:tflcid": "RWG204481"}}, {"type": "node", "id": 10282010412, "lat": 51.4409976, "lon": 0.0871452, "tags": {"amenity": "bicycle_parking", "bicycle_parking": "stands", "capacity": "4", "covered": "no", "ref:GB:tflcid": "RWG197932"}}, {"type": "node", "id": 10282010413, "lat": 51.4413567, "lon": 0.0866953, "tags": {"amenity": "bicycle_parking", "bicycle_parking": "stands", "capacity": "4", "covered": "no", "ref:GB:tflcid": "RWG197934"}}, {"type": "node", "id": 10282010425, "lat": 51.3849338, "lon": -0.0750187, "tags": {"amenity": "bicycle_parking", "bicycle_parking": "stands", "capacity": "4", "ref:GB:tflcid": "RWG207887"}}, {"type": "node", "id": 10282010469, "lat": 51.4201927, "lon": 0.0947149, "tags": {"amenity": "bicycle_parking", "bicycle_parking": "stands", "capacity": "4", "ref:GB:tflcid": "RWG291003"}}, {"type": "node", "id": 10282010475, "lat": 51.3936606, "lon": -0.0672737, "tags": {"amenity": "bicycle_parking", "bicycle_parking": "stands", "capacity": "16", "covered": "yes", "fee": "no", "ref:GB:tflcid": "RWG204491"}}, {"type": "node", "id": 10282010490, "lat": 51.3772038, "lon": -0.0279334, "tags": {"amenity": "bicycle_parking", "bicycle_parking": "stands", "capacity": "8", "covered": "no", "ref:GB:tflcid": "RWG204597"}}, {"type": "node", "id": 10282010491, "lat": 51.4059428, "lon": -0.0667912, "tags": {"amenity": "bicycle_parking", "bicycle_parking": "stands", "capacity": "10", "covered": "yes", "ref:GB:tflcid": "RWG204462"}}, {"type": "node", "id": 10282013818, "lat": 51.3330277, "lon": -0.0762371, "tags": {"amenity": "bicycle_parking", "bicycle_parking": "stands", "capacity": "4", "ref:GB:tflcid": "RWG207650"}}, {"type": "node", "id": 10282013823, "lat": 51.4396758, "lon": -0.0474309, "tags": {"amenity": "bicycle_parking", "bicycle_parking": "stands", "capacity": "1", "ref:GB:tflcid": "RWG204393"}}, {"type": "node", "id": 10282013825, "lat": 51.4347418, "lon": 0.0389898, "tags": {"amenity": "bicycle_parking", "bicycle_parking": "stands", "capacity": "4", "ref:GB:tflcid": "RWG276867"}}, {"type": "node", "id": 10282013843, "lat": 51.4025072, "lon": 0.0352266, "tags": {"amenity": "bicycle_parking", "bicycle_parking": "post_hoop", "capacity": "1", "ref:GB:tflcid": "RWG197856"}}, {"type": "node", "id": 10282013846, "lat": 51.3826034, "lon": -0.0637844, "tags": {"amenity": "bicycle_parking", "capacity": "10", "ref:GB:tflcid": "RWG204456"}}, {"type": "node", "id": 10282015209, "lat": 51.3945115, "lon": 0.106543, "tags": {"amenity": "bicycle_parking", "bicycle_parking": "stands", "capacity": "18", "ref:GB:tflcid": "RWG197915"}}, {"type": "node", "id": 10282015210, "lat": 51.4042081, "lon": 0.1157176, "tags": {"amenity": "bicycle_parking", "bicycle_parking": "stands", "capacity": "8", "ref:GB:tflcid": "RWG197886"}}, {"type": "node", "id": 10282015211, "lat": 51.3969799, "lon": 0.1136183, "tags": {"amenity": "bicycle_parking", "bicycle_parking": "stands", "capacity": "8", "ref:GB:tflcid": "RWG197872"}}, {"type": "node", "id": 10282015216, "lat": 51.3986773, "lon": -0.0430963, "tags": {"amenity": "bicycle_parking", "bicycle_parking": "stands", "capacity": "6", "ref:GB:tflcid": "RWG204322"}}, {"type": "node", "id": 10282015217, "lat": 51.3990325, "lon": -0.0405202, "tags": {"amenity": "bicycle_parking", "bicycle_parking": "stands", "capacity": "8", "covered": "no", "ref:GB:tflcid": "RWG204349"}}, {"type": "node", "id": 10282015732, "lat": 51.3992536, "lon": -0.0183837, "tags": {"amenity": "bicycle_parking", "bicycle_parking": "stands", "capacity": "6", "covered": "no", "ref:GB:tflcid": "RWG278501"}}, {"type": "node", "id": 10282015772, "lat": 51.4328069, "lon": -0.0619376, "tags": {"amenity": "bicycle_parking", "bicycle_parking": "wall_loops", "capacity": "3", "ref:GB:tflcid": "RWG204438"}}, {"type": "node", "id": 10282015812, "lat": 51.4316245, "lon": -0.0601728, "tags": {"amenity": "bicycle_parking", "bicycle_parking": "stands", "capacity": "4", "ref:GB:tflcid": "RWG204362"}}, {"type": "node", "id": 10282015819, "lat": 51.3571599, "lon": -0.0412637, "tags": {"amenity": "bicycle_parking", "bicycle_parking": "stands", "capacity": "6", "ref:GB:tflcid": "RWG207526"}}, {"type": "node", "id": 10282016921, "lat": 51.3199701, "lon": -0.0648018, "tags": {"amenity": "bicycle_parking", "bicycle_parking": "stands", "capacity": "4", "ref:GB:tflcid": "RWG207626"}}, {"type": "node", "id": 10282016922, "lat": 51.320264, "lon": -0.0650579, "tags": {"amenity": "bicycle_parking", "bicycle_parking": "stands", "capacity": "4", "ref:GB:tflcid": "RWG207627"}}, {"type": "node", "id": 10282016928, "lat": 51.3899266, "lon": -0.0262285, "tags": {"amenity": "bicycle_parking", "bicycle_parking": "stands", "bicycle_parking:stands": "m_stand", "capacity": "20", "covered": "yes", "ref:GB:tflcid": "RWG204327"}}, {"type": "node", "id": 10282016948, "lat": 51.3641579, "lon": 0.1113254, "tags": {"amenity": "bicycle_parking", "bicycle_parking": "stands", "capacity": "4", "ref:GB:tflcid": "RWG197993"}}, {"type": "node", "id": 10282016949, "lat": 51.3742233, "lon": 0.1163481, "tags": {"amenity": "bicycle_parking", "bicycle_parking": "stands", "capacity": "6", "ref:GB:tflcid": "RWG197990"}}, {"type": "node", "id": 10282016950, "lat": 51.3738468, "lon": 0.1173142, "tags": {"amenity": "bicycle_parking", "bicycle_parking": "stands", "capacity": "6", "ref:GB:tflcid": "RWG197989"}}, {"type": "node", "id": 10282019417, "lat": 51.3885821, "lon": -0.0521147, "tags": {"amenity": "bicycle_parking", "bicycle_parking": "stands", "capacity": "2", "ref:GB:tflcid": "RWG204528"}}, {"type": "node", "id": 10282019418, "lat": 51.3995084, "lon": -0.0603924, "tags": {"amenity": "bicycle_parking", "bicycle_parking": "stands", "capacity": "16", "covered": "no", "ref:GB:tflcid": "RWG204442"}}, {"type": "node", "id": 10282019419, "lat": 51.4193982, "lon": -0.0787604, "tags": {"amenity": "bicycle_parking", "bicycle_parking": "stands", "capacity": "4", "ref:GB:tflcid": "RWG204624"}}, {"type": "node", "id": 10282021813, "lat": 51.3825471, "lon": 0.1075052, "tags": {"amenity": "bicycle_parking", "bicycle_parking": "stands", "capacity": "8", "ref:GB:tflcid": "RWG197995"}}, {"type": "node", "id": 10282021815, "lat": 51.419169, "lon": 0.1080026, "tags": {"amenity": "bicycle_parking", "bicycle_parking": "stands", "capacity": "4", "ref:GB:tflcid": "RWG276875"}}, {"type": "node", "id": 10282021822, "lat": 51.4063983, "lon": -0.0272869, "tags": {"amenity": "bicycle_parking", "bicycle_parking": "stands", "capacity": "10", "covered": "yes", "ref:GB:tflcid": "RWG291871"}}, {"type": "node", "id": 10282021823, "lat": 51.4069086, "lon": -0.0168948, "tags": {"amenity": "bicycle_parking", "bicycle_parking": "stands", "capacity": "4", "ref:GB:tflcid": "RWG204454"}}, {"type": "node", "id": 10282021828, "lat": 51.3442964, "lon": -0.0066726, "tags": {"amenity": "bicycle_parking", "bicycle_parking": "stands", "capacity": "2", "ref:GB:tflcid": "RWG204445"}}, {"type": "node", "id": 10282021851, "lat": 51.3762976, "lon": -0.0596624, "tags": {"amenity": "bicycle_parking", "bicycle_parking": "stands", "capacity": "4", "covered": "no", "ref:GB:tflcid": "RWG207399"}}, {"type": "node", "id": 10282021863, "lat": 51.3730532, "lon": 0.0895867, "tags": {"amenity": "bicycle_parking", "bicycle_parking": "stands", "bicycle_parking:stands": "m_stand", "capacity": "16", "covered": "no", "ref:GB:tflcid": "RWG197964"}}, {"type": "node", "id": 10282021864, "lat": 51.3745423, "lon": 0.0885911, "tags": {"amenity": "bicycle_parking", "bicycle_parking": "upright_stands", "capacity": "5", "ref:GB:tflcid": "RWG197965"}}, {"type": "node", "id": 10282024109, "lat": 51.4100277, "lon": -0.0118169, "tags": {"amenity": "bicycle_parking", "capacity": "24", "covered": "yes", "ref:GB:tflcid": "RWG204411"}}, {"type": "node", "id": 10282024112, "lat": 51.3748294, "lon": -0.077433, "tags": {"amenity": "bicycle_parking", "bicycle_parking": "stands", "capacity": "6", "ref:GB:tflcid": "RWG207812"}}, {"type": "node", "id": 10282024113, "lat": 51.3748216, "lon": -0.0773944, "tags": {"amenity": "bicycle_parking", "bicycle_parking": "stands", "capacity": "8", "ref:GB:tflcid": "RWG207813"}}, {"type": "node", "id": 10282024122, "lat": 51.4333116, "lon": 0.1347588, "tags": {"amenity": "bicycle_parking", "bicycle_parking": "stands", "capacity": "6", "covered": "no", "ref:GB:tflcid": "RWG276865"}}, {"type": "node", "id": 10282027015, "lat": 51.4167708, "lon": -0.0792847, "tags": {"access": "private", "amenity": "bicycle_parking", "bicycle_parking": "shed", "capacity": "6", "covered": "yes", "on_carriageway": "yes", "operator": "Cyclehoop Rentals", "ref:GB:tflcid": "RWG204477"}}, {"type": "node", "id": 10282027037, "lat": 51.3831958, "lon": -0.0528249, "tags": {"amenity": "bicycle_parking", "bicycle_parking": "stands", "capacity": "6", "ref:GB:tflcid": "RWG278493"}}, {"type": "node", "id": 10282027039, "lat": 51.3920842, "lon": -0.080148, "tags": {"amenity": "bicycle_parking", "bicycle_parking": "stands", "capacity": "12", "covered": "yes", "ref:GB:tflcid": "RWG207611"}}, {"type": "node", "id": 10282027043, "lat": 51.4345193, "lon": 0.1026065, "tags": {"amenity": "bicycle_parking", "bicycle_parking": "stands", "capacity": "8", "ref:GB:tflcid": "RWG197910"}}, {"type": "node", "id": 10282033310, "lat": 51.3779359, "lon": 0.1009287, "tags": {"amenity": "bicycle_parking", "capacity": "8", "ref:GB:tflcid": "RWG197979"}}, {"type": "node", "id": 10282033311, "lat": 51.4063217, "lon": 0.0026527, "tags": {"amenity": "bicycle_parking", "bicycle_parking": "stands", "capacity": "8", "covered": "no", "ref:GB:tflcid": "RWG204439"}}, {"type": "node", "id": 10282033317, "lat": 51.4219838, "lon": 0.0086091, "tags": {"amenity": "bicycle_parking", "bicycle_parking": "stands", "capacity": "4", "ref:GB:tflcid": "RWG276876"}}, {"type": "node", "id": 10282034413, "lat": 51.4271257, "lon": -0.055888, "tags": {"amenity": "bicycle_parking", "bicycle_parking": "stands", "capacity": "4", "covered": "no", "ref:GB:tflcid": "RWG204396"}}, {"type": "node", "id": 10282034414, "lat": 51.3514271, "lon": 0.0749828, "tags": {"amenity": "bicycle_parking", "bicycle_parking": "stands", "capacity": "4", "ref:GB:tflcid": "RWG204321"}}, {"type": "node", "id": 10282034415, "lat": 51.4243032, "lon": -0.0625597, "tags": {"amenity": "bicycle_parking", "bicycle_parking": "stands", "bicycle_parking:stands": "m_stand", "capacity": "2", "ref:GB:tflcid": "RWG204351"}}, {"type": "node", "id": 10282036509, "lat": 51.4229229, "lon": 0.0042583, "tags": {"amenity": "bicycle_parking", "bicycle_parking": "stands", "capacity": "8", "covered": "yes", "ref:GB:tflcid": "RWG276872"}}, {"type": "node", "id": 10308304781, "lat": 51.418757, "lon": -0.0505885, "tags": {"access": "private", "amenity": "bicycle_parking", "bicycle_parking": "lockers", "capacity": "5", "covered": "yes"}}, {"type": "node", "id": 10308304786, "lat": 51.4186488, "lon": -0.0506749, "tags": {"access": "private", "amenity": "bicycle_parking", "bicycle_parking": "lockers", "capacity": "5", "covered": "yes"}}, {"type": "node", "id": 10594509433, "lat": 51.4109086, "lon": -0.0252251, "tags": {"amenity": "bicycle_parking", "bicycle_parking": "stands", "capacity": "12", "covered": "yes"}}, {"type": "node", "id": 10773607967, "lat": 51.4338474, "lon": 0.1037444, "tags": {"amenity": "bicycle_parking", "bicycle_parking": "stands", "covered": "yes"}}, {"type": "node", "id": 10773607968, "lat": 51.4336648, "lon": 0.1040849, "tags": {"amenity": "bicycle_parking", "bicycle_parking": "rack"}}, {"type": "node", "id": 10809094825, "lat": 51.4176853, "lon": 0.1289746, "tags": {"amenity": "bicycle_parking"}}, {"type": "node", "id": 10883991085, "lat": 51.4076454, "lon": -0.0270384, "tags": {"access": "yes", "amenity": "bicycle_parking", "bicycle_parking": "stands", "capacity": "2", "covered": "no", "fee": "no"}}, {"type": "node", "id": 10944125500, "lat": 51.3968447, "lon": 0.0249389, "tags": {"amenity": "bicycle_parking", "bicycle_parking": "rack", "capacity": "8", "covered": "yes"}}, {"type": "node", "id": 10945454647, "lat": 51.4112845, "lon": -0.0691257, "tags": {"amenity": "bicycle_parking", "bicycle_parking": "rack", "capacity": "25", "covered": "no", "name": "Scooter Rack"}}, {"type": "node", "id": 10949404488, "lat": 51.400047, "lon": -0.0752942, "tags": {"access": "yes", "amenity": "bicycle_parking", "bicycle_parking": "stands", "capacity": "6", "covered": "no", "fee": "no"}}, {"type": "node", "id": 11003064987, "lat": 51.4085861, "lon": -0.0403283, "tags": {"access": "customers", "amenity": "bicycle_parking", "bicycle_parking": "shed", "bike_ride": "yes", "covered": "yes", "fee": "yes", "level": "0", "name": "Clock House Cycle Hub", "operator": "Cycle Hub", "source": "survey"}}, {"type": "node", "id": 11021212473, "lat": 51.377707, "lon": 0.0100642, "tags": {"amenity": "bicycle_parking", "bicycle_parking": "stands", "capacity": "4", "covered": "no"}}, {"type": "node", "id": 11021212844, "lat": 51.3758728, "lon": 0.0104418, "tags": {"amenity": "bicycle_parking", "bicycle_parking": "stands", "capacity": "10", "covered": "no"}}, {"type": "node", "id": 11021212913, "lat": 51.3738803, "lon": 0.001468, "tags": {"amenity": "bicycle_parking", "bicycle_parking": "stands", "capacity": "4", "covered": "no"}}, {"type": "node", "id": 11083987142, "lat": 51.418935, "lon": -0.064118, "tags": {"amenity": "bicycle_parking", "bicycle_parking": "stands", "capacity": "8", "cover": "No"}}, {"type": "node", "id": 11108714869, "lat": 51.3911116, "lon": -0.065471, "tags": {"amenity": "bicycle_parking", "bicycle_parking": "stands", "capacity": "4", "covered": "no", "fee": "no", "ref:GB:tflcid": "RWG204447"}}, {"type": "node", "id": 11108714870, "lat": 51.3912886, "lon": -0.0655864, "tags": {"amenity": "bicycle_parking", "bicycle_parking": "stands", "capacity": "4", "covered": "no", "fee": "no", "ref:GB:tflcid": "RWG204447"}}, {"type": "node", "id": 11137858179, "lat": 51.4202573, "lon": -0.0151628, "tags": {"amenity": "bicycle_parking", "bicycle_parking": "stands", "capacity": "16", "covered": "no", "fee": "no"}}, {"type": "node", "id": 11191342341, "lat": 51.439022, "lon": 0.1066123, "tags": {"amenity": "bicycle_parking", "bicycle_parking": "stands", "covered": "no"}}, {"type": "node", "id": 11191342342, "lat": 51.438966, "lon": 0.1070578, "tags": {"amenity": "bicycle_parking", "bicycle_parking": "stands", "covered": "no"}}, {"type": "node", "id": 11191342343, "lat": 51.438845, "lon": 0.1073395, "tags": {"amenity": "bicycle_parking", "bicycle_parking": "stands", "covered": "no"}}, {"type": "node", "id": 11235790798, "lat": 51.3408845, "lon": -0.0157181, "tags": {"amenity": "bicycle_parking", "bicycle_parking": "stands", "capacity": "16", "ref:GB:tflcid": "RWG204418"}}, {"type": "node", "id": 11240550703, "lat": 51.4153489, "lon": -0.0545388, "tags": {"access": "yes", "amenity": "bicycle_parking", "bicycle_parking": "stands", "capacity": "4", "covered": "no", "fee": "no"}}, {"type": "node", "id": 11240550704, "lat": 51.4152873, "lon": -0.0544625, "tags": {"access": "yes", "amenity": "bicycle_parking", "bicycle_parking": "stands", "capacity": "2", "covered": "no", "fee": "no"}}, {"type": "node", "id": 11240560962, "lat": 51.4156431, "lon": -0.0531796, "tags": {"access": "yes", "amenity": "bicycle_parking", "capacity": "6", "covered": "no", "fee": "no"}}, {"type": "node", "id": 11266956469, "lat": 51.3560155, "lon": -0.020888, "tags": {"amenity": "bicycle_parking"}}, {"type": "node", "id": 11282229724, "lat": 51.435472, "lon": 0.0195485, "tags": {"access": "customers", "amenity": "bicycle_parking", "bicycle_parking": "stands", "capacity": "4", "colour": "silver", "covered": "no", "fee": "no"}}, {"type": "node", "id": 11309125680, "lat": 51.4074907, "lon": -0.0274319, "tags": {"access": "yes", "amenity": "bicycle_parking", "bicycle_parking": "stands", "capacity": "1", "covered": "no", "fee": "no"}}, {"type": "node", "id": 11309125684, "lat": 51.4066087, "lon": -0.0285931, "tags": {"access": "yes", "amenity": "bicycle_parking", "bicycle_parking": "stands", "capacity": "4", "covered": "no"}}, {"type": "node", "id": 11369450649, "lat": 51.4031631, "lon": 0.0991224, "tags": {"amenity": "bicycle_parking"}}, {"type": "node", "id": 11369450650, "lat": 51.4032083, "lon": 0.0990513, "tags": {"amenity": "bicycle_parking"}}, {"type": "node", "id": 11451672559, "lat": 51.4197209, "lon": -0.0153953, "tags": {"amenity": "bicycle_parking", "bicycle_parking": "stands", "capacity": "14", "covered": "no"}}, {"type": "node", "id": 11512367592, "lat": 51.381583, "lon": -0.0146515, "tags": {"access": "customers", "amenity": "bicycle_parking", "bicycle_parking": "wide_stands", "capacity": "10", "covered": "yes"}}, {"type": "node", "id": 11786765351, "lat": 51.3958633, "lon": 0.0243508, "tags": {"amenity": "bicycle_parking", "bicycle_parking": "stands", "capacity": "6"}}, {"type": "node", "id": 11965997836, "lat": 51.4204725, "lon": -0.0214648, "tags": {"access": "yes", "amenity": "bicycle_parking", "bicycle_parking": "stands", "capacity": "4", "covered": "no", "fee": "no"}}, {"type": "node", "id": 11998845764, "lat": 51.4423132, "lon": -0.0602845, "tags": {"amenity": "bicycle_parking"}}, {"type": "node", "id": 12052798520, "lat": 51.4200219, "lon": -0.0650433, "tags": {"amenity": "bicycle_parking", "bicycle_parking": "wall_loops", "capacity": "8", "covered": "no", "fee": "no"}}, {"type": "node", "id": 12146403492, "lat": 51.4166293, "lon": -0.0354154, "tags": {"amenity": "bicycle_parking", "bicycle_parking": "stands", "capacity": "10", "covered": "yes", "fee": "no"}}, {"type": "node", "id": 12146403493, "lat": 51.4165841, "lon": -0.0354315, "tags": {"amenity": "bicycle_parking", "bicycle_parking": "stands", "capacity": "10", "covered": "yes", "fee": "no"}}, {"type": "node", "id": 12178206029, "lat": 51.4192175, "lon": -0.0538966, "tags": {"access": "yes", "amenity": "bicycle_parking", "bicycle_parking": "stands", "capacity": "4", "covered": "yes", "fee": "no"}}, {"type": "node", "id": 12178238295, "lat": 51.4399825, "lon": -0.0651175, "tags": {"amenity": "bicycle_parking", "bicycle_parking": "stands", "capacity": "10", "covered": "no"}}, {"type": "node", "id": 12481859745, "lat": 51.4343973, "lon": 0.1026841, "tags": {"amenity": "bicycle_parking", "capacity": "6", "covered": "no", "cyclestreets_id": "211140", "source": "https://www.cyclestreets.net/location/211140/"}}, {"type": "node", "id": 12697460221, "lat": 51.4188491, "lon": 0.1039452, "tags": {"amenity": "bicycle_parking", "bicycle_parking": "stands", "capacity": "10", "covered": "yes", "cyclestreets_id": "214468"}}, {"type": "node", "id": 12725247115, "lat": 51.4360225, "lon": 0.0918878, "tags": {"access": "yes", "amenity": "bicycle_parking", "bicycle_parking": "stands", "fee": "no"}}, {"type": "node", "id": 13265139906, "lat": 51.3924839, "lon": -0.0605116, "tags": {"amenity": "bicycle_parking"}}, {"type": "node", "id": 13464024992, "lat": 51.4012, "lon": -0.0695435, "tags": {"amenity": "bicycle_parking", "bicycle_parking": "lockers"}}, {"type": "node", "id": 13499120688, "lat": 51.3728318, "lon": 0.088513, "tags": {"amenity": "bicycle_parking", "bicycle_parking": "rack", "covered": "yes"}}, {"type": "node", "id": 13517492682, "lat": 51.4179544, "lon": -0.0764074, "tags": {"access": "private", "amenity": "bicycle_parking", "bicycle_parking": "lockers", "capacity": "6", "colour": "darkgreen", "covered": "yes", "fee": "yes", "operator": "cyclehoop", "operator:type": "local_authority"}}, {"type": "way", "id": 334839172, "center": {"lat": 51.4233567, "lon": -0.0221175}, "nodes": [3419560663, 3419560666, 3419560661, 6035728276, 3419560663], "tags": {"access": "customers", "amenity": "bicycle_parking", "bicycle_parking": "shed", "covered": "yes", "operator": "Sedgehill School", "wheelchair": "yes"}}, {"type": "way", "id": 513704130, "center": {"lat": 51.4178542, "lon": -0.0735794}, "nodes": [5020811593, 5020811594, 5020811595, 5020811596, 5020811593], "tags": {"access": "yes", "amenity": "bicycle_parking", "bicycle_parking": "stands", "capacity": "12", "covered": "yes", "fee": "no", "shelter_type": "bicycle_parking"}}, {"type": "way", "id": 640731466, "center": {"lat": 51.42335, "lon": -0.0222008}, "nodes": [6035741424, 6035741425, 6035741426, 6035741427, 6035741424], "tags": {"access": "customers", "amenity": "bicycle_parking", "bicycle_parking": "shed", "covered": "yes", "operator": "Sedgehill School", "wheelchair": "yes"}}, {"type": "way", "id": 640731469, "center": {"lat": 51.4233245, "lon": -0.0222619}, "nodes": [6035741428, 6035741429, 6035741430, 6035741431, 6035741428], "tags": {"access": "customers", "amenity": "bicycle_parking", "bicycle_parking": "shed", "covered": "yes", "operator": "Sedgehill School", "wheelchair": "yes"}}, {"type": "way", "id": 640731473, "center": {"lat": 51.4232924, "lon": -0.0222897}, "nodes": [6035741432, 6035741433, 6035741434, 6035741435, 6035741432], "tags": {"access": "customers", "amenity": "bicycle_parking", "bicycle_parking": "shed", "covered": "yes", "operator": "Sedgehill School", "wheelchair": "yes"}}, {"type": "way", "id": 1042589803, "center": {"lat": 51.3895427, "lon": 0.0324646}, "nodes": [9597027457, 9597027456, 9597027455, 9597027454, 9597027457], "tags": {"access": "yes", "amenity": "bicycle_parking", "bicycle_parking": "stands", "capacity": "10", "covered": "no", "surface": "asphalt"}}, {"type": "way", "id": 1042611286, "center": {"lat": 51.3881607, "lon": 0.0216381}, "nodes": [9597192356, 9597192355, 9597192354, 9597192353, 9597192356], "tags": {"access": "yes", "amenity": "bicycle_parking", "bicycle_parking": "stands", "capacity": "10", "covered": "no", "lit": "yes", "surface": "asphalt"}}, {"type": "way", "id": 1046691219, "center": {"lat": 51.3887996, "lon": 0.0745892}, "nodes": [387836902, 387836910, 9625149102, 9625149101, 387836902], "tags": {"amenity": "bicycle_parking", "capacity": "20", "operator": "South Eastern"}}, {"type": "way", "id": 1053151409, "center": {"lat": 51.3578397, "lon": -0.0219994}, "nodes": [9678428102, 9678428103, 9678428104, 9678428105, 9678428102], "tags": {"amenity": "bicycle_parking", "bicycle_parking": "stands", "building": "roof", "covered": "yes"}}, {"type": "way", "id": 1178233349, "center": {"lat": 51.4108052, "lon": -0.0685103}, "nodes": [10945454407, 10945454408, 10945454409, 10962642254, 10945454407], "tags": {"access": "customers", "amenity": "bicycle_parking", "bicycle_parking": "shed", "building": "yes", "fee": "no"}}, {"type": "way", "id": 1214864312, "center": {"lat": 51.4362328, "lon": 0.0443925}, "nodes": [11255745760, 11255745761, 2681380028, 11255745762, 10281997762, 11255745760], "tags": {"amenity": "bicycle_parking"}}, {"type": "way", "id": 1216111711, "center": {"lat": 51.4192103, "lon": -0.0545089}, "nodes": [11267799339, 294952739, 11267799338, 11267799337, 11267799339], "tags": {"access": "yes", "amenity": "bicycle_parking", "bicycle_parking": "stands", "building": "carport", "capacity": "24", "covered": "yes"}}, {"type": "way", "id": 1226033181, "center": {"lat": 51.4123816, "lon": -0.0449911}, "nodes": [11369680777, 11369680776, 11369680775, 11369680774, 11369680777], "tags": {"amenity": "bicycle_parking", "bicycle_parking": "rack", "capacity": "20", "covered": "yes"}}, {"type": "way", "id": 1226033182, "center": {"lat": 51.4124235, "lon": -0.0450957}, "nodes": [11369680778, 11369680781, 11369680780, 11369680779, 11369680778], "tags": {"amenity": "bicycle_parking", "bicycle_parking": "rack", "capacity": "20", "covered": "yes"}}, {"type": "way", "id": 1239368080, "center": {"lat": 51.3810874, "lon": -0.0140962}, "nodes": [11513664759, 11519538126, 11519538127, 11513664758, 11513664759], "tags": {"access": "customers", "amenity": "bicycle_parking", "bicycle_parking": "wide_stands", "capacity": "40"}}, {"type": "way", "id": 1306400386, "center": {"lat": 51.3703182, "lon": 0.0174103}, "nodes": [12099129818, 12099129819, 12099129816, 12091734525, 12099129818], "tags": {"access": "private", "amenity": "bicycle_parking", "bicycle_parking": "shed", "building": "shed", "building:material": "brick", "roof:shape": "flat"}}, {"type": "way", "id": 1442933875, "center": {"lat": 51.3923942, "lon": -0.0614384}, "nodes": [13239973900, 13240029201, 13240029206, 1937231511, 13240029202, 13239973900], "tags": {"access": "customers", "amenity": "bicycle_parking", "bicycle_parking": "shed", "building": "yes", "capacity": "35", "fee": "no"}}, {"type": "way", "id": 1442933876, "center": {"lat": 51.392437, "lon": -0.0612506}, "nodes": [13240029203, 13240029204, 13240029205, 1937231511, 13240029203], "tags": {"access": "customers", "amenity": "bicycle_parking", "bicycle_parking": "shed", "building": "yes", "capacity": "8", "fee": "no"}}, {"type": "way", "id": 1460084034, "center": {"lat": 51.4179276, "lon": -0.0730291}, "nodes": [13391075133, 13391075134, 13391075135, 13391075136, 13391075133], "tags": {"access": "yes", "amenity": "bicycle_parking", "bicycle_parking": "stands", "capacity": "12", "covered": "no", "fee": "no", "operator": "Transport for London", "operator:type": "public"}}, {"type": "way", "id": 1463664213, "center": {"lat": 51.387342, "lon": 0.0206751}, "nodes": [13426289073, 13426289074, 13426289075, 13426289076, 13426289073], "tags": {"access": "yes", "amenity": "bicycle_parking", "capacity": "10", "covered": "yes", "fee": "no"}}]}