{"version": 0.6, "generator": "Overpass API 0.7.61.8 b1080abd", "osm3s": {"timestamp_osm_base": "2026-02-19T13:36:04Z", "copyright": "The data included in this document is from www.openstreetmap.org. The data is made available under ODbL."}, "elements": [{"type": "node", "id": 30159709, "lat": 51.3356882, "lon": -0.0043131, "tags": {"amenity": "bicycle_parking"}}, {"type": "node", "id": 196086912, "lat": 51.3595233, "lon": -0.139491, "tags": {"amenity": "bicycle_parking", "bicycle_parking": "stands", "capacity": "4", "covered": "no"}}, {"type": "node", "id": 243320547, "lat": 51.3823993, "lon": -0.1561334, "tags": {"amenity": "bicycle_parking", "capacity": "12", "created_by": "JOSM"}}, {"type": "node", "id": 248770638, "lat": 51.379583, "lon": -0.1555882, "tags": {"amenity": "bicycle_parking", "bicycle_parking": "stands", "capacity": "6", "covered": "no"}}, {"type": "node", "id": 248770639, "lat": 51.3793819, "lon": -0.1554215, "tags": {"amenity": "bicycle_parking", "bicycle_parking": "stands", "capacity": "4", "covered": "no"}}, {"type": "node", "id": 264654423, "lat": 51.3723192, "lon": -0.1596244, "tags": {"amenity": "bicycle_parking", "capacity": "4", "created_by": "Potlatch 0.10b"}}, {"type": "node", "id": 265818744, "lat": 51.3870469, "lon": -0.0652312, "tags": {"amenity": "bicycle_parking", "bicycle_parking": "stands", "capacity": "16", "covered": "no"}}, {"type": "node", "id": 266284109, "lat": 51.3832671, "lon": -0.1564081, "tags": {"amenity": "bicycle_parking", "capacity": "8", "created_by": "Potlatch 0.9a"}}, {"type": "node", "id": 267976892, "lat": 51.3919972, "lon": -0.0877605, "tags": {"amenity": "bicycle_parking", "bicycle_parking": "stands", "capacity": "5", "check_date": "2022-11-25", "covered": "no", "created_by": "JOSM"}}, {"type": "node", "id": 270385527, "lat": 51.412218, "lon": -0.0656662, "tags": {"amenity": "bicycle_parking", "capacity": "12", "check_date": "2025-07-29"}}, {"type": "node", "id": 271047604, "lat": 51.4163225, "lon": -0.0728191, "tags": {"amenity": "bicycle_parking", "bicycle_parking": "stands", "capacity": "2", "check_date:capacity": "2023-03-15", "covered": "no"}}, {"type": "node", "id": 276848632, "lat": 51.4145661, "lon": -0.0524215, "tags": {"amenity": "bicycle_parking", "bicycle_parking": "stands", "capacity": "6", "covered": "yes"}}, {"type": "node", "id": 286493148, "lat": 51.4123869, "lon": -0.0655157, "tags": {"amenity": "bicycle_parking", "bicycle_parking": "stands", "capacity": "12", "check_date": "2024-07-12", "covered": "no"}}, {"type": "node", "id": 288991926, "lat": 51.422493, "lon": -0.1190888, "tags": {"amenity": "bicycle_parking", "bicycle_parking": "stands", "capacity": "8", "check_date:capacity": "2025-10-12", "covered": "no", "name": "Streatham Common South", "source": "survey ch"}}, {"type": "node", "id": 291579649, "lat": 51.3719334, "lon": -0.1599334, "tags": {"amenity": "bicycle_parking", "capacity": "12", "created_by": "Potlatch 0.10b"}}, {"type": "node", "id": 291675789, "lat": 51.3829164, "lon": -0.1161845, "tags": {"amenity": "bicycle_parking", "bicycle_parking": "stands", "capacity": "2", "check_date": "2022-11-21", "covered": "no"}}, {"type": "node", "id": 291675790, "lat": 51.38265, "lon": -0.1156677, "tags": {"amenity": "bicycle_parking", "capacity": "2"}}, {"type": "node", "id": 291710560, "lat": 51.3758022, "lon": -0.092216, "tags": {"amenity": "bicycle_parking", "bicycle_parking": "rack", "capacity": "40", "check_date": "2024-07-12", "covered": "yes", "note": "Undercover + CCTV", "surveillance:type": "camera"}}, {"type": "node", "id": 291950462, "lat": 51.3860977, "lon": -0.0992157, "tags": {"amenity": "bicycle_parking", "capacity": "4"}}, {"type": "node", "id": 298023994, "lat": 51.4068564, "lon": -0.0488224, "tags": {"access": "customers", "amenity": "bicycle_parking", "bicycle_parking": "shed", "capacity": "10", "fee": "yes"}}, {"type": "node", "id": 311217128, "lat": 51.3967478, "lon": -0.0495835, "tags": {"amenity": "bicycle_parking", "capacity": "24", "source:capacity": "survey"}}, {"type": "node", "id": 316072835, "lat": 51.3626768, "lon": -0.0936576, "tags": {"amenity": "bicycle_parking", "bicycle_parking": "stands", "capacity": "20", "covered": "yes"}}, {"type": "node", "id": 316077026, "lat": 51.3972328, "lon": -0.0741613, "tags": {"amenity": "bicycle_parking", "bicycle_parking": "stands", "capacity": "18", "covered": "no"}}, {"type": "node", "id": 325253432, "lat": 51.3454393, "lon": -0.0204308, "tags": {"amenity": "bicycle_parking", "capacity": "20"}}, {"type": "node", "id": 325253433, "lat": 51.356155, "lon": -0.0332802, "tags": {"amenity": "bicycle_parking", "capacity": "24"}}, {"type": "node", "id": 338825628, "lat": 51.4063959, "lon": -0.0578395, "tags": {"amenity": "bicycle_parking", "bicycle_parking": "stands", "capacity": "4", "covered": "no"}}, {"type": "node", "id": 350687622, "lat": 51.3977976, "lon": -0.0933448, "tags": {"amenity": "bicycle_parking", "capacity": "6"}}, {"type": "node", "id": 363996578, "lat": 51.4032132, "lon": -0.0695612, "tags": {"amenity": "bicycle_parking", "bicycle_parking": "stands", "capacity": "4", "check_date": "2022-11-22", "covered": "no"}}, {"type": "node", "id": 364105170, "lat": 51.3628017, "lon": -0.1599888, "tags": {"amenity": "bicycle_parking", "bicycle_parking": "stands", "capacity": "12", "check_date": "2023-10-11", "covered": "no"}}, {"type": "node", "id": 364852521, "lat": 51.4178765, "lon": -0.0824174, "tags": {"amenity": "bicycle_parking", "bicycle_parking": "stands", "capacity": "11", "covered": "no"}}, {"type": "node", "id": 391539693, "lat": 51.3838768, "lon": -0.157526, "tags": {"amenity": "bicycle_parking", "capacity": "4"}}, {"type": "node", "id": 418609061, "lat": 51.3781759, "lon": -0.1537824, "tags": {"amenity": "bicycle_parking", "bicycle_parking": "two-tier", "capacity": "12", "check_date": "2023-06-04", "covered": "yes"}}, {"type": "node", "id": 418797367, "lat": 51.4167277, "lon": -0.0353417, "tags": {"amenity": "bicycle_parking", "capacity": "20", "fixme": "Does this exist inside the station, or was it just misplaced for the now separately mapped cycle parking outside the station?"}}, {"type": "node", "id": 422055073, "lat": 51.3735797, "lon": -0.1017637, "tags": {"amenity": "bicycle_parking", "bicycle_parking": "stands", "capacity": "2", "covered": "no", "mapillary": "462967468123778", "survey:date": "2018-10-25"}}, {"type": "node", "id": 422055075, "lat": 51.3739894, "lon": -0.1004814, "tags": {"amenity": "bicycle_parking", "bicycle_parking": "stands", "capacity": "10", "check_date:capacity": "2022-12-10", "covered": "no", "fee": "no"}}, {"type": "node", "id": 422055077, "lat": 51.374828, "lon": -0.1007711, "tags": {"amenity": "bicycle_parking", "bicycle_parking": "stands", "capacity": "6", "check_date": "2022-12-10", "covered": "no"}}, {"type": "node", "id": 422055079, "lat": 51.3756231, "lon": -0.1012224, "tags": {"amenity": "bicycle_parking", "bicycle_parking": "stands", "capacity": "6", "check_date": "2025-09-17", "covered": "no"}}, {"type": "node", "id": 422055081, "lat": 51.3772343, "lon": -0.1019552, "tags": {"amenity": "bicycle_parking", "capacity": "24"}}, {"type": "node", "id": 422080735, "lat": 51.3805637, "lon": -0.1050874, "tags": {"amenity": "bicycle_parking", "bicycle_parking": "stands", "capacity": "4", "covered": "no"}}, {"type": "node", "id": 422080737, "lat": 51.3960466, "lon": -0.1075472, "tags": {"amenity": "bicycle_parking", "capacity": "2"}}, {"type": "node", "id": 422080749, "lat": 51.4197396, "lon": -0.0798382, "tags": {"amenity": "bicycle_parking", "bicycle_parking": "stands", "capacity": "4", "check_date": "2025-12-13", "covered": "no"}}, {"type": "node", "id": 422087285, "lat": 51.3759607, "lon": -0.1014512, "tags": {"amenity": "bicycle_parking", "capacity": "6"}}, {"type": "node", "id": 423374934, "lat": 51.3782601, "lon": -0.1027744, "tags": {"amenity": "bicycle_parking", "bicycle_parking": "stands", "capacity": "6", "check_date": "2025-09-21", "covered": "no"}}, {"type": "node", "id": 423374959, "lat": 51.3791651, "lon": -0.1036441, "tags": {"amenity": "bicycle_parking", "bicycle_parking": "stands", "capacity": "2", "covered": "no"}}, {"type": "node", "id": 423374961, "lat": 51.3792665, "lon": -0.103728, "tags": {"amenity": "bicycle_parking", "bicycle_parking": "stands", "capacity": "2", "covered": "no"}}, {"type": "node", "id": 423374993, "lat": 51.3792197, "lon": -0.1038368, "tags": {"amenity": "bicycle_parking", "bicycle_parking": "stands", "capacity": "2", "covered": "no"}}, {"type": "node", "id": 423374997, "lat": 51.3791076, "lon": -0.1037776, "tags": {"amenity": "bicycle_parking", "bicycle_parking": "stands", "capacity": "2", "covered": "no"}}, {"type": "node", "id": 424095504, "lat": 51.3987874, "lon": -0.0989753, "tags": {"access": "yes", "amenity": "bicycle_parking", "bicycle_parking": "stands", "capacity": "10", "covered": "no", "fee": "no"}}, {"type": "node", "id": 424095506, "lat": 51.3840433, "lon": -0.1086486, "tags": {"amenity": "bicycle_parking", "capacity": "4"}}, {"type": "node", "id": 424095509, "lat": 51.3768278, "lon": -0.1019051, "tags": {"amenity": "bicycle_parking", "bicycle_parking": "stands", "capacity": "6", "covered": "no"}}, {"type": "node", "id": 518524420, "lat": 51.419424, "lon": -0.0638318, "tags": {"amenity": "bicycle_parking", "bicycle_parking": "stands", "capacity": "18", "covered": "no"}}, {"type": "node", "id": 538092678, "lat": 51.4124894, "lon": -0.0451471, "tags": {"amenity": "bicycle_parking", "bicycle_parking": "two-tier", "capacity": "16", "check_date": "2024-07-08", "covered": "yes"}}, {"type": "node", "id": 577394977, "lat": 51.3161242, "lon": -0.1378092, "tags": {"amenity": "bicycle_parking", "capacity": "44", "covered": "yes", "source": "survey"}}, {"type": "node", "id": 663852763, "lat": 51.3799576, "lon": -0.0324463, "tags": {"amenity": "bicycle_parking"}}, {"type": "node", "id": 663852775, "lat": 51.3811888, "lon": -0.0291309, "tags": {"access": "customers", "amenity": "bicycle_parking", "bicycle_parking": "shed", "check_date": "2025-12-13", "check_date:fee": "2025-12-13", "covered": "yes", "fee": "no"}}, {"type": "node", "id": 685973531, "lat": 51.3752128, "lon": -0.0915191, "tags": {"amenity": "bicycle_parking", "bicycle_parking": "stands", "capacity": "38", "check_date": "2023-08-27", "covered": "no", "fee": "no"}}, {"type": "node", "id": 685973532, "lat": 51.3753791, "lon": -0.0911299, "tags": {"amenity": "bicycle_parking", "bicycle_parking": "stands", "capacity": "12", "check_date": "2023-08-27", "covered": "no", "fee": "no"}}, {"type": "node", "id": 766133424, "lat": 51.3798313, "lon": -0.0139186, "tags": {"amenity": "bicycle_parking", "bicycle_parking": "stands", "capacity": "20", "covered": "no"}}, {"type": "node", "id": 874452303, "lat": 51.396051, "lon": -0.0603878, "tags": {"amenity": "bicycle_parking", "bicycle_parking": "stands", "capacity": "8", "covered": "no"}}, {"type": "node", "id": 1836930913, "lat": 51.4086826, "lon": -0.0592957, "tags": {"amenity": "bicycle_parking", "bicycle_parking": "stands", "capacity": "8", "covered": "yes"}}, {"type": "node", "id": 1880541109, "lat": 51.4169964, "lon": -0.0734149, "tags": {"amenity": "bicycle_parking", "bicycle_parking": "stands", "capacity": "8", "covered": "no"}}, {"type": "node", "id": 1964769698, "lat": 51.3985057, "lon": -0.1580172, "tags": {"amenity": "bicycle_parking", "bicycle_parking": "stands", "capacity": "2"}}, {"type": "node", "id": 2031635740, "lat": 51.4205694, "lon": -0.0676517, "tags": {"amenity": "bicycle_parking", "bicycle_parking": "stands", "capacity": "48", "covered": "no", "supervised": "no"}}, {"type": "node", "id": 2045961833, "lat": 51.4186393, "lon": -0.0827369, "tags": {"access": "yes", "amenity": "bicycle_parking", "bicycle_parking": "stands", "capacity": "6", "covered": "no", "source": "photograph"}}, {"type": "node", "id": 2047270254, "lat": 51.4197792, "lon": -0.0793863, "tags": {"access": "yes", "amenity": "bicycle_parking", "bicycle_parking": "stands", "capacity": "4", "covered": "no", "fee": "no", "source": "photograph"}}, {"type": "node", "id": 2073632104, "lat": 51.3774548, "lon": -0.1021138, "tags": {"amenity": "bicycle_parking", "bicycle_parking": "stands", "capacity": "24", "covered": "no"}}, {"type": "node", "id": 2136672704, "lat": 51.3639481, "lon": -0.1179334, "tags": {"amenity": "bicycle_parking", "bicycle_parking": "stands", "capacity": "15"}}, {"type": "node", "id": 2250827353, "lat": 51.4173383, "lon": -0.1367336, "tags": {"amenity": "bicycle_parking", "bicycle_parking": "stands", "capacity": "2", "check_date": "2024-07-12", "covered": "no", "source": "survey ch"}}, {"type": "node", "id": 2250837082, "lat": 51.4191486, "lon": -0.1360865, "tags": {"amenity": "bicycle_parking", "bicycle_parking": "stands", "capacity": "20", "covered": "yes", "name": "Streatham Common Station", "source": "survey ch"}}, {"type": "node", "id": 2250837084, "lat": 51.4180805, "lon": -0.1359168, "tags": {"amenity": "bicycle_parking", "bicycle_parking": "stands", "capacity": "8", "check_date": "2024-07-12", "covered": "no", "name": "Streatham Common station", "source": "survey ch"}}, {"type": "node", "id": 2250837086, "lat": 51.418502, "lon": -0.1347527, "tags": {"amenity": "bicycle_parking", "bicycle_parking": "stands", "capacity": "10", "check_date": "2024-05-12", "covered": "no", "name": "Greyhound Lane", "source": "survey ch"}}, {"type": "node", "id": 2250837088, "lat": 51.4186358, "lon": -0.1347581, "tags": {"amenity": "bicycle_parking", "bicycle_parking": "stands", "capacity": "8", "check_date": "2024-05-12", "covered": "no", "name": "Greyhound Lane", "source": "survey ch"}}, {"type": "node", "id": 2250837091, "lat": 51.4218439, "lon": -0.1291898, "tags": {"amenity": "bicycle_parking", "bicycle_parking": "stands", "capacity": "4", "check_date": "2025-07-04", "covered": "no", "name": "Greyound Lane junction with Streatham High Road", "source": "Survey CH"}}, {"type": "node", "id": 2250837098, "lat": 51.4186826, "lon": -0.135375, "tags": {"amenity": "bicycle_parking", "bicycle_parking": "stands", "capacity": "10", "covered": "no", "name": "Streatham Common Station", "source": "survey ch"}}, {"type": "node", "id": 2250837102, "lat": 51.4183447, "lon": -0.1350156, "tags": {"amenity": "bicycle_parking", "bicycle_parking": "stands", "capacity": "4", "covered": "no", "name": "Greyhound Lane", "source": "survey ch"}}, {"type": "node", "id": 2250844377, "lat": 51.4156234, "lon": -0.1245241, "tags": {"amenity": "bicycle_parking", "bicycle_parking": "stands", "capacity": "2", "covered": "no", "source": "survey ch"}}, {"type": "node", "id": 2250848021, "lat": 51.4171069, "lon": -0.1264379, "tags": {"access": "yes", "amenity": "bicycle_parking", "bicycle_parking": "stands", "capacity": "2", "check_date": "2025-04-22", "covered": "no", "fee": "no", "source": "survey ch"}}, {"type": "node", "id": 2320705566, "lat": 51.2902546, "lon": -0.0516004, "tags": {"amenity": "bicycle_parking", "bicycle_parking": "stands", "capacity": "15", "covered": "yes"}}, {"type": "node", "id": 2320708483, "lat": 51.3083054, "lon": -0.0780858, "tags": {"amenity": "bicycle_parking", "bicycle_parking": "stands", "capacity": "10", "check_date": "2025-03-29", "covered": "yes"}}, {"type": "node", "id": 2320708485, "lat": 51.3084602, "lon": -0.0781426, "tags": {"amenity": "bicycle_parking", "bicycle_parking": "stands", "capacity": "4", "check_date": "2023-01-28", "covered": "no"}}, {"type": "node", "id": 2320709764, "lat": 51.3096922, "lon": -0.081262, "tags": {"amenity": "bicycle_parking", "bicycle_parking": "lockers", "capacity": "4"}}, {"type": "node", "id": 2320709765, "lat": 51.3097288, "lon": -0.0811844, "tags": {"amenity": "bicycle_parking", "bicycle_parking": "stands", "capacity": "4", "covered": "no"}}, {"type": "node", "id": 2320712337, "lat": 51.3246725, "lon": -0.1009743, "tags": {"amenity": "bicycle_parking", "bicycle_parking": "stands", "capacity": "2", "covered": "no"}}, {"type": "node", "id": 2320712338, "lat": 51.3247808, "lon": -0.1013119, "tags": {"amenity": "bicycle_parking", "bicycle_parking": "stands", "capacity": "8", "covered": "yes"}}, {"type": "node", "id": 2321325939, "lat": 51.3920931, "lon": -0.0880804, "tags": {"amenity": "bicycle_parking"}}, {"type": "node", "id": 2332033027, "lat": 51.4095823, "lon": -0.0807687, "tags": {"access": "customers", "amenity": "bicycle_parking", "capacity": "3", "covered": "no"}}, {"type": "node", "id": 2346204556, "lat": 51.4170739, "lon": -0.0810767, "tags": {"amenity": "bicycle_parking", "bicycle_parking": "stands", "capacity": "4", "check_date": "2025-11-30", "covered": "no"}}, {"type": "node", "id": 2352147273, "lat": 51.4184488, "lon": -0.0799823, "tags": {"amenity": "bicycle_parking", "bicycle_parking": "stands", "capacity": "2", "covered": "no"}}, {"type": "node", "id": 2352147322, "lat": 51.4189975, "lon": -0.0794027, "tags": {"amenity": "bicycle_parking", "bicycle_parking": "stands", "capacity": "4", "covered": "no"}}, {"type": "node", "id": 2399573943, "lat": 51.3847617, "lon": -0.0709394, "tags": {"amenity": "bicycle_parking", "bicycle_parking": "stands", "capacity": "16", "check_date:capacity": "2021-01-01", "covered": "no"}}, {"type": "node", "id": 2440286839, "lat": 51.3603486, "lon": -0.1511671, "tags": {"amenity": "bicycle_parking", "bicycle_parking": "stands", "capacity": "5", "covered": "yes", "source": "survey;Bing 2012", "survey:date": "2013-08-28"}}, {"type": "node", "id": 2477982822, "lat": 51.3724161, "lon": -0.099815, "tags": {"amenity": "bicycle_parking", "bicycle_parking": "stands", "capacity": "10", "check_date": "2025-09-15", "covered": "no"}}, {"type": "node", "id": 2477984330, "lat": 51.3721968, "lon": -0.0995172, "tags": {"amenity": "bicycle_parking", "bicycle_parking": "stands", "capacity": "12", "covered": "no"}}, {"type": "node", "id": 2482150712, "lat": 51.3768452, "lon": -0.0145885, "tags": {"amenity": "bicycle_parking", "bicycle_parking": "stands", "capacity": "6", "covered": "no", "source": "Survey;Bing"}}, {"type": "node", "id": 2489568952, "lat": 51.3804564, "lon": -0.1055071, "tags": {"amenity": "bicycle_parking", "bicycle_parking": "wheel_loops", "capacity": "9", "covered": "yes", "fixme": "resurvey"}}, {"type": "node", "id": 2493681976, "lat": 51.3630216, "lon": -0.0984015, "tags": {"amenity": "bicycle_parking", "bicycle_parking": "stands", "capacity": "4", "check_date": "2024-01-31", "covered": "no"}}, {"type": "node", "id": 2493681989, "lat": 51.3636329, "lon": -0.0981409, "tags": {"amenity": "bicycle_parking", "bicycle_parking": "stands", "capacity": "6", "covered": "no"}}, {"type": "node", "id": 2509385840, "lat": 51.3750159, "lon": -0.0932936, "tags": {"amenity": "bicycle_parking", "bicycle_parking": "rack", "capacity": "10", "check_date": "2025-07-04", "covered": "yes", "fee": "no"}}, {"type": "node", "id": 2516540792, "lat": 51.3387087, "lon": -0.116942, "tags": {"amenity": "bicycle_parking", "bicycle_parking": "stands", "capacity": "4", "covered": "no", "fee": "no"}}, {"type": "node", "id": 2516540793, "lat": 51.3377183, "lon": -0.1168888, "tags": {"amenity": "bicycle_parking", "bicycle_parking": "stands", "capacity": "24", "covered": "no", "fee": "no"}}, {"type": "node", "id": 2516540799, "lat": 51.3369607, "lon": -0.1176164, "tags": {"amenity": "bicycle_parking", "bicycle_parking": "stands", "capacity": "20", "covered": "yes", "fee": "no"}}, {"type": "node", "id": 2526395797, "lat": 51.3596791, "lon": -0.0599504, "tags": {"amenity": "bicycle_parking", "source": "survey"}}, {"type": "node", "id": 2552486516, "lat": 51.3714856, "lon": -0.0985956, "tags": {"amenity": "bicycle_parking", "bicycle_parking": "stands", "capacity": "20", "check_date": "2024-01-30", "covered": "yes"}}, {"type": "node", "id": 2567030113, "lat": 51.3769762, "lon": -0.0950764, "tags": {"access": "yes", "amenity": "bicycle_parking", "bicycle_parking": "stands", "capacity": "20", "covered": "no", "type": "stand"}}, {"type": "node", "id": 2567030114, "lat": 51.3797414, "lon": -0.0996085, "tags": {"amenity": "bicycle_parking", "capacity": "8"}}, {"type": "node", "id": 2582186811, "lat": 51.4203275, "lon": -0.0785254, "tags": {"amenity": "bicycle_parking", "bicycle_parking": "stands", "capacity": "4", "check_date": "2025-12-13", "covered": "no"}}, {"type": "node", "id": 2582186822, "lat": 51.4204481, "lon": -0.0784791, "tags": {"amenity": "bicycle_parking", "bicycle_parking": "stands", "capacity": "8", "check_date": "2025-12-13", "covered": "no"}}, {"type": "node", "id": 2743777594, "lat": 51.4061475, "lon": 0.0014834, "tags": {"access": "yes", "amenity": "bicycle_parking", "bicycle_parking": "stands", "capacity": "10", "covered": "no"}}, {"type": "node", "id": 2929108301, "lat": 51.3376587, "lon": -0.115601, "tags": {"amenity": "bicycle_parking", "bicycle_parking": "stands", "capacity": "8", "covered": "no", "fee": "no"}}, {"type": "node", "id": 2929108401, "lat": 51.3376556, "lon": -0.1154802, "tags": {"amenity": "bicycle_parking", "bicycle_parking": "stands", "capacity": "8", "covered": "no", "fee": "no"}}, {"type": "node", "id": 2931838296, "lat": 51.3894049, "lon": -0.1109466, "tags": {"access": "yes", "amenity": "bicycle_parking", "bicycle_parking": "rack", "capacity": "20", "covered": "yes", "fee": "no"}}, {"type": "node", "id": 3018759072, "lat": 51.4189507, "lon": -0.0675856, "tags": {"amenity": "bicycle_parking", "capacity": "4"}}, {"type": "node", "id": 3045968888, "lat": 51.4197282, "lon": -0.08267, "tags": {"amenity": "bicycle_parking", "bicycle_parking": "stands", "capacity": "4", "covered": "no"}}, {"type": "node", "id": 3045968889, "lat": 51.4197626, "lon": -0.0812905, "tags": {"amenity": "bicycle_parking", "bicycle_parking": "stands", "capacity": "2", "covered": "no"}}, {"type": "node", "id": 3390971516, "lat": 51.4199229, "lon": -0.0667302, "tags": {"amenity": "bicycle_parking", "bicycle_parking": "stands", "capacity": "4", "covered": "no"}}, {"type": "node", "id": 3569361902, "lat": 51.3393993, "lon": -0.1172986, "tags": {"amenity": "bicycle_parking", "bicycle_parking": "stands", "capacity": "4", "covered": "no"}}, {"type": "node", "id": 3598508884, "lat": 51.3772017, "lon": -0.028269, "tags": {"amenity": "bicycle_parking", "bicycle_parking": "stands", "capacity": "8", "check_date:capacity": "2021-11-19", "covered": "no"}}, {"type": "node", "id": 3598508887, "lat": 51.3896583, "lon": -0.026372, "tags": {"amenity": "bicycle_parking", "bicycle_parking": "stands", "capacity": "16", "check_date:capacity": "2021-01-25", "covered": "no"}}, {"type": "node", "id": 3598508889, "lat": 51.3901493, "lon": -0.0271618, "tags": {"amenity": "bicycle_parking", "bicycle_parking": "stands", "capacity": "6", "check_date:capacity": "2025-03-09", "covered": "no"}}, {"type": "node", "id": 3598509701, "lat": 51.3983412, "lon": -0.0433238, "tags": {"amenity": "bicycle_parking", "bicycle_parking": "stands", "capacity": "6", "covered": "no"}}, {"type": "node", "id": 3796700584, "lat": 51.4149176, "lon": -0.0549698, "tags": {"amenity": "bicycle_parking", "bicycle_parking": "stands", "capacity": "4", "check_date": "2025-10-27", "covered": "no"}}, {"type": "node", "id": 3796700595, "lat": 51.4151816, "lon": -0.0546844, "tags": {"amenity": "bicycle_parking", "bicycle_parking": "stands", "capacity": "4"}}, {"type": "node", "id": 3796700599, "lat": 51.4155175, "lon": -0.0533291, "tags": {"amenity": "bicycle_parking", "bicycle_parking": "stands", "capacity": "10", "covered": "no"}}, {"type": "node", "id": 4165911067, "lat": 51.411403, "lon": -0.0659813, "tags": {"amenity": "bicycle_parking", "bicycle_parking": "stands", "capacity": "8", "check_date:capacity": "2021-02-27", "covered": "no"}}, {"type": "node", "id": 4221818869, "lat": 51.4130655, "lon": -0.0512817, "tags": {"amenity": "bicycle_parking", "bicycle_parking": "stands", "capacity": "4", "check_date:capacity": "2021-07-08", "covered": "no"}}, {"type": "node", "id": 4472092361, "lat": 51.3256891, "lon": -0.1002849, "tags": {"amenity": "bicycle_parking", "bicycle_parking": "stands", "capacity": "4", "covered": "no"}}, {"type": "node", "id": 4472092364, "lat": 51.3255232, "lon": -0.0998293, "tags": {"amenity": "bicycle_parking", "bicycle_parking": "stands", "capacity": "4", "covered": "no"}}, {"type": "node", "id": 4929086124, "lat": 51.4196919, "lon": -0.0947115, "tags": {"amenity": "bicycle_parking", "capacity": "4"}}, {"type": "node", "id": 5435546365, "lat": 51.353305, "lon": -0.1347335, "tags": {"amenity": "bicycle_parking", "capacity": "6"}}, {"type": "node", "id": 5745601141, "lat": 51.3713169, "lon": -0.1198679, "tags": {"access": "yes", "amenity": "bicycle_parking", "bicycle_parking": "stands", "capacity": "6", "surface": "asphalt"}}, {"type": "node", "id": 5745601157, "lat": 51.370936, "lon": -0.1169135, "tags": {"access": "yes", "amenity": "bicycle_parking", "bicycle_parking": "stands", "capacity": "2", "fee": "no"}}, {"type": "node", "id": 5782617567, "lat": 51.3751392, "lon": -0.1439637, "tags": {"amenity": "bicycle_parking"}}, {"type": "node", "id": 5863959270, "lat": 51.4142708, "lon": -0.0079395, "tags": {"amenity": "bicycle_parking", "bicycle_parking": "stands", "capacity": "10", "check_date:capacity": "2022-12-28", "covered": "yes"}}, {"type": "node", "id": 5914980543, "lat": 51.4077882, "lon": -0.1547132, "tags": {"amenity": "bicycle_parking", "bicycle_parking": "shed", "covered": "yes"}}, {"type": "node", "id": 5915012484, "lat": 51.3932409, "lon": -0.1582645, "tags": {"amenity": "bicycle_parking", "covered": "yes"}}, {"type": "node", "id": 6035741687, "lat": 51.4227816, "lon": -0.0180095, "tags": {"access": "customers", "amenity": "bicycle_parking", "bicycle_parking": "stands", "covered": "no"}}, {"type": "node", "id": 6485901125, "lat": 51.3786478, "lon": -0.1019367, "tags": {"amenity": "bicycle_parking", "bicycle_parking": "stands", "capacity": "24", "covered": "no", "name": "West Croydon station"}}, {"type": "node", "id": 6568073685, "lat": 51.4213498, "lon": -0.1282495, "tags": {"amenity": "bicycle_parking", "bicycle_parking": "stands", "capacity": "8", "covered": "no"}}, {"type": "node", "id": 6589895521, "lat": 51.420097, "lon": -0.0780327, "tags": {"amenity": "bicycle_parking", "capacity": "4"}}, {"type": "node", "id": 6591487271, "lat": 51.4121849, "lon": -0.0670936, "tags": {"amenity": "bicycle_parking", "bicycle_parking": "stands", "capacity": "4", "covered": "no"}}, {"type": "node", "id": 6610714635, "lat": 51.4093203, "lon": -0.0867874, "tags": {"amenity": "bicycle_parking", "bicycle_parking": "stands", "capacity": "6"}}, {"type": "node", "id": 6610728805, "lat": 51.4191953, "lon": -0.0188994, "tags": {"amenity": "bicycle_parking", "bicycle_parking": "stands", "capacity": "10", "check_date:capacity": "2023-12-25", "covered": "no"}}, {"type": "node", "id": 6633984335, "lat": 51.4102834, "lon": -0.024437, "tags": {"amenity": "bicycle_parking", "bicycle_parking": "stands", "capacity": "4", "covered": "no"}}, {"type": "node", "id": 6633984336, "lat": 51.4100773, "lon": -0.0247811, "tags": {"amenity": "bicycle_parking", "bicycle_parking": "stands", "capacity": "4", "covered": "no"}}, {"type": "node", "id": 6634154542, "lat": 51.4196314, "lon": -0.018133, "tags": {"amenity": "bicycle_parking", "bicycle_parking": "stands", "capacity": "17", "covered": "no", "fee": "no"}}, {"type": "node", "id": 6641785353, "lat": 51.3773057, "lon": -0.0991673, "tags": {"access": "yes", "amenity": "bicycle_parking", "bicycle_parking": "stands", "capacity": "8", "covered": "no"}}, {"type": "node", "id": 6699210817, "lat": 51.4198057, "lon": -0.0765935, "tags": {"access": "yes", "amenity": "bicycle_parking", "bicycle_parking": "stands", "capacity": "2", "covered": "no"}}, {"type": "node", "id": 6699245161, "lat": 51.4225113, "lon": -0.0659767, "tags": {"access": "yes", "amenity": "bicycle_parking", "bicycle_parking": "stands", "capacity": "8", "covered": "no"}}, {"type": "node", "id": 6716249668, "lat": 51.4173066, "lon": -0.0816875, "tags": {"amenity": "bicycle_parking", "bicycle_parking": "stands", "capacity": "2", "covered": "no"}}, {"type": "node", "id": 6716249669, "lat": 51.4173547, "lon": -0.0817144, "tags": {"amenity": "bicycle_parking", "bicycle_parking": "stands", "capacity": "2", "covered": "no"}}, {"type": "node", "id": 6723061736, "lat": 51.3975074, "lon": -0.075015, "tags": {"amenity": "bicycle_parking", "bicycle_parking": "stands", "capacity": "8", "covered": "no", "fee": "no"}}, {"type": "node", "id": 6905546178, "lat": 51.3698596, "lon": -0.0914803, "tags": {"amenity": "bicycle_parking", "bicycle_parking": "stands", "capacity": "8"}}, {"type": "node", "id": 7599921041, "lat": 51.4131041, "lon": -0.0842938, "tags": {"access": "customers", "amenity": "bicycle_parking", "bicycle_parking": "shed", "capacity": "8", "covered": "yes", "fee": "yes", "note": "Rent a space to keep your bike here at www.cyclehoop.rentals", "operator": "Cyclehoop", "operator:type": "private"}}, {"type": "node", "id": 7618346916, "lat": 51.3815529, "lon": -0.0290564, "tags": {"amenity": "bicycle_parking", "bicycle_parking": "stands", "capacity": "20", "covered": "yes"}}, {"type": "node", "id": 7695742417, "lat": 51.4129843, "lon": -0.1419234, "tags": {"amenity": "bicycle_parking", "bicycle_parking": "stands", "capacity": "4"}}, {"type": "node", "id": 7695742418, "lat": 51.4122906, "lon": -0.1449478, "tags": {"amenity": "bicycle_parking", "bicycle_parking": "stands", "capacity": "2"}}, {"type": "node", "id": 7695742419, "lat": 51.4133614, "lon": -0.1456601, "tags": {"amenity": "bicycle_parking", "bicycle_parking": "stands", "capacity": "10"}}, {"type": "node", "id": 7695742420, "lat": 51.4154919, "lon": -0.1394417, "tags": {"amenity": "bicycle_parking", "bicycle_parking": "stands", "capacity": "4", "covered": "no"}}, {"type": "node", "id": 7695742421, "lat": 51.4153697, "lon": -0.1395824, "tags": {"amenity": "bicycle_parking", "bicycle_parking": "stands", "capacity": "6", "covered": "no"}}, {"type": "node", "id": 7695742422, "lat": 51.4123088, "lon": -0.1448626, "tags": {"amenity": "bicycle_parking", "bicycle_parking": "stands", "capacity": "2"}}, {"type": "node", "id": 7695742423, "lat": 51.4186619, "lon": -0.131585, "tags": {"amenity": "bicycle_parking", "bicycle_parking": "stands", "capacity": "10", "covered": "yes"}}, {"type": "node", "id": 7695742424, "lat": 51.4161111, "lon": -0.1291969, "tags": {"amenity": "bicycle_parking", "bicycle_parking": "stands", "capacity": "2"}}, {"type": "node", "id": 7695742425, "lat": 51.421466, "lon": -0.1289839, "tags": {"amenity": "bicycle_parking", "bicycle_parking": "stands", "capacity": "10", "covered": "no"}}, {"type": "node", "id": 7695742426, "lat": 51.4160754, "lon": -0.1292587, "tags": {"amenity": "bicycle_parking", "bicycle_parking": "stands", "capacity": "2"}}, {"type": "node", "id": 7695742427, "lat": 51.4185454, "lon": -0.1270899, "tags": {"amenity": "bicycle_parking", "bicycle_parking": "stands", "capacity": "8", "check_date:capacity": "2025-07-04", "covered": "yes"}}, {"type": "node", "id": 7695742428, "lat": 51.4214183, "lon": -0.1289577, "tags": {"amenity": "bicycle_parking", "bicycle_parking": "stands", "capacity": "10", "covered": "no"}}, {"type": "node", "id": 7695742429, "lat": 51.4173966, "lon": -0.1354297, "tags": {"amenity": "bicycle_parking", "bicycle_parking": "stands", "capacity": "4", "covered": "no", "fee": "no"}}, {"type": "node", "id": 7695742430, "lat": 51.4185693, "lon": -0.1272563, "tags": {"amenity": "bicycle_parking", "bicycle_parking": "stands", "capacity": "2", "covered": "yes"}}, {"type": "node", "id": 7695742431, "lat": 51.4169457, "lon": -0.1263817, "tags": {"amenity": "bicycle_parking", "bicycle_parking": "stands", "capacity": "2", "covered": "no"}}, {"type": "node", "id": 7695742432, "lat": 51.4204754, "lon": -0.128452, "tags": {"amenity": "bicycle_parking", "bicycle_parking": "stands", "capacity": "4", "covered": "no"}}, {"type": "node", "id": 7699307851, "lat": 51.4187479, "lon": -0.1342177, "tags": {"amenity": "bicycle_parking", "bicycle_parking": "stands", "capacity": "4", "covered": "no"}}, {"type": "node", "id": 7699307853, "lat": 51.4185989, "lon": -0.1345388, "tags": {"amenity": "bicycle_parking", "bicycle_parking": "stands", "capacity": "2", "covered": "no"}}, {"type": "node", "id": 7699307854, "lat": 51.4186705, "lon": -0.135688, "tags": {"amenity": "bicycle_parking", "bicycle_parking": "stands", "capacity": "10", "covered": "yes"}}, {"type": "node", "id": 7699307855, "lat": 51.4185737, "lon": -0.1348491, "tags": {"amenity": "bicycle_parking", "bicycle_parking": "stands", "capacity": "2"}}, {"type": "node", "id": 7699307856, "lat": 51.4185507, "lon": -0.1355889, "tags": {"amenity": "bicycle_parking", "bicycle_parking": "stands", "capacity": "8", "covered": "yes"}}, {"type": "node", "id": 7699307857, "lat": 51.4183436, "lon": -0.1348245, "tags": {"amenity": "bicycle_parking", "bicycle_parking": "stands", "capacity": "4"}}, {"type": "node", "id": 7701793690, "lat": 51.4197348, "lon": -0.0807673, "tags": {"amenity": "bicycle_parking", "bicycle_parking": "stands", "capacity": "2", "covered": "no"}}, {"type": "node", "id": 7701793691, "lat": 51.4200174, "lon": -0.0797119, "tags": {"amenity": "bicycle_parking", "bicycle_parking": "hoop", "capacity": "4"}}, {"type": "node", "id": 7701793692, "lat": 51.4230385, "lon": -0.1067534, "tags": {"amenity": "bicycle_parking", "bicycle_parking": "stands", "capacity": "6"}}, {"type": "node", "id": 7701793693, "lat": 51.4223061, "lon": -0.1294291, "tags": {"amenity": "bicycle_parking", "bicycle_parking": "stands", "capacity": "6", "covered": "no"}}, {"type": "node", "id": 7711412240, "lat": 51.321941, "lon": -0.1348516, "tags": {"amenity": "bicycle_parking", "level": "1"}}, {"type": "node", "id": 8271944999, "lat": 51.4166826, "lon": -0.0770842, "tags": {"amenity": "bicycle_parking", "bicycle_parking": "lockers", "covered": "yes"}}, {"type": "node", "id": 8306979596, "lat": 51.4091742, "lon": -0.1226103, "tags": {"access": "yes", "amenity": "bicycle_parking", "bicycle_parking": "stands", "capacity": "5", "covered": "no"}}, {"type": "node", "id": 8403474872, "lat": 51.4143115, "lon": -0.0751327, "tags": {"access": "private", "amenity": "bicycle_parking", "bicycle_parking": "lockers", "capacity": "6", "colour": "darkgreen", "covered": "yes", "fee": "yes", "operator": "cyclehoop", "operator:type": "local_authority"}}, {"type": "node", "id": 8440356691, "lat": 51.4186525, "lon": -0.0613474, "tags": {"access": "yes", "amenity": "bicycle_parking", "bicycle_parking": "stands", "capacity": "6", "covered": "no", "fee": "no", "operator:type": "public"}}, {"type": "node", "id": 8454104094, "lat": 51.4166059, "lon": -0.0785377, "tags": {"access": "private", "amenity": "bicycle_parking", "bicycle_parking": "lockers", "capacity": "6", "colour": "darkgreen", "covered": "yes", "fee": "yes", "operator": "cyclehoop", "operator:type": "local_authority"}}, {"type": "node", "id": 8454987472, "lat": 51.4140723, "lon": -0.0512079, "tags": {"amenity": "bicycle_parking", "bicycle_parking": "stands", "capacity": "6"}}, {"type": "node", "id": 8513030812, "lat": 51.4144704, "lon": -0.0145693, "tags": {"amenity": "bicycle_parking", "bicycle_parking": "stands", "capacity": "10", "covered": "no", "fee": "no"}}, {"type": "node", "id": 8520646980, "lat": 51.4148578, "lon": -0.1242662, "tags": {"access": "yes", "amenity": "bicycle_parking", "bicycle_parking": "stands", "capacity": "2", "covered": "no"}}, {"type": "node", "id": 8520646982, "lat": 51.4146429, "lon": -0.1242219, "tags": {"amenity": "bicycle_parking", "bicycle_parking": "stands", "capacity": "2", "covered": "no"}}, {"type": "node", "id": 8521468845, "lat": 51.4134018, "lon": -0.1243782, "tags": {"amenity": "bicycle_parking", "bicycle_parking": "stands", "capacity": "4", "covered": "no"}}, {"type": "node", "id": 8572696660, "lat": 51.3630711, "lon": -0.0936145, "tags": {"amenity": "bicycle_parking", "bicycle_parking": "stands", "capacity": "16", "covered": "yes"}}, {"type": "node", "id": 8609844039, "lat": 51.4231784, "lon": -0.1591131, "tags": {"amenity": "bicycle_parking"}}, {"type": "node", "id": 8610523604, "lat": 51.4196506, "lon": -0.0798883, "tags": {"access": "yes", "amenity": "bicycle_parking", "bicycle_parking": "stands", "capacity": "6", "covered": "no", "fee": "no"}}, {"type": "node", "id": 8610523607, "lat": 51.4196671, "lon": -0.0797112, "tags": {"access": "yes", "amenity": "bicycle_parking", "bicycle_parking": "stands", "capacity": "4", "covered": "no", "fee": "no"}}, {"type": "node", "id": 8620153711, "lat": 51.4211188, "lon": -0.0015944, "tags": {"amenity": "bicycle_parking", "bicycle_parking": "stands", "capacity": "14", "covered": "no"}}, {"type": "node", "id": 8649227980, "lat": 51.4034238, "lon": -0.1007065, "tags": {"amenity": "bicycle_parking", "bicycle_parking": "stands", "capacity": "4", "covered": "no", "fee": "no"}}, {"type": "node", "id": 8658500608, "lat": 51.4088811, "lon": -0.1061901, "tags": {"access": "yes", "amenity": "bicycle_parking", "bicycle_parking": "stands", "capacity": "6", "covered": "no", "fee": "no"}}, {"type": "node", "id": 8688068202, "lat": 51.3940926, "lon": -0.0937635, "tags": {"access": "yes", "amenity": "bicycle_parking", "bicycle_parking": "stands", "capacity": "4", "covered": "no", "fee": "no"}}, {"type": "node", "id": 8688115838, "lat": 51.3936793, "lon": -0.093654, "tags": {"amenity": "bicycle_parking", "bicycle_parking": "stands", "capacity": "4", "covered": "no", "fee": "no"}}, {"type": "node", "id": 8688118369, "lat": 51.3936819, "lon": -0.0937948, "tags": {"amenity": "bicycle_parking", "bicycle_parking": "stands", "capacity": "4", "covered": "no", "fee": "no"}}, {"type": "node", "id": 8688138017, "lat": 51.393917, "lon": -0.0938136, "tags": {"amenity": "bicycle_parking", "bicycle_parking": "stands", "capacity": "4", "covered": "no", "fee": "no"}}, {"type": "node", "id": 8715223511, "lat": 51.4213771, "lon": -0.1595116, "tags": {"access": "permit", "amenity": "bicycle_parking", "bicycle_parking": "shed", "covered": "yes", "fee": "yes", "operator:type": "government"}}, {"type": "node", "id": 8715743185, "lat": 51.4122022, "lon": -0.1233053, "tags": {"access": "yes", "amenity": "bicycle_parking", "bicycle_parking": "stands", "capacity": "4", "covered": "no", "fee": "no"}}, {"type": "node", "id": 8715775357, "lat": 51.411876, "lon": -0.1230491, "tags": {"access": "yes", "amenity": "bicycle_parking", "bicycle_parking": "rack", "capacity": "6", "covered": "yes", "fee": "no"}}, {"type": "node", "id": 8719887201, "lat": 51.419839, "lon": -0.1614566, "tags": {"amenity": "bicycle_parking", "layer": "1"}}, {"type": "node", "id": 8755262301, "lat": 51.4212863, "lon": -0.1606661, "tags": {"amenity": "bicycle_parking", "bicycle_parking": "stands", "capacity": "6"}}, {"type": "node", "id": 8764745429, "lat": 51.399961, "lon": -0.0857072, "tags": {"access": "yes", "amenity": "bicycle_parking", "bicycle_parking": "stands", "capacity": "6", "covered": "no", "fee": "no"}}, {"type": "node", "id": 8773402651, "lat": 51.4231573, "lon": -0.0580821, "tags": {"amenity": "bicycle_parking", "capacity": "6", "colour": "green", "covered": "yes", "lit": "no", "operator": "Cyclehoop", "operator:phone": "+44 20 8699 1338", "operator:type": "private", "operator:website": "https://cyclehoop.rentals/", "payment:cash": "no"}}, {"type": "node", "id": 8776097698, "lat": 51.3984159, "lon": -0.0946905, "tags": {"access": "yes", "amenity": "bicycle_parking", "bicycle_parking": "stands", "capacity": "4", "covered": "no", "fee": "no"}}, {"type": "node", "id": 8776253977, "lat": 51.3984577, "lon": -0.09426, "tags": {"access": "yes", "amenity": "bicycle_parking", "bicycle_parking": "stands", "capacity": "2", "covered": "no", "fee": "no"}}, {"type": "node", "id": 8776262213, "lat": 51.3984962, "lon": -0.0948568, "tags": {"access": "yes", "amenity": "bicycle_parking", "bicycle_parking": "stands", "capacity": "4", "covered": "no", "fee": "no"}}, {"type": "node", "id": 8776272152, "lat": 51.3987388, "lon": -0.0961389, "tags": {"access": "yes", "amenity": "bicycle_parking", "bicycle_parking": "stands", "capacity": "6", "covered": "no", "fee": "no"}}, {"type": "node", "id": 8776284137, "lat": 51.398861, "lon": -0.0972909, "tags": {"access": "yes", "amenity": "bicycle_parking", "bicycle_parking": "wall_loops", "capacity": "12", "covered": "no", "fee": "no"}}, {"type": "node", "id": 8829973312, "lat": 51.412763, "lon": -0.1242372, "tags": {"access": "yes", "amenity": "bicycle_parking", "bicycle_parking": "stands", "capacity": "4", "covered": "no", "fee": "no"}}, {"type": "node", "id": 8857247618, "lat": 51.4127346, "lon": -0.1240376, "tags": {"access": "yes", "amenity": "bicycle_parking", "bicycle_parking": "stands", "capacity": "4", "covered": "no", "fee": "no"}}, {"type": "node", "id": 8857248831, "lat": 51.4125149, "lon": -0.1238806, "tags": {"access": "yes", "amenity": "bicycle_parking", "bicycle_parking": "stands", "capacity": "2", "covered": "no", "fee": "no"}}, {"type": "node", "id": 8917207365, "lat": 51.4159149, "lon": -0.0685924, "tags": {"addr:street": "Lullington Road", "amenity": "bicycle_parking", "capacity": "6", "colour": "green", "covered": "yes", "lit": "no", "operator": "Cyclehoop", "operator:phone": "+44 20 8699 1338", "operator:type": "private", "operator:website": "https://cyclehoop.rentals/", "payment:cash": "no"}}, {"type": "node", "id": 8917256711, "lat": 51.4171848, "lon": -0.0655399, "tags": {"access": "private", "addr:street": "Thicket Road", "amenity": "bicycle_parking", "bicycle_parking": "shed", "capacity": "6", "colour": "green", "covered": "yes", "lit": "no", "operator": "Cyclehoop", "operator:phone": "+44 20 8699 1338", "operator:type": "private", "operator:website": "https://cyclehoop.rentals/", "payment:cash": "no"}}, {"type": "node", "id": 8974072795, "lat": 51.4079578, "lon": -0.1054851, "tags": {"access": "yes", "amenity": "bicycle_parking", "bicycle_parking": "stands", "capacity": "4", "covered": "no", "fee": "no"}}, {"type": "node", "id": 8981506599, "lat": 51.3770152, "lon": -0.0957153, "tags": {"amenity": "bicycle_parking", "bicycle_parking": "rack", "capacity": "14", "covered": "no"}}, {"type": "node", "id": 8985701746, "lat": 51.3984195, "lon": -0.100367, "tags": {"access": "yes", "amenity": "bicycle_parking", "bicycle_parking": "stands", "capacity": "2", "covered": "no", "fee": "no"}}, {"type": "node", "id": 8985736150, "lat": 51.3987032, "lon": -0.0969404, "tags": {"access": "yes", "amenity": "bicycle_parking", "bicycle_parking": "stands", "capacity": "2", "covered": "no", "fee": "no"}}, {"type": "node", "id": 8985744621, "lat": 51.398258, "lon": -0.0941724, "tags": {"access": "yes", "amenity": "bicycle_parking", "bicycle_parking": "stands", "capacity": "2", "covered": "no", "fee": "no"}}, {"type": "node", "id": 9007929656, "lat": 51.3576965, "lon": -0.1498943, "tags": {"amenity": "bicycle_parking", "bicycle_parking": "stands", "capacity": "6", "covered": "no", "fee": "no"}}, {"type": "node", "id": 9082816068, "lat": 51.3685547, "lon": -0.0995209, "tags": {"access": "yes", "amenity": "bicycle_parking", "bicycle_parking": "stands", "capacity": "2", "check_date:capacity": "2024-01-30", "covered": "no", "fee": "no"}}, {"type": "node", "id": 9082855216, "lat": 51.3707974, "lon": -0.1002737, "tags": {"amenity": "bicycle_parking", "bicycle_parking": "stands", "capacity": "8", "covered": "no", "fee": "no"}}, {"type": "node", "id": 9082868609, "lat": 51.3714321, "lon": -0.1005255, "tags": {"access": "yes", "amenity": "bicycle_parking", "bicycle_parking": "stands", "capacity": "8", "covered": "no", "fee": "no"}}, {"type": "node", "id": 9082870385, "lat": 51.3704766, "lon": -0.0999442, "tags": {"access": "yes", "amenity": "bicycle_parking", "bicycle_parking": "stands", "capacity": "4", "covered": "no", "fee": "no"}}, {"type": "node", "id": 9082878287, "lat": 51.3678725, "lon": -0.0990162, "tags": {"access": "yes", "amenity": "bicycle_parking", "bicycle_parking": "stands", "capacity": "2", "covered": "no", "fee": "no"}}, {"type": "node", "id": 9082879658, "lat": 51.3709883, "lon": -0.1003407, "tags": {"amenity": "bicycle_parking", "bicycle_parking": "stands", "capacity": "4", "check_date:capacity": "2025-09-15", "covered": "no", "fee": "no"}}, {"type": "node", "id": 9082898585, "lat": 51.3685105, "lon": -0.0992932, "tags": {"access": "yes", "amenity": "bicycle_parking", "bicycle_parking": "stands", "capacity": "2", "covered": "no", "fee": "no"}}, {"type": "node", "id": 9082900437, "lat": 51.3689521, "lon": -0.0994609, "tags": {"access": "yes", "amenity": "bicycle_parking", "bicycle_parking": "stands", "capacity": "6", "check_date:capacity": "2024-01-30", "covered": "no", "fee": "no"}}, {"type": "node", "id": 9082912022, "lat": 51.3697726, "lon": -0.0999545, "tags": {"access": "yes", "amenity": "bicycle_parking", "bicycle_parking": "stands", "capacity": "4", "check_date:capacity": "2024-01-31", "covered": "no", "fee": "no"}}, {"type": "node", "id": 9082938520, "lat": 51.3673698, "lon": -0.0989127, "tags": {"access": "yes", "amenity": "bicycle_parking", "bicycle_parking": "stands", "capacity": "6", "covered": "no", "fee": "no"}}, {"type": "node", "id": 9098918509, "lat": 51.417724, "lon": -0.1360388, "tags": {"access": "yes", "amenity": "bicycle_parking", "bicycle_parking": "stands", "capacity": "8", "covered": "no", "fee": "no"}}, {"type": "node", "id": 9243791578, "lat": 51.4197376, "lon": -0.0153321, "tags": {"amenity": "bicycle_parking", "bicycle_parking": "stands", "capacity": "16", "covered": "no", "fee": "no"}}, {"type": "node", "id": 9243805268, "lat": 51.419556, "lon": -0.0179639, "tags": {"amenity": "bicycle_parking", "bicycle_parking": "stands", "capacity": "10", "check_date:capacity": "2023-12-25", "covered": "no", "fee": "no"}}, {"type": "node", "id": 9337488980, "lat": 51.3897779, "lon": -0.1110754, "tags": {"access": "yes", "amenity": "bicycle_parking", "bicycle_parking": "stands", "capacity": "10", "covered": "no", "fee": "no"}}, {"type": "node", "id": 9337488981, "lat": 51.3899752, "lon": -0.1090622, "tags": {"access": "yes", "amenity": "bicycle_parking", "bicycle_parking": "stands", "capacity": "16", "covered": "no", "fee": "no"}}, {"type": "node", "id": 9337491136, "lat": 51.3912815, "lon": -0.1112921, "tags": {"access": "yes", "amenity": "bicycle_parking", "bicycle_parking": "stands", "capacity": "10", "covered": "no", "fee": "no"}}, {"type": "node", "id": 9386980390, "lat": 51.4196526, "lon": -0.1462511, "tags": {"access": "private", "amenity": "bicycle_parking", "bicycle_parking": "shed", "capacity": "6", "operator": "cyclehoop", "ref": "Bikehangar 798"}}, {"type": "node", "id": 9395630330, "lat": 51.4178126, "lon": -0.1257017, "tags": {"access": "private", "amenity": "bicycle_parking", "bicycle_parking": "shed", "capacity": "6", "operator": "cyclehoop", "ref": "Bikehangar 1524"}}, {"type": "node", "id": 9415790219, "lat": 51.2985557, "lon": -0.1346285, "tags": {"access": "yes", "amenity": "bicycle_parking", "bicycle_parking": "stands", "capacity": "16", "covered": "no", "fee": "no"}}, {"type": "node", "id": 9420259650, "lat": 51.3074611, "lon": -0.1240066, "tags": {"amenity": "bicycle_parking", "bicycle_parking": "wall_loops", "capacity": "12", "covered": "no"}}, {"type": "node", "id": 9420259651, "lat": 51.3074765, "lon": -0.1238876, "tags": {"amenity": "bicycle_parking", "bicycle_parking": "wall_loops", "capacity": "12", "covered": "no"}}, {"type": "node", "id": 9423069182, "lat": 51.3060987, "lon": -0.1204984, "tags": {"amenity": "bicycle_parking", "bicycle_parking": "stands", "covered": "yes"}}, {"type": "node", "id": 9440383173, "lat": 51.3331823, "lon": -0.0989029, "tags": {"amenity": "bicycle_parking", "bicycle_parking": "stands", "capacity": "4", "covered": "no"}}, {"type": "node", "id": 9634034324, "lat": 51.3865632, "lon": -0.0656692, "tags": {"access": "yes", "amenity": "bicycle_parking", "bicycle_parking": "stands", "capacity": "8", "covered": "no", "fee": "no"}}, {"type": "node", "id": 9651558754, "lat": 51.3163034, "lon": -0.1381587, "tags": {"amenity": "bicycle_parking", "bicycle_parking": "stands", "capacity": "16"}}, {"type": "node", "id": 9719003482, "lat": 51.4062843, "lon": -0.099103, "tags": {"access": "unknown", "amenity": "bicycle_parking", "bicycle_parking": "wall_loops", "capacity": "6", "covered": "no", "fee": "no"}}, {"type": "node", "id": 9735144368, "lat": 51.4117593, "lon": -0.0268546, "tags": {"amenity": "bicycle_parking", "bicycle_parking": "stands", "capacity": "8", "covered": "no", "fee": "no"}}, {"type": "node", "id": 9735157103, "lat": 51.4092439, "lon": -0.0253034, "tags": {"access": "yes", "amenity": "bicycle_parking", "bicycle_parking": "stands", "capacity": "8", "covered": "no"}}, {"type": "node", "id": 9735157104, "lat": 51.4088031, "lon": -0.0253648, "tags": {"access": "yes", "amenity": "bicycle_parking", "bicycle_parking": "stands", "capacity": "4", "covered": "no"}}, {"type": "node", "id": 9735157105, "lat": 51.4087429, "lon": -0.0248197, "tags": {"access": "yes", "amenity": "bicycle_parking", "bicycle_parking": "stands", "capacity": "8", "covered": "no"}}, {"type": "node", "id": 9735157106, "lat": 51.4078097, "lon": -0.0253149, "tags": {"access": "yes", "amenity": "bicycle_parking", "bicycle_parking": "stands", "capacity": "4", "covered": "no"}}, {"type": "node", "id": 9735157107, "lat": 51.4077224, "lon": -0.0258378, "tags": {"access": "yes", "amenity": "bicycle_parking", "bicycle_parking": "stands", "capacity": "4", "covered": "no"}}, {"type": "node", "id": 9735157108, "lat": 51.4071288, "lon": -0.0277918, "tags": {"access": "yes", "amenity": "bicycle_parking", "bicycle_parking": "stands", "capacity": "2", "covered": "no"}}, {"type": "node", "id": 9735157109, "lat": 51.4064964, "lon": -0.0286481, "tags": {"access": "yes", "amenity": "bicycle_parking", "bicycle_parking": "stands", "capacity": "6", "covered": "no"}}, {"type": "node", "id": 9735157110, "lat": 51.4064341, "lon": -0.0291179, "tags": {"access": "yes", "amenity": "bicycle_parking", "bicycle_parking": "stands", "capacity": "4", "covered": "no"}}, {"type": "node", "id": 9735157111, "lat": 51.40621, "lon": -0.0293396, "tags": {"access": "yes", "amenity": "bicycle_parking", "bicycle_parking": "stands", "capacity": "8", "covered": "no"}}, {"type": "node", "id": 9735157112, "lat": 51.4064263, "lon": -0.0300254, "tags": {"access": "yes", "amenity": "bicycle_parking", "bicycle_parking": "stands", "capacity": "4", "covered": "no"}}, {"type": "node", "id": 9735157113, "lat": 51.4063074, "lon": -0.0300769, "tags": {"access": "yes", "amenity": "bicycle_parking", "bicycle_parking": "stands", "capacity": "6", "covered": "no"}}, {"type": "node", "id": 9735157115, "lat": 51.4071769, "lon": -0.0317064, "tags": {"access": "yes", "amenity": "bicycle_parking", "bicycle_parking": "stands", "capacity": "6", "covered": "no"}}, {"type": "node", "id": 9735157116, "lat": 51.4067763, "lon": -0.0324862, "tags": {"access": "yes", "amenity": "bicycle_parking", "bicycle_parking": "stands", "capacity": "4", "covered": "no"}}, {"type": "node", "id": 9735182717, "lat": 51.4085273, "lon": -0.0387534, "tags": {"access": "yes", "amenity": "bicycle_parking", "bicycle_parking": "stands", "capacity": "6", "covered": "no", "fee": "no", "operator:type": "public"}}, {"type": "node", "id": 9735182718, "lat": 51.4086942, "lon": -0.0397226, "tags": {"access": "yes", "amenity": "bicycle_parking", "bicycle_parking": "stands", "capacity": "4", "covered": "no", "fee": "no"}}, {"type": "node", "id": 9735187423, "lat": 51.4109127, "lon": -0.0259959, "tags": {"access": "yes", "amenity": "bicycle_parking", "bicycle_parking": "stands", "capacity": "40", "covered": "yes"}}, {"type": "node", "id": 9737098826, "lat": 51.4101068, "lon": -0.0234246, "tags": {"access": "yes", "amenity": "bicycle_parking", "bicycle_parking": "stands", "capacity": "4", "covered": "no"}}, {"type": "node", "id": 9755801934, "lat": 51.4099058, "lon": -0.0642347, "tags": {"access": "yes", "amenity": "bicycle_parking", "bicycle_parking": "stands", "capacity": "4", "covered": "no", "fee": "no"}}, {"type": "node", "id": 9861530049, "lat": 51.3670288, "lon": -0.1175181, "tags": {"amenity": "bicycle_parking"}}, {"type": "node", "id": 9942023630, "lat": 51.4177194, "lon": -0.0773784, "tags": {"access": "customers", "amenity": "bicycle_parking", "bicycle_parking": "lockers", "capacity": "4", "covered": "yes", "fee": "yes", "operator": "cyclehoop"}}, {"type": "node", "id": 9999707323, "lat": 51.3624728, "lon": -0.0687367, "tags": {"access": "yes", "amenity": "bicycle_parking", "capacity": "6", "covered": "no", "fee": "no"}}, {"type": "node", "id": 9999844116, "lat": 51.3745925, "lon": -0.0943095, "tags": {"access": "private", "amenity": "bicycle_parking", "bicycle_parking": "stands", "capacity": "8", "covered": "no", "fee": "no"}}, {"type": "node", "id": 9999868917, "lat": 51.3742212, "lon": -0.0956726, "tags": {"access": "private", "amenity": "bicycle_parking", "bicycle_parking": "stands", "capacity": "6", "covered": "no", "fee": "no"}}, {"type": "node", "id": 9999868918, "lat": 51.3745494, "lon": -0.0945558, "tags": {"access": "private", "amenity": "bicycle_parking", "bicycle_parking": "stands", "capacity": "8", "covered": "no", "fee": "no"}}, {"type": "node", "id": 10188389941, "lat": 51.3470968, "lon": -0.0993228, "tags": {"access": "yes", "amenity": "bicycle_parking", "bicycle_parking": "stands", "capacity": "10", "covered": "yes", "fee": "no"}}, {"type": "node", "id": 10212741044, "lat": 51.3388942, "lon": -0.116514, "tags": {"amenity": "bicycle_parking", "bicycle_parking": "stands", "capacity": "4", "covered": "no"}}, {"type": "node", "id": 10212760426, "lat": 51.3396554, "lon": -0.1171496, "tags": {"amenity": "bicycle_parking", "bicycle_parking": "stands", "capacity": "8", "covered": "yes"}}, {"type": "node", "id": 10272889204, "lat": 51.40485, "lon": -0.0338808, "tags": {"access": "customers", "amenity": "bicycle_parking", "bicycle_parking": "stands", "capacity": "20", "covered": "no", "fee": "no"}}, {"type": "node", "id": 10272914712, "lat": 51.4048296, "lon": -0.0332552, "tags": {"access": "customers", "amenity": "bicycle_parking", "bicycle_parking": "stands", "capacity": "10", "covered": "no", "fee": "no"}}, {"type": "node", "id": 10272914715, "lat": 51.4055635, "lon": -0.0329779, "tags": {"access": "customers", "amenity": "bicycle_parking", "bicycle_parking": "stands", "capacity": "10", "covered": "yes", "fee": "no", "indoor": "no"}}, {"type": "node", "id": 10275588829, "lat": 51.3761084, "lon": -0.0173219, "tags": {"amenity": "bicycle_parking", "bicycle_parking": "stands", "capacity": "4", "covered": "no", "ref:GB:tflcid": "RWG291867"}}, {"type": "node", "id": 10275588834, "lat": 51.360563, "lon": -0.1499296, "tags": {"amenity": "bicycle_parking", "bicycle_parking": "stands", "capacity": "8", "ref:GB:tflcid": "RWG207525"}}, {"type": "node", "id": 10275588935, "lat": 51.3755327, "lon": -0.0137361, "tags": {"amenity": "bicycle_parking", "bicycle_parking": "stands", "capacity": "16", "covered": "no", "ref:GB:tflcid": "RWG204555"}}, {"type": "node", "id": 10275588936, "lat": 51.3757544, "lon": -0.0137389, "tags": {"amenity": "bicycle_parking", "bicycle_parking": "stands", "capacity": "8", "covered": "yes", "ref:GB:tflcid": "RWG291870"}}, {"type": "node", "id": 10275588937, "lat": 51.3751546, "lon": -0.0109189, "tags": {"amenity": "bicycle_parking", "bicycle_parking": "stands", "capacity": "8", "covered": "no", "ref:GB:tflcid": "RWG204551"}}, {"type": "node", "id": 10275588938, "lat": 51.3754526, "lon": -0.0123961, "tags": {"amenity": "bicycle_parking", "bicycle_parking": "stands", "capacity": "12", "covered": "yes", "ref:GB:tflcid": "RWG204554"}}, {"type": "node", "id": 10275588948, "lat": 51.3592452, "lon": -0.1498132, "tags": {"amenity": "bicycle_parking", "bicycle_parking": "stands", "capacity": "2", "ref:GB:tflcid": "RWG207518"}}, {"type": "node", "id": 10275588949, "lat": 51.36124, "lon": -0.1504635, "tags": {"amenity": "bicycle_parking", "bicycle_parking": "stands", "capacity": "2", "ref:GB:tflcid": "RWG207578"}}, {"type": "node", "id": 10275588950, "lat": 51.3607966, "lon": -0.1500315, "tags": {"amenity": "bicycle_parking", "bicycle_parking": "stands", "capacity": "8", "ref:GB:tflcid": "RWG207528"}}, {"type": "node", "id": 10275588951, "lat": 51.3606743, "lon": -0.1499895, "tags": {"amenity": "bicycle_parking", "bicycle_parking": "stands", "capacity": "8", "ref:GB:tflcid": "RWG207527"}}, {"type": "node", "id": 10275588952, "lat": 51.357912, "lon": -0.1495746, "tags": {"amenity": "bicycle_parking", "bicycle_parking": "stands", "capacity": "2", "ref:GB:tflcid": "RWG207519"}}, {"type": "node", "id": 10275588953, "lat": 51.3622254, "lon": -0.1506559, "tags": {"amenity": "bicycle_parking", "bicycle_parking": "stands", "capacity": "2", "ref:GB:tflcid": "RWG207922"}}, {"type": "node", "id": 10275589046, "lat": 51.3822329, "lon": -0.0194176, "tags": {"amenity": "bicycle_parking", "bicycle_parking": "stands", "capacity": "6", "covered": "no", "ref:GB:tflcid": "RWG204636"}}, {"type": "node", "id": 10275589047, "lat": 51.3800931, "lon": -0.0183497, "tags": {"amenity": "bicycle_parking", "bicycle_parking": "stands", "capacity": "6", "covered": "no", "ref:GB:tflcid": "RWG204642"}}, {"type": "node", "id": 10275589048, "lat": 51.3768873, "lon": -0.0201222, "tags": {"amenity": "bicycle_parking", "bicycle_parking": "stands", "capacity": "2", "covered": "no", "ref:GB:tflcid": "RWG204599"}}, {"type": "node", "id": 10275589049, "lat": 51.3759062, "lon": -0.0145301, "tags": {"amenity": "bicycle_parking", "bicycle_parking": "stands", "capacity": "4", "covered": "no", "ref:GB:tflcid": "RWG291869"}}, {"type": "node", "id": 10275589050, "lat": 51.3760093, "lon": -0.0161852, "tags": {"amenity": "bicycle_parking", "bicycle_parking": "stands", "capacity": "4", "covered": "no", "ref:GB:tflcid": "RWG291868"}}, {"type": "node", "id": 10275589051, "lat": 51.3752235, "lon": -0.0111592, "tags": {"amenity": "bicycle_parking", "bicycle_parking": "stands", "capacity": "8", "covered": "no", "ref:GB:tflcid": "RWG204552"}}, {"type": "node", "id": 10275589062, "lat": 51.3611663, "lon": -0.1500756, "tags": {"amenity": "bicycle_parking", "bicycle_parking": "stands", "capacity": "10", "ref:GB:tflcid": "RWG207529"}}, {"type": "node", "id": 10275589063, "lat": 51.3613421, "lon": -0.1505058, "tags": {"amenity": "bicycle_parking", "bicycle_parking": "stands", "capacity": "2", "ref:GB:tflcid": "RWG207579"}}, {"type": "node", "id": 10275589064, "lat": 51.358335, "lon": -0.1457452, "tags": {"amenity": "bicycle_parking", "bicycle_parking": "stands", "capacity": "1", "ref:GB:tflcid": "RWG207682"}}, {"type": "node", "id": 10275589065, "lat": 51.3585334, "lon": -0.1448213, "tags": {"amenity": "bicycle_parking", "bicycle_parking": "stands", "capacity": "2", "ref:GB:tflcid": "RWG207543"}}, {"type": "node", "id": 10275589066, "lat": 51.3586326, "lon": -0.1443125, "tags": {"amenity": "bicycle_parking", "bicycle_parking": "stands", "capacity": "2", "ref:GB:tflcid": "RWG207545"}}, {"type": "node", "id": 10275589315, "lat": 51.3766134, "lon": -0.0187743, "tags": {"amenity": "bicycle_parking", "bicycle_parking": "stands", "capacity": "4", "covered": "no", "ref:GB:tflcid": "RWG291865"}}, {"type": "node", "id": 10275589316, "lat": 51.3771617, "lon": -0.0215398, "tags": {"amenity": "bicycle_parking", "bicycle_parking": "stands", "capacity": "4", "covered": "no", "ref:GB:tflcid": "RWG204598"}}, {"type": "node", "id": 10275589317, "lat": 51.3762281, "lon": -0.0173322, "tags": {"amenity": "bicycle_parking", "bicycle_parking": "stands", "capacity": "4", "covered": "no", "ref:GB:tflcid": "RWG291866"}}, {"type": "node", "id": 10275589318, "lat": 51.3753571, "lon": -0.0117415, "tags": {"amenity": "bicycle_parking", "bicycle_parking": "stands", "capacity": "8", "covered": "yes", "ref:GB:tflcid": "RWG204553"}}, {"type": "node", "id": 10275589320, "lat": 51.3593265, "lon": -0.150053, "tags": {"amenity": "bicycle_parking", "bicycle_parking": "stands", "capacity": "8", "ref:GB:tflcid": "RWG207517"}}, {"type": "node", "id": 10275589321, "lat": 51.3589614, "lon": -0.1495644, "tags": {"amenity": "bicycle_parking", "bicycle_parking": "stands", "capacity": "2", "ref:GB:tflcid": "RWG207524"}}, {"type": "node", "id": 10275602139, "lat": 51.3655906, "lon": -0.1599953, "tags": {"amenity": "bicycle_parking", "bicycle_parking": "stands", "capacity": "2", "ref:GB:tflcid": "RWG207930"}}, {"type": "node", "id": 10275602266, "lat": 51.3677229, "lon": -0.1581157, "tags": {"amenity": "bicycle_parking", "bicycle_parking": "stands", "capacity": "10", "covered": "yes", "ref:GB:tflcid": "RWG207932"}}, {"type": "node", "id": 10275602267, "lat": 51.3657947, "lon": -0.1592562, "tags": {"amenity": "bicycle_parking", "bicycle_parking": "stands", "capacity": "4", "ref:GB:tflcid": "RWG207588"}}, {"type": "node", "id": 10275602268, "lat": 51.3659006, "lon": -0.1603638, "tags": {"amenity": "bicycle_parking", "bicycle_parking": "stands", "capacity": "2", "ref:GB:tflcid": "RWG207926"}}, {"type": "node", "id": 10275607523, "lat": 51.3677148, "lon": -0.1581707, "tags": {"amenity": "bicycle_parking", "bicycle_parking": "stands", "capacity": "8", "ref:GB:tflcid": "RWG207931"}}, {"type": "node", "id": 10275607524, "lat": 51.3657047, "lon": -0.1591638, "tags": {"amenity": "bicycle_parking", "bicycle_parking": "stands", "capacity": "4", "ref:GB:tflcid": "RWG207587"}}, {"type": "node", "id": 10275607525, "lat": 51.365743, "lon": -0.1602506, "tags": {"amenity": "bicycle_parking", "bicycle_parking": "stands", "capacity": "2", "ref:GB:tflcid": "RWG207928"}}, {"type": "node", "id": 10275607526, "lat": 51.3654206, "lon": -0.1599093, "tags": {"amenity": "bicycle_parking", "bicycle_parking": "stands", "capacity": "4", "covered": "no", "ref:GB:tflcid": "RWG207590"}}, {"type": "node", "id": 10275607527, "lat": 51.3655603, "lon": -0.1601121, "tags": {"amenity": "bicycle_parking", "bicycle_parking": "stands", "capacity": "2", "ref:GB:tflcid": "RWG207929"}}, {"type": "node", "id": 10275607528, "lat": 51.365798, "lon": -0.1603042, "tags": {"amenity": "bicycle_parking", "bicycle_parking": "stands", "capacity": "2", "ref:GB:tflcid": "RWG207927"}}, {"type": "node", "id": 10275607529, "lat": 51.3652565, "lon": -0.1610825, "tags": {"amenity": "bicycle_parking", "bicycle_parking": "stands", "capacity": "2", "ref:GB:tflcid": "RWG207602"}}, {"type": "node", "id": 10275607530, "lat": 51.3652985, "lon": -0.1612863, "tags": {"amenity": "bicycle_parking", "bicycle_parking": "stands", "capacity": "4", "ref:GB:tflcid": "RWG207603"}}, {"type": "node", "id": 10275607531, "lat": 51.365285, "lon": -0.1609852, "tags": {"amenity": "bicycle_parking", "bicycle_parking": "stands", "capacity": "4", "ref:GB:tflcid": "RWG207600"}}, {"type": "node", "id": 10275607533, "lat": 51.3664943, "lon": -0.1609657, "tags": {"amenity": "bicycle_parking", "bicycle_parking": "stands", "capacity": "10", "covered": "no", "ref:GB:tflcid": "RWG207925"}}, {"type": "node", "id": 10275607534, "lat": 51.3674515, "lon": -0.1528248, "tags": {"amenity": "bicycle_parking", "bicycle_parking": "stands", "capacity": "2", "ref:GB:tflcid": "RWG207933"}}, {"type": "node", "id": 10275612709, "lat": 51.358555, "lon": -0.1494436, "tags": {"amenity": "bicycle_parking", "bicycle_parking": "stands", "capacity": "4", "ref:GB:tflcid": "RWG207523"}}, {"type": "node", "id": 10277991382, "lat": 51.3809255, "lon": -0.1052361, "tags": {"amenity": "bicycle_parking", "bicycle_parking": "stands", "capacity": "4", "covered": "no", "ref:GB:tflcid": "RWG292458"}}, {"type": "node", "id": 10277991383, "lat": 51.380883, "lon": -0.1053642, "tags": {"amenity": "bicycle_parking", "bicycle_parking": "stands", "capacity": "4", "ref:GB:tflcid": "RWG292459"}}, {"type": "node", "id": 10277991384, "lat": 51.3814961, "lon": -0.1057179, "tags": {"amenity": "bicycle_parking", "bicycle_parking": "stands", "capacity": "4", "ref:GB:tflcid": "RWG207562"}}, {"type": "node", "id": 10277991385, "lat": 51.3776307, "lon": -0.1024136, "tags": {"amenity": "bicycle_parking", "bicycle_parking": "stands", "capacity": "2", "covered": "no", "ref:GB:tflcid": "RWG207912"}}, {"type": "node", "id": 10277991387, "lat": 51.3758804, "lon": -0.0902761, "tags": {"amenity": "bicycle_parking", "bicycle_parking": "stands", "capacity": "2", "ref:GB:tflcid": "RWG207715"}}, {"type": "node", "id": 10277991388, "lat": 51.3739798, "lon": -0.0896896, "tags": {"amenity": "bicycle_parking", "bicycle_parking": "stands", "capacity": "20", "covered": "yes", "ref:GB:tflcid": "RWG207794"}}, {"type": "node", "id": 10277991415, "lat": 51.390008, "lon": -0.1222207, "tags": {"amenity": "bicycle_parking", "bicycle_parking": "stands", "capacity": "8", "ref:GB:tflcid": "RWG207719"}}, {"type": "node", "id": 10277991513, "lat": 51.3892993, "lon": -0.1210637, "tags": {"amenity": "bicycle_parking", "bicycle_parking": "stands", "capacity": "4", "ref:GB:tflcid": "RWG207722"}}, {"type": "node", "id": 10277991514, "lat": 51.3894779, "lon": -0.1211194, "tags": {"amenity": "bicycle_parking", "bicycle_parking": "wall_loops", "capacity": "3", "ref:GB:tflcid": "RWG207721"}}, {"type": "node", "id": 10277991515, "lat": 51.3916895, "lon": -0.1182316, "tags": {"amenity": "bicycle_parking", "bicycle_parking": "stands", "capacity": "6", "ref:GB:tflcid": "RWG207367"}}, {"type": "node", "id": 10277991516, "lat": 51.3919993, "lon": -0.1175863, "tags": {"amenity": "bicycle_parking", "bicycle_parking": "stands", "capacity": "4", "ref:GB:tflcid": "RWG207370"}}, {"type": "node", "id": 10277991517, "lat": 51.3901998, "lon": -0.1210565, "tags": {"amenity": "bicycle_parking", "bicycle_parking": "stands", "capacity": "4", "ref:GB:tflcid": "RWG207723"}}, {"type": "node", "id": 10277991518, "lat": 51.39038, "lon": -0.1209061, "tags": {"amenity": "bicycle_parking", "bicycle_parking": "stands", "capacity": "8", "ref:GB:tflcid": "RWG207724"}}, {"type": "node", "id": 10277991718, "lat": 51.3952445, "lon": -0.1150645, "tags": {"amenity": "bicycle_parking", "bicycle_parking": "wall_loops", "capacity": "9", "covered": "yes", "ref:GB:tflcid": "RWG207353"}}, {"type": "node", "id": 10277991812, "lat": 51.3916295, "lon": -0.1183596, "tags": {"amenity": "bicycle_parking", "bicycle_parking": "stands", "capacity": "2", "ref:GB:tflcid": "RWG207365"}}, {"type": "node", "id": 10277991813, "lat": 51.3878359, "lon": -0.1208482, "tags": {"amenity": "bicycle_parking", "bicycle_parking": "stands", "capacity": "2", "ref:GB:tflcid": "RWG207725"}}, {"type": "node", "id": 10277991814, "lat": 51.3898384, "lon": -0.121771, "tags": {"amenity": "bicycle_parking", "bicycle_parking": "stands", "capacity": "8", "ref:GB:tflcid": "RWG207720"}}, {"type": "node", "id": 10277991815, "lat": 51.3919259, "lon": -0.1175057, "tags": {"amenity": "bicycle_parking", "bicycle_parking": "stands", "capacity": "4", "ref:GB:tflcid": "RWG207371"}}, {"type": "node", "id": 10277991816, "lat": 51.3926288, "lon": -0.1165084, "tags": {"amenity": "bicycle_parking", "bicycle_parking": "stands", "capacity": "2", "ref:GB:tflcid": "RWG207363"}}, {"type": "node", "id": 10277991844, "lat": 51.3750022, "lon": -0.0941142, "tags": {"amenity": "bicycle_parking", "bicycle_parking": "stands", "capacity": "8", "covered": "no", "ref:GB:tflcid": "RWG207772"}}, {"type": "node", "id": 10277991845, "lat": 51.3747021, "lon": -0.0938768, "tags": {"amenity": "bicycle_parking", "bicycle_parking": "stands", "capacity": "6", "covered": "no", "ref:GB:tflcid": "RWG207759"}}, {"type": "node", "id": 10277991846, "lat": 51.3744128, "lon": -0.0911377, "tags": {"amenity": "bicycle_parking", "bicycle_parking": "stands", "capacity": "12", "ref:GB:tflcid": "RWG207792"}}, {"type": "node", "id": 10277991937, "lat": 51.37641, "lon": -0.0986935, "tags": {"amenity": "bicycle_parking", "bicycle_parking": "stands", "capacity": "4", "covered": "no", "ref:GB:tflcid": "RWG207572"}}, {"type": "node", "id": 10277991938, "lat": 51.3737662, "lon": -0.1021531, "tags": {"amenity": "bicycle_parking", "bicycle_parking": "stands", "capacity": "6", "covered": "no", "ref:GB:tflcid": "RWG207583"}}, {"type": "node", "id": 10277991939, "lat": 51.3776941, "lon": -0.1024547, "tags": {"amenity": "bicycle_parking", "bicycle_parking": "stands", "capacity": "2", "covered": "no", "ref:GB:tflcid": "RWG207915"}}, {"type": "node", "id": 10277991940, "lat": 51.377714, "lon": -0.1024724, "tags": {"amenity": "bicycle_parking", "bicycle_parking": "stands", "capacity": "0", "covered": "no", "ref:GB:tflcid": "RWG207916"}}, {"type": "node", "id": 10277991941, "lat": 51.3738587, "lon": -0.0946312, "tags": {"amenity": "bicycle_parking", "bicycle_parking": "stands", "capacity": "8", "ref:GB:tflcid": "RWG207751"}}, {"type": "node", "id": 10277992116, "lat": 51.3968856, "lon": -0.1154505, "tags": {"amenity": "bicycle_parking", "bicycle_parking": "stands", "capacity": "2", "covered": "no", "ref:GB:tflcid": "RWG207335"}}, {"type": "node", "id": 10277992221, "lat": 51.3744282, "lon": -0.0914497, "tags": {"amenity": "bicycle_parking", "bicycle_parking": "stands", "capacity": "8", "ref:GB:tflcid": "RWG207793"}}, {"type": "node", "id": 10277992233, "lat": 51.3479972, "lon": -0.0942225, "tags": {"amenity": "bicycle_parking", "bicycle_parking": "stands", "capacity": "6", "ref:GB:tflcid": "RWG207702"}}, {"type": "node", "id": 10277993435, "lat": 51.380093, "lon": -0.1045058, "tags": {"amenity": "bicycle_parking", "bicycle_parking": "stands", "capacity": "4", "covered": "no", "ref:GB:tflcid": "RWG292465"}}, {"type": "node", "id": 10277993436, "lat": 51.3798787, "lon": -0.1041629, "tags": {"amenity": "bicycle_parking", "bicycle_parking": "stands", "capacity": "8", "covered": "no", "ref:GB:tflcid": "RWG292464"}}, {"type": "node", "id": 10277993437, "lat": 51.3751281, "lon": -0.0944498, "tags": {"amenity": "bicycle_parking", "bicycle_parking": "stands", "capacity": "8", "covered": "no", "ref:GB:tflcid": "RWG207768"}}, {"type": "node", "id": 10277993438, "lat": 51.3777245, "lon": -0.0959346, "tags": {"amenity": "bicycle_parking", "bicycle_parking": "stands", "capacity": "10", "covered": "no", "ref:GB:tflcid": "RWG207680"}}, {"type": "node", "id": 10277993439, "lat": 51.373779, "lon": -0.0953863, "tags": {"amenity": "bicycle_parking", "bicycle_parking": "stands", "capacity": "4", "ref:GB:tflcid": "RWG207752"}}, {"type": "node", "id": 10277993440, "lat": 51.3754569, "lon": -0.0962694, "tags": {"amenity": "bicycle_parking", "bicycle_lock": "provided", "bicycle_parking": "stands", "capacity": "20", "covered": "yes", "ref:GB:tflcid": "RWG207771"}}, {"type": "node", "id": 10277993441, "lat": 51.3755653, "lon": -0.0902511, "tags": {"amenity": "bicycle_parking", "bicycle_parking": "stands", "capacity": "10", "covered": "yes", "ref:GB:tflcid": "RWG207716"}}, {"type": "node", "id": 10277993501, "lat": 51.3935679, "lon": -0.1144233, "tags": {"amenity": "bicycle_parking", "bicycle_parking": "stands", "capacity": "2", "ref:GB:tflcid": "RWG207354"}}, {"type": "node", "id": 10277993502, "lat": 51.3936675, "lon": -0.114733, "tags": {"amenity": "bicycle_parking", "bicycle_parking": "stands", "capacity": "2", "ref:GB:tflcid": "RWG207355"}}, {"type": "node", "id": 10277993503, "lat": 51.396768, "lon": -0.1153928, "tags": {"amenity": "bicycle_parking", "bicycle_parking": "stands", "capacity": "2", "covered": "no", "ref:GB:tflcid": "RWG207334"}}, {"type": "node", "id": 10277993504, "lat": 51.3943213, "lon": -0.1143589, "tags": {"amenity": "bicycle_parking", "bicycle_parking": "stands", "capacity": "4", "ref:GB:tflcid": "RWG207337"}}, {"type": "node", "id": 10277993505, "lat": 51.3957676, "lon": -0.1149423, "tags": {"amenity": "bicycle_parking", "bicycle_parking": "stands", "capacity": "4", "covered": "no", "ref:GB:tflcid": "RWG207332"}}, {"type": "node", "id": 10277993506, "lat": 51.3941165, "lon": -0.1150595, "tags": {"amenity": "bicycle_parking", "bicycle_parking": "stands", "capacity": "2", "ref:GB:tflcid": "RWG207356"}}, {"type": "node", "id": 10277995429, "lat": 51.3972607, "lon": -0.1156291, "tags": {"amenity": "bicycle_parking", "bicycle_parking": "stands", "capacity": "4", "covered": "no", "ref:GB:tflcid": "RWG207336"}}, {"type": "node", "id": 10277995430, "lat": 51.3928409, "lon": -0.1161306, "tags": {"amenity": "bicycle_parking", "bicycle_parking": "stands", "capacity": "10", "ref:GB:tflcid": "RWG207364"}}, {"type": "node", "id": 10277995431, "lat": 51.3881073, "lon": -0.1113011, "tags": {"amenity": "bicycle_parking", "bicycle_parking": "stands", "capacity": "1", "ref:GB:tflcid": "RWG207601"}}, {"type": "node", "id": 10277995465, "lat": 51.3524139, "lon": -0.098282, "tags": {"amenity": "bicycle_parking", "bicycle_parking": "stands", "capacity": "2", "covered": "no", "ref:GB:tflcid": "RWG207631"}}, {"type": "node", "id": 10277995643, "lat": 51.3506083, "lon": -0.0978702, "tags": {"amenity": "bicycle_parking", "bicycle_parking": "wall_loops", "capacity": "3", "ref:GB:tflcid": "RWG207696"}}, {"type": "node", "id": 10277995644, "lat": 51.3506092, "lon": -0.0978888, "tags": {"amenity": "bicycle_parking", "bicycle_parking": "wall_loops", "capacity": "3", "ref:GB:tflcid": "RWG207635"}}, {"type": "node", "id": 10277995645, "lat": 51.3496643, "lon": -0.1005365, "tags": {"amenity": "bicycle_parking", "bicycle_parking": "stands", "capacity": "8", "covered": "no", "ref:GB:tflcid": "RWG207709"}}, {"type": "node", "id": 10277996568, "lat": 51.3525724, "lon": -0.0981893, "tags": {"amenity": "bicycle_parking", "bicycle_parking": "stands", "capacity": "2", "covered": "no", "ref:GB:tflcid": "RWG207713"}}, {"type": "node", "id": 10277996569, "lat": 51.3521223, "lon": -0.0984587, "tags": {"amenity": "bicycle_parking", "bicycle_parking": "stands", "capacity": "2", "covered": "no", "ref:GB:tflcid": "RWG207629"}}, {"type": "node", "id": 10277996570, "lat": 51.3489549, "lon": -0.1008358, "tags": {"amenity": "bicycle_parking", "bicycle_parking": "stands", "capacity": "8", "covered": "no", "ref:GB:tflcid": "RWG207642"}}, {"type": "node", "id": 10277996571, "lat": 51.3484876, "lon": -0.0932802, "tags": {"amenity": "bicycle_parking", "bicycle_parking": "stands", "capacity": "12", "covered": "yes", "ref:GB:tflcid": "RWG207761"}}, {"type": "node", "id": 10277996572, "lat": 51.3483498, "lon": -0.0945608, "tags": {"amenity": "bicycle_parking", "bicycle_parking": "stands", "capacity": "4", "covered": "no", "ref:GB:tflcid": "RWG207701"}}, {"type": "node", "id": 10277996573, "lat": 51.3481649, "lon": -0.0937507, "tags": {"amenity": "bicycle_parking", "bicycle_parking": "two-tier", "capacity": "32", "covered": "yes", "ref:GB:tflcid": "RWG207704"}}, {"type": "node", "id": 10280248252, "lat": 51.3388631, "lon": -0.1185031, "tags": {"amenity": "bicycle_parking", "bicycle_parking": "stands", "capacity": "2", "ref:GB:tflcid": "RWG207700"}}, {"type": "node", "id": 10280248253, "lat": 51.3396636, "lon": -0.1145386, "tags": {"amenity": "bicycle_parking", "bicycle_parking": "stands", "capacity": "8", "ref:GB:tflcid": "RWG207683"}}, {"type": "node", "id": 10280248254, "lat": 51.3399018, "lon": -0.1143161, "tags": {"amenity": "bicycle_parking", "bicycle_parking": "stands", "capacity": "4", "ref:GB:tflcid": "RWG207684"}}, {"type": "node", "id": 10280248255, "lat": 51.3398741, "lon": -0.1137696, "tags": {"amenity": "bicycle_parking", "capacity": "12", "ref:GB:tflcid": "RWG207678"}}, {"type": "node", "id": 10280248256, "lat": 51.3392961, "lon": -0.1150305, "tags": {"amenity": "bicycle_parking", "bicycle_parking": "stands", "capacity": "4", "ref:GB:tflcid": "RWG207686"}}, {"type": "node", "id": 10280252442, "lat": 51.3397917, "lon": -0.1136717, "tags": {"amenity": "bicycle_parking", "capacity": "11", "ref:GB:tflcid": "RWG207677"}}, {"type": "node", "id": 10280252443, "lat": 51.3391521, "lon": -0.1151452, "tags": {"amenity": "bicycle_parking", "bicycle_parking": "stands", "capacity": "6", "ref:GB:tflcid": "RWG207687"}}, {"type": "node", "id": 10280252444, "lat": 51.3388544, "lon": -0.1153955, "tags": {"amenity": "bicycle_parking", "bicycle_parking": "stands", "capacity": "6", "covered": "no", "ref:GB:tflcid": "RWG207689"}}, {"type": "node", "id": 10280252445, "lat": 51.3396315, "lon": -0.1175942, "tags": {"amenity": "bicycle_parking", "bicycle_parking": "stands", "capacity": "4", "ref:GB:tflcid": "RWG207738"}}, {"type": "node", "id": 10280252457, "lat": 51.390187, "lon": -0.0651202, "tags": {"amenity": "bicycle_parking", "bicycle_parking": "stands", "capacity": "4", "covered": "no", "fee": "no", "ref:GB:tflcid": "RWG204447"}}, {"type": "node", "id": 10280252458, "lat": 51.3899396, "lon": -0.0650616, "tags": {"amenity": "bicycle_parking", "bicycle_parking": "stands", "capacity": "4", "covered": "no", "ref:GB:tflcid": "RWG204448"}}, {"type": "node", "id": 10280252459, "lat": 51.3923853, "lon": -0.0601175, "tags": {"amenity": "bicycle_parking", "bicycle_parking": "stands", "capacity": "4", "covered": "no", "ref:GB:tflcid": "RWG204449"}}, {"type": "node", "id": 10280252752, "lat": 51.4048418, "lon": -0.1337785, "tags": {"amenity": "bicycle_parking", "bicycle_parking": "stands", "capacity": "2", "ref:GB:tflcid": "RWG207375"}}, {"type": "node", "id": 10280252753, "lat": 51.4047882, "lon": -0.1340648, "tags": {"amenity": "bicycle_parking", "bicycle_parking": "stands", "capacity": "4", "ref:GB:tflcid": "RWG207377"}}, {"type": "node", "id": 10280258425, "lat": 51.4004307, "lon": -0.1442419, "tags": {"amenity": "bicycle_parking", "bicycle_parking": "post_hoop", "capacity": "8", "ref:GB:tflcid": "RWG207392"}}, {"type": "node", "id": 10280258426, "lat": 51.4038133, "lon": -0.1372436, "tags": {"amenity": "bicycle_parking", "bicycle_parking": "stands", "capacity": "4", "ref:GB:tflcid": "RWG207498"}}, {"type": "node", "id": 10280258427, "lat": 51.403807, "lon": -0.1372646, "tags": {"amenity": "bicycle_parking", "bicycle_parking": "stands", "capacity": "6", "ref:GB:tflcid": "RWG207497"}}, {"type": "node", "id": 10280258474, "lat": 51.3196215, "lon": -0.1488714, "tags": {"amenity": "bicycle_parking", "bicycle_parking": "wall_loops", "capacity": "4", "ref:GB:tflcid": "RWG207779"}}, {"type": "node", "id": 10280258545, "lat": 51.4041171, "lon": -0.1362251, "tags": {"amenity": "bicycle_parking", "bicycle_parking": "stands", "capacity": "4", "ref:GB:tflcid": "RWG207381"}}, {"type": "node", "id": 10280258546, "lat": 51.4042195, "lon": -0.1359668, "tags": {"amenity": "bicycle_parking", "bicycle_parking": "stands", "capacity": "4", "ref:GB:tflcid": "RWG207380"}}, {"type": "node", "id": 10280258547, "lat": 51.4040335, "lon": -0.1365457, "tags": {"amenity": "bicycle_parking", "bicycle_parking": "stands", "capacity": "2", "ref:GB:tflcid": "RWG207383"}}, {"type": "node", "id": 10280259027, "lat": 51.3989923, "lon": -0.1462273, "tags": {"amenity": "bicycle_parking", "bicycle_parking": "stands", "capacity": "2", "ref:GB:tflcid": "RWG207401"}}, {"type": "node", "id": 10280259054, "lat": 51.4219666, "lon": -0.0695904, "tags": {"amenity": "bicycle_parking", "bicycle_parking": "wall_loops", "capacity": "8", "ref:GB:tflcid": "RWG204312"}}, {"type": "node", "id": 10280259055, "lat": 51.4205925, "lon": -0.068743, "tags": {"amenity": "bicycle_parking", "bicycle_parking": "stands", "capacity": "8", "ref:GB:tflcid": "RWG204309"}}, {"type": "node", "id": 10280259070, "lat": 51.3258732, "lon": -0.1550029, "tags": {"amenity": "bicycle_parking", "bicycle_parking": "stands", "capacity": "4", "ref:GB:tflcid": "RWG207661"}}, {"type": "node", "id": 10280259071, "lat": 51.3188084, "lon": -0.154433, "tags": {"amenity": "bicycle_parking", "bicycle_parking": "stands", "capacity": "2", "covered": "no", "ref:GB:tflcid": "RWG207777"}}, {"type": "node", "id": 10280259072, "lat": 51.3187897, "lon": -0.1505318, "tags": {"amenity": "bicycle_parking", "bicycle_parking": "stands", "capacity": "2", "covered": "no", "ref:GB:tflcid": "RWG207756"}}, {"type": "node", "id": 10280259073, "lat": 51.3186876, "lon": -0.1506466, "tags": {"amenity": "bicycle_parking", "bicycle_parking": "stands", "capacity": "6", "covered": "no", "ref:GB:tflcid": "RWG207758"}}, {"type": "node", "id": 10280259074, "lat": 51.3188573, "lon": -0.1506794, "tags": {"amenity": "bicycle_parking", "bicycle_parking": "stands", "capacity": "10", "covered": "no", "ref:GB:tflcid": "RWG207778"}}, {"type": "node", "id": 10280259075, "lat": 51.3187292, "lon": -0.1505962, "tags": {"amenity": "bicycle_parking", "bicycle_parking": "stands", "capacity": "4", "covered": "no", "ref:GB:tflcid": "RWG207757"}}, {"type": "node", "id": 10280259121, "lat": 51.4219669, "lon": -0.0695912, "tags": {"amenity": "bicycle_parking", "bicycle_parking": "wall_loops", "capacity": "1", "ref:GB:tflcid": "RWG204315"}}, {"type": "node", "id": 10280259122, "lat": 51.4219661, "lon": -0.0695895, "tags": {"amenity": "bicycle_parking", "bicycle_parking": "wall_loops", "capacity": "1", "ref:GB:tflcid": "RWG204314"}}, {"type": "node", "id": 10280259185, "lat": 51.4085526, "lon": -0.122073, "tags": {"amenity": "bicycle_parking", "bicycle_parking": "stands", "capacity": "8", "ref:GB:tflcid": "RWG207283"}}, {"type": "node", "id": 10280259186, "lat": 51.4056307, "lon": -0.1205017, "tags": {"amenity": "bicycle_parking", "bicycle_parking": "stands", "capacity": "10", "covered": "no", "ref:GB:tflcid": "RWG207322"}}, {"type": "node", "id": 10280259326, "lat": 51.4219481, "lon": -0.0696365, "tags": {"amenity": "bicycle_parking", "bicycle_parking": "stands", "capacity": "6", "ref:GB:tflcid": "RWG204308"}}, {"type": "node", "id": 10280259327, "lat": 51.4219666, "lon": -0.0695904, "tags": {"amenity": "bicycle_parking", "bicycle_parking": "wall_loops", "capacity": "4", "ref:GB:tflcid": "RWG204310"}}, {"type": "node", "id": 10280259352, "lat": 51.4093653, "lon": -0.1421125, "tags": {"amenity": "bicycle_parking", "bicycle_parking": "stands", "capacity": "2", "ref:GB:tflcid": "RWG207341"}}, {"type": "node", "id": 10280259353, "lat": 51.4094217, "lon": -0.1420636, "tags": {"amenity": "bicycle_parking", "bicycle_parking": "stands", "capacity": "2", "ref:GB:tflcid": "RWG207342"}}, {"type": "node", "id": 10280259354, "lat": 51.4092322, "lon": -0.142228, "tags": {"amenity": "bicycle_parking", "bicycle_parking": "stands", "capacity": "2", "ref:GB:tflcid": "RWG207339"}}, {"type": "node", "id": 10280259355, "lat": 51.4092646, "lon": -0.1422007, "tags": {"amenity": "bicycle_parking", "bicycle_parking": "stands", "capacity": "2", "ref:GB:tflcid": "RWG207340"}}, {"type": "node", "id": 10280259393, "lat": 51.4091954, "lon": -0.1220759, "tags": {"amenity": "bicycle_parking", "bicycle_parking": "stands", "capacity": "6", "ref:GB:tflcid": "RWG207275"}}, {"type": "node", "id": 10280260113, "lat": 51.41051, "lon": -0.1409, "tags": {"amenity": "bicycle_parking", "bicycle_parking": "stands", "capacity": "2", "ref:GB:tflcid": "RWG207319"}}, {"type": "node", "id": 10280260118, "lat": 51.41555, "lon": -0.064146, "tags": {"access": "private", "amenity": "bicycle_parking", "bicycle_parking": "shed", "capacity": "6", "covered": "yes", "operator": "Cyclehoop Rentals", "ref:GB:tflcid": "RWG204328"}}, {"type": "node", "id": 10280260143, "lat": 51.3335083, "lon": -0.1226454, "tags": {"amenity": "bicycle_parking", "bicycle_parking": "stands", "capacity": "4", "covered": "no", "ref:GB:tflcid": "RWG207766"}}, {"type": "node", "id": 10280260144, "lat": 51.3317129, "lon": -0.1249545, "tags": {"amenity": "bicycle_parking", "bicycle_parking": "stands", "capacity": "8", "covered": "no", "ref:GB:tflcid": "RWG207763"}}, {"type": "node", "id": 10280260145, "lat": 51.3324583, "lon": -0.1239335, "tags": {"amenity": "bicycle_parking", "bicycle_parking": "stands", "capacity": "4", "covered": "no", "ref:GB:tflcid": "RWG207765"}}, {"type": "node", "id": 10280260146, "lat": 51.3309992, "lon": -0.1234223, "tags": {"amenity": "bicycle_parking", "bicycle_parking": "stands", "capacity": "8", "covered": "no", "ref:GB:tflcid": "RWG207798"}}, {"type": "node", "id": 10280260147, "lat": 51.3321116, "lon": -0.1243002, "tags": {"amenity": "bicycle_parking", "bicycle_parking": "stands", "capacity": "4", "covered": "no", "ref:GB:tflcid": "RWG207764"}}, {"type": "node", "id": 10280260148, "lat": 51.3307425, "lon": -0.1242704, "tags": {"amenity": "bicycle_parking", "bicycle_parking": "stands", "capacity": "4", "ref:GB:tflcid": "RWG207799"}}, {"type": "node", "id": 10280260159, "lat": 51.4085681, "lon": -0.0371351, "tags": {"amenity": "bicycle_parking", "bicycle_parking": "stands", "capacity": "2", "covered": "no", "ref:GB:tflcid": "RWG278502"}}, {"type": "node", "id": 10280260160, "lat": 51.4085744, "lon": -0.0371315, "tags": {"amenity": "bicycle_parking", "bicycle_parking": "stands", "capacity": "2", "covered": "yes", "ref:GB:tflcid": "RWG278503"}}, {"type": "node", "id": 10280260182, "lat": 51.3825705, "lon": -0.068835, "tags": {"amenity": "bicycle_parking", "bicycle_parking": "stands", "capacity": "8", "ref:GB:tflcid": "RWG204461"}}, {"type": "node", "id": 10280260183, "lat": 51.3808141, "lon": -0.0715615, "tags": {"amenity": "bicycle_parking", "bicycle_parking": "stands", "capacity": "8", "ref:GB:tflcid": "RWG204458"}}, {"type": "node", "id": 10280260184, "lat": 51.3817821, "lon": -0.0696666, "tags": {"amenity": "bicycle_parking", "bicycle_parking": "stands", "capacity": "8", "ref:GB:tflcid": "RWG204459"}}, {"type": "node", "id": 10280260212, "lat": 51.4186161, "lon": -0.0679748, "tags": {"amenity": "bicycle_parking", "bicycle_parking": "stands", "capacity": "8", "covered": "yes", "ref:GB:tflcid": "RWG204318"}}, {"type": "node", "id": 10280260240, "lat": 51.4074023, "lon": -0.1214264, "tags": {"amenity": "bicycle_parking", "bicycle_parking": "stands", "capacity": "4", "ref:GB:tflcid": "RWG207324"}}, {"type": "node", "id": 10280260256, "lat": 51.3853444, "lon": -0.1010129, "tags": {"amenity": "bicycle_parking", "bicycle_parking": "stands", "capacity": "4", "ref:GB:tflcid": "RWG207833"}}, {"type": "node", "id": 10280260257, "lat": 51.3803742, "lon": -0.0998961, "tags": {"amenity": "bicycle_parking", "bicycle_parking": "stands", "capacity": "4", "ref:GB:tflcid": "RWG207920"}}, {"type": "node", "id": 10280260261, "lat": 51.4136911, "lon": -0.0668502, "tags": {"amenity": "bicycle_parking", "bicycle_parking": "stands", "capacity": "20", "covered": "yes", "ref:GB:tflcid": "RWG204416"}}, {"type": "node", "id": 10280260262, "lat": 51.4117413, "lon": -0.0667492, "tags": {"amenity": "bicycle_parking", "bicycle_parking": "stands", "capacity": "4", "covered": "no", "ref:GB:tflcid": "RWG204333"}}, {"type": "node", "id": 10280260263, "lat": 51.414014, "lon": -0.0625332, "tags": {"access": "private", "amenity": "bicycle_parking", "bicycle_parking": "shed", "capacity": "24", "covered": "yes", "operator": "Cyclehoop Rentals", "ref:GB:tflcid": "RWG204423"}}, {"type": "node", "id": 10280260264, "lat": 51.4174183, "lon": -0.0610119, "tags": {"amenity": "bicycle_parking", "bicycle_parking": "stands", "capacity": "8", "covered": "yes", "ref:GB:tflcid": "RWG204565"}}, {"type": "node", "id": 10280260265, "lat": 51.4194461, "lon": -0.0565555, "tags": {"access": "private", "amenity": "bicycle_parking", "bicycle_lock": "provided", "bicycle_parking": "shed", "capacity": "6", "covered": "yes", "on_carriageway": "yes", "operator": "Cyclehoop Rentals", "ref:GB:tflcid": "RWG293345"}}, {"type": "node", "id": 10280261009, "lat": 51.4049134, "lon": -0.1333728, "tags": {"amenity": "bicycle_parking", "bicycle_parking": "stands", "capacity": "3", "ref:GB:tflcid": "RWG207373"}}, {"type": "node", "id": 10280261018, "lat": 51.3188806, "lon": -0.1501935, "tags": {"amenity": "bicycle_parking", "bicycle_parking": "stands", "capacity": "4", "ref:GB:tflcid": "RWG207754"}}, {"type": "node", "id": 10280261029, "lat": 51.4103723, "lon": -0.1409913, "tags": {"amenity": "bicycle_parking", "bicycle_parking": "stands", "capacity": "2", "ref:GB:tflcid": "RWG207317"}}, {"type": "node", "id": 10280261030, "lat": 51.4107053, "lon": -0.1406902, "tags": {"amenity": "bicycle_parking", "bicycle_parking": "stands", "capacity": "4", "ref:GB:tflcid": "RWG207320"}}, {"type": "node", "id": 10280261031, "lat": 51.4104411, "lon": -0.1409316, "tags": {"amenity": "bicycle_parking", "bicycle_parking": "stands", "capacity": "2", "ref:GB:tflcid": "RWG207318"}}, {"type": "node", "id": 10280261050, "lat": 51.4056093, "lon": -0.1208589, "tags": {"amenity": "bicycle_parking", "bicycle_parking": "stands", "capacity": "8", "covered": "no", "ref:GB:tflcid": "RWG207323"}}, {"type": "node", "id": 10280261051, "lat": 51.4050067, "lon": -0.1200805, "tags": {"amenity": "bicycle_parking", "bicycle_parking": "stands", "capacity": "6", "covered": "no", "ref:GB:tflcid": "RWG207321"}}, {"type": "node", "id": 10280261069, "lat": 51.3862258, "lon": -0.0988156, "tags": {"amenity": "bicycle_parking", "bicycle_parking": "stands", "capacity": "4", "ref:GB:tflcid": "RWG207839"}}, {"type": "node", "id": 10280261070, "lat": 51.3777877, "lon": -0.1023734, "tags": {"amenity": "bicycle_parking", "bicycle_parking": "stands", "capacity": "2", "covered": "no", "ref:GB:tflcid": "RWG207918"}}, {"type": "node", "id": 10280261071, "lat": 51.3778749, "lon": -0.1024453, "tags": {"amenity": "bicycle_parking", "bicycle_parking": "stands", "capacity": "2", "covered": "no", "ref:GB:tflcid": "RWG207917"}}, {"type": "node", "id": 10280261087, "lat": 51.4120369, "lon": -0.0452251, "tags": {"amenity": "bicycle_parking", "bicycle_parking": "stands", "capacity": "8", "covered": "no", "ref:GB:tflcid": "RWG204615"}}, {"type": "node", "id": 10280261088, "lat": 51.4087, "lon": -0.0376052, "tags": {"amenity": "bicycle_parking", "bicycle_parking": "stands", "capacity": "10", "covered": "yes", "ref:GB:tflcid": "RWG278507"}}, {"type": "node", "id": 10280261089, "lat": 51.4090286, "lon": -0.0418508, "tags": {"amenity": "bicycle_parking", "bicycle_parking": "stands", "capacity": "6", "covered": "no", "ref:GB:tflcid": "RWG204618", "wheelchair": "yes"}}, {"type": "node", "id": 10280261090, "lat": 51.4089209, "lon": -0.0404702, "tags": {"amenity": "bicycle_parking", "bicycle_parking": "stands", "capacity": "4", "covered": "no", "ref:GB:tflcid": "RWG204463"}}, {"type": "node", "id": 10280261672, "lat": 51.3918961, "lon": -0.066029, "tags": {"amenity": "bicycle_parking", "bicycle_parking": "stands", "capacity": "4", "covered": "no", "fee": "no", "ref:GB:tflcid": "RWG204489"}}, {"type": "node", "id": 10280261673, "lat": 51.3917203, "lon": -0.0658991, "tags": {"amenity": "bicycle_parking", "bicycle_parking": "stands", "capacity": "4", "covered": "no", "fee": "no", "ref:GB:tflcid": "RWG204490"}}, {"type": "node", "id": 10280261675, "lat": 51.3913149, "lon": -0.0585307, "tags": {"amenity": "bicycle_parking", "bicycle_parking": "stands", "capacity": "12", "covered": "no", "ref:GB:tflcid": "RWG204350"}}, {"type": "node", "id": 10280261726, "lat": 51.3849822, "lon": -0.0667049, "tags": {"amenity": "bicycle_parking", "capacity": "8", "ref:GB:tflcid": "RWG278491"}}, {"type": "node", "id": 10280262712, "lat": 51.3829263, "lon": -0.0643016, "tags": {"amenity": "bicycle_parking", "capacity": "22", "covered": "no", "ref:GB:tflcid": "RWG204455"}}, {"type": "node", "id": 10280262713, "lat": 51.3924196, "lon": -0.0604268, "tags": {"amenity": "bicycle_parking", "bicycle_parking": "stands", "capacity": "18", "covered": "yes", "ref:GB:tflcid": "RWG204452"}}, {"type": "node", "id": 10280263013, "lat": 51.3393865, "lon": -0.1150766, "tags": {"amenity": "bicycle_parking", "bicycle_parking": "stands", "capacity": "8", "ref:GB:tflcid": "RWG207685"}}, {"type": "node", "id": 10280269927, "lat": 51.3804006, "lon": -0.0999813, "tags": {"amenity": "bicycle_parking", "bicycle_parking": "stands", "capacity": "4", "ref:GB:tflcid": "RWG207921"}}, {"type": "node", "id": 10280270526, "lat": 51.40371, "lon": -0.1192068, "tags": {"amenity": "bicycle_parking", "bicycle_parking": "stands", "capacity": "4", "ref:GB:tflcid": "RWG207316"}}, {"type": "node", "id": 10280270542, "lat": 51.3851132, "lon": -0.1016006, "tags": {"amenity": "bicycle_parking", "bicycle_parking": "stands", "capacity": "4", "ref:GB:tflcid": "RWG207834"}}, {"type": "node", "id": 10280270543, "lat": 51.3778241, "lon": -0.1024063, "tags": {"amenity": "bicycle_parking", "bicycle_parking": "stands", "capacity": "2", "covered": "no", "ref:GB:tflcid": "RWG207566"}}, {"type": "node", "id": 10280270550, "lat": 51.4129108, "lon": -0.0661837, "tags": {"access": "private", "amenity": "bicycle_parking", "bicycle_parking": "shed", "capacity": "12", "covered": "yes", "operator": "Cyclehoop Rentals", "ref:GB:tflcid": "RWG204329"}}, {"type": "node", "id": 10280270559, "lat": 51.4022281, "lon": -0.1186627, "tags": {"amenity": "bicycle_parking", "bicycle_parking": "stands", "capacity": "2", "covered": "no", "ref:GB:tflcid": "RWG207330"}}, {"type": "node", "id": 10280270610, "lat": 51.3189453, "lon": -0.1499491, "tags": {"amenity": "bicycle_parking", "bicycle_parking": "stands", "capacity": "2", "ref:GB:tflcid": "RWG207753"}}, {"type": "node", "id": 10280270709, "lat": 51.420193, "lon": -0.0653112, "tags": {"amenity": "bicycle_parking", "bicycle_parking": "stands", "capacity": "4", "covered": "no", "ref:GB:tflcid": "RWG204319"}}, {"type": "node", "id": 10280270716, "lat": 51.40861, "lon": -0.0370952, "tags": {"amenity": "bicycle_parking", "bicycle_parking": "stands", "capacity": "2", "covered": "yes", "ref:GB:tflcid": "RWG278504"}}, {"type": "node", "id": 10280272743, "lat": 51.3222416, "lon": -0.1365795, "tags": {"amenity": "bicycle_parking", "bicycle_parking": "stands", "capacity": "4", "covered": "no", "ref:GB:tflcid": "RWG207822"}}, {"type": "node", "id": 10280272744, "lat": 51.3223269, "lon": -0.1363998, "tags": {"amenity": "bicycle_parking", "bicycle_parking": "stands", "capacity": "4", "covered": "no", "ref:GB:tflcid": "RWG207821"}}, {"type": "node", "id": 10280272745, "lat": 51.3215811, "lon": -0.1346111, "tags": {"amenity": "bicycle_parking", "bicycle_parking": "stands", "capacity": "8", "ref:GB:tflcid": "RWG207816"}}, {"type": "node", "id": 10280272746, "lat": 51.3190583, "lon": -0.1372418, "tags": {"amenity": "bicycle_parking", "bicycle_parking": "stands", "capacity": "12", "covered": "yes", "ref:GB:tflcid": "RWG207694"}}, {"type": "node", "id": 10280272748, "lat": 51.318911, "lon": -0.1392937, "tags": {"amenity": "bicycle_parking", "bicycle_parking": "stands", "capacity": "6", "ref:GB:tflcid": "RWG207780"}}, {"type": "node", "id": 10280272749, "lat": 51.3200575, "lon": -0.1387158, "tags": {"amenity": "bicycle_parking", "bicycle_parking": "stands", "capacity": "6", "ref:GB:tflcid": "RWG207782"}}, {"type": "node", "id": 10280272750, "lat": 51.3193627, "lon": -0.1392296, "tags": {"amenity": "bicycle_parking", "bicycle_parking": "stands", "capacity": "8", "ref:GB:tflcid": "RWG207783"}}, {"type": "node", "id": 10280272751, "lat": 51.3185057, "lon": -0.1379349, "tags": {"amenity": "bicycle_parking", "bicycle_parking": "stands", "capacity": "16", "covered": "yes", "ref:GB:tflcid": "RWG207695"}}, {"type": "node", "id": 10280272759, "lat": 51.3794706, "lon": -0.0880666, "tags": {"amenity": "bicycle_parking", "bicycle_parking": "stands", "capacity": "4", "ref:GB:tflcid": "RWG207705"}}, {"type": "node", "id": 10280272760, "lat": 51.3796515, "lon": -0.0881225, "tags": {"amenity": "bicycle_parking", "bicycle_parking": "wall_loops", "capacity": "3", "ref:GB:tflcid": "RWG207698"}}, {"type": "node", "id": 10280272761, "lat": 51.3796872, "lon": -0.0882641, "tags": {"amenity": "bicycle_parking", "bicycle_parking": "wall_loops", "capacity": "3", "ref:GB:tflcid": "RWG207699"}}, {"type": "node", "id": 10280272762, "lat": 51.3808958, "lon": -0.0891538, "tags": {"amenity": "bicycle_parking", "bicycle_parking": "stands", "capacity": "2", "ref:GB:tflcid": "RWG207447"}}, {"type": "node", "id": 10280272763, "lat": 51.3807204, "lon": -0.0882991, "tags": {"amenity": "bicycle_parking", "capacity": "2", "ref:GB:tflcid": "RWG207450"}}, {"type": "node", "id": 10280272764, "lat": 51.380617, "lon": -0.0878051, "tags": {"amenity": "bicycle_parking", "bicycle_parking": "stands", "capacity": "2", "ref:GB:tflcid": "RWG207451"}}, {"type": "node", "id": 10280272771, "lat": 51.3804474, "lon": -0.0874458, "tags": {"amenity": "bicycle_parking", "bicycle_parking": "stands", "capacity": "2", "ref:GB:tflcid": "RWG207453"}}, {"type": "node", "id": 10280272790, "lat": 51.3879337, "lon": -0.1269804, "tags": {"amenity": "bicycle_parking", "bicycle_parking": "stands", "capacity": "2", "ref:GB:tflcid": "RWG207596"}}, {"type": "node", "id": 10280272791, "lat": 51.38807, "lon": -0.1273105, "tags": {"amenity": "bicycle_parking", "bicycle_parking": "stands", "capacity": "2", "ref:GB:tflcid": "RWG207732"}}, {"type": "node", "id": 10280272792, "lat": 51.3870185, "lon": -0.1210385, "tags": {"amenity": "bicycle_parking", "bicycle_parking": "stands", "capacity": "4", "ref:GB:tflcid": "RWG207718"}}, {"type": "node", "id": 10280272793, "lat": 51.3862459, "lon": -0.1209852, "tags": {"amenity": "bicycle_parking", "bicycle_parking": "stands", "capacity": "2", "ref:GB:tflcid": "RWG207717"}}, {"type": "node", "id": 10280272927, "lat": 51.3189716, "lon": -0.1393081, "tags": {"amenity": "bicycle_parking", "bicycle_parking": "stands", "capacity": "8", "ref:GB:tflcid": "RWG207781"}}, {"type": "node", "id": 10280272928, "lat": 51.3208419, "lon": -0.1389022, "tags": {"amenity": "bicycle_parking", "bicycle_parking": "stands", "capacity": "2", "ref:GB:tflcid": "RWG207824"}}, {"type": "node", "id": 10280272929, "lat": 51.3807928, "lon": -0.0890935, "tags": {"amenity": "bicycle_parking", "bicycle_parking": "stands", "capacity": "4", "ref:GB:tflcid": "RWG207449"}}, {"type": "node", "id": 10280272931, "lat": 51.3819348, "lon": -0.0824815, "tags": {"amenity": "bicycle_parking", "bicycle_parking": "stands", "capacity": "8", "ref:GB:tflcid": "RWG207886"}}, {"type": "node", "id": 10280272932, "lat": 51.3797105, "lon": -0.0816223, "tags": {"amenity": "bicycle_parking", "bicycle_parking": "stands", "capacity": "4", "ref:GB:tflcid": "RWG207889"}}, {"type": "node", "id": 10280272933, "lat": 51.3860743, "lon": -0.1227066, "tags": {"amenity": "bicycle_parking", "bicycle_parking": "stands", "capacity": "2", "ref:GB:tflcid": "RWG207714"}}, {"type": "node", "id": 10280272948, "lat": 51.365821, "lon": -0.0990915, "tags": {"amenity": "bicycle_parking", "bicycle_parking": "stands", "capacity": "2", "covered": "no", "ref:GB:tflcid": "RWG207466"}}, {"type": "node", "id": 10280272949, "lat": 51.3657472, "lon": -0.0990925, "tags": {"amenity": "bicycle_parking", "bicycle_parking": "stands", "capacity": "2", "covered": "no", "ref:GB:tflcid": "RWG207464"}}, {"type": "node", "id": 10280272950, "lat": 51.3657873, "lon": -0.0990898, "tags": {"amenity": "bicycle_parking", "bicycle_parking": "stands", "capacity": "2", "covered": "no", "ref:GB:tflcid": "RWG207465"}}, {"type": "node", "id": 10280272951, "lat": 51.3638902, "lon": -0.0984017, "tags": {"amenity": "bicycle_parking", "bicycle_parking": "stands", "capacity": "4", "covered": "no", "ref:GB:tflcid": "RWG207461"}}, {"type": "node", "id": 10280272969, "lat": 51.3427382, "lon": -0.0631499, "tags": {"amenity": "bicycle_parking", "bicycle_parking": "stands", "capacity": "16", "covered": "yes", "ref:GB:tflcid": "RWG207636"}}, {"type": "node", "id": 10280272970, "lat": 51.344359, "lon": -0.0609284, "tags": {"amenity": "bicycle_parking", "bicycle_parking": "stands", "capacity": "6", "ref:GB:tflcid": "RWG207512"}}, {"type": "node", "id": 10280272971, "lat": 51.3442177, "lon": -0.0611913, "tags": {"amenity": "bicycle_parking", "bicycle_parking": "stands", "capacity": "4", "ref:GB:tflcid": "RWG207513"}}, {"type": "node", "id": 10280272972, "lat": 51.3438761, "lon": -0.0618405, "tags": {"amenity": "bicycle_parking", "bicycle_parking": "stands", "capacity": "6", "ref:GB:tflcid": "RWG207632"}}, {"type": "node", "id": 10280272993, "lat": 51.3424767, "lon": -0.017365, "tags": {"amenity": "bicycle_parking", "bicycle_parking": "stands", "capacity": "16", "ref:GB:tflcid": "RWG204418"}}, {"type": "node", "id": 10280273710, "lat": 51.4095988, "lon": -0.1221662, "tags": {"amenity": "bicycle_parking", "bicycle_parking": "stands", "capacity": "4", "ref:GB:tflcid": "RWG207282"}}, {"type": "node", "id": 10280273738, "lat": 51.3822399, "lon": -0.0691266, "tags": {"amenity": "bicycle_parking", "bicycle_parking": "stands", "capacity": "6", "ref:GB:tflcid": "RWG278492"}}, {"type": "node", "id": 10280277454, "lat": 51.3739031, "lon": 0.001503, "tags": {"amenity": "bicycle_parking", "bicycle_parking": "stands", "capacity": "4", "covered": "no", "ref:GB:tflcid": "RWG204585"}}, {"type": "node", "id": 10280277455, "lat": 51.3696641, "lon": 0.0009607, "tags": {"amenity": "bicycle_parking", "bicycle_parking": "stands", "capacity": "1", "covered": "no", "ref:GB:tflcid": "RWG204589"}}, {"type": "node", "id": 10280277456, "lat": 51.3699154, "lon": 0.00137, "tags": {"amenity": "bicycle_parking", "bicycle_parking": "stands", "capacity": "2", "covered": "no", "ref:GB:tflcid": "RWG204592"}}, {"type": "node", "id": 10280277457, "lat": 51.36967, "lon": 0.0011393, "tags": {"amenity": "bicycle_parking", "bicycle_parking": "stands", "capacity": "1", "covered": "no", "ref:GB:tflcid": "RWG204590"}}, {"type": "node", "id": 10280277458, "lat": 51.3692486, "lon": 0.0012155, "tags": {"amenity": "bicycle_parking", "bicycle_parking": "stands", "capacity": "8", "covered": "no", "ref:GB:tflcid": "RWG204588"}}, {"type": "node", "id": 10280277459, "lat": 51.3688441, "lon": -0.0023521, "tags": {"amenity": "bicycle_parking", "bicycle_parking": "stands", "capacity": "8", "covered": "no", "ref:GB:tflcid": "RWG278495"}}, {"type": "node", "id": 10280277492, "lat": 51.4010835, "lon": -0.1180837, "tags": {"amenity": "bicycle_parking", "bicycle_parking": "stands", "capacity": "4", "covered": "no", "ref:GB:tflcid": "RWG207327"}}, {"type": "node", "id": 10280277493, "lat": 51.4016391, "lon": -0.1186172, "tags": {"amenity": "bicycle_parking", "bicycle_parking": "stands", "capacity": "2", "ref:GB:tflcid": "RWG207326"}}, {"type": "node", "id": 10280277494, "lat": 51.3991955, "lon": -0.1171258, "tags": {"amenity": "bicycle_parking", "bicycle_parking": "stands", "capacity": "6", "covered": "no", "ref:GB:tflcid": "RWG207333"}}, {"type": "node", "id": 10280277508, "lat": 51.358272, "lon": -0.1247293, "tags": {"amenity": "bicycle_parking", "bicycle_parking": "stands", "capacity": "6", "ref:GB:tflcid": "RWG207542"}}, {"type": "node", "id": 10280277616, "lat": 51.3697119, "lon": 0.0012006, "tags": {"amenity": "bicycle_parking", "bicycle_parking": "stands", "capacity": "1", "covered": "yes", "ref:GB:tflcid": "RWG204591"}}, {"type": "node", "id": 10280277617, "lat": 51.3699219, "lon": 0.0010805, "tags": {"amenity": "bicycle_parking", "bicycle_parking": "stands", "capacity": "2", "covered": "no", "ref:GB:tflcid": "RWG204593"}}, {"type": "node", "id": 10280277637, "lat": 51.409417, "lon": -0.043421, "tags": {"amenity": "bicycle_parking", "bicycle_parking": "stands", "capacity": "4", "covered": "no", "ref:GB:tflcid": "RWG204644"}}, {"type": "node", "id": 10280277641, "lat": 51.4140932, "lon": -0.0627425, "tags": {"access": "private", "amenity": "bicycle_parking", "bicycle_parking": "shed", "capacity": "18", "covered": "yes", "operator": "Cyclehoop Rentals", "ref:GB:tflcid": "RWG204424"}}, {"type": "node", "id": 10280277684, "lat": 51.4020875, "lon": -0.1187797, "tags": {"amenity": "bicycle_parking", "bicycle_parking": "stands", "capacity": "4", "covered": "no", "ref:GB:tflcid": "RWG207325"}}, {"type": "node", "id": 10280277685, "lat": 51.4012248, "lon": -0.1181754, "tags": {"amenity": "bicycle_parking", "bicycle_parking": "stands", "capacity": "6", "covered": "no", "ref:GB:tflcid": "RWG207328"}}, {"type": "node", "id": 10280277689, "lat": 51.3624516, "lon": -0.1215792, "tags": {"amenity": "bicycle_parking", "bicycle_parking": "stands", "capacity": "2", "ref:GB:tflcid": "RWG207609"}}, {"type": "node", "id": 10280277690, "lat": 51.3603746, "lon": -0.1181893, "tags": {"amenity": "bicycle_parking", "bicycle_parking": "stands", "capacity": "8", "ref:GB:tflcid": "RWG207559"}}, {"type": "node", "id": 10280281212, "lat": 51.4086324, "lon": -0.0370871, "tags": {"amenity": "bicycle_parking", "bicycle_parking": "stands", "capacity": "2", "covered": "no", "ref:GB:tflcid": "RWG278505"}}, {"type": "node", "id": 10280281213, "lat": 51.4089588, "lon": -0.0371923, "tags": {"amenity": "bicycle_parking", "bicycle_parking": "stands", "capacity": "20", "covered": "no", "ref:GB:tflcid": "RWG278506"}}, {"type": "node", "id": 10280281612, "lat": 51.4023324, "lon": -0.1186974, "tags": {"amenity": "bicycle_parking", "bicycle_parking": "stands", "capacity": "4", "covered": "no", "ref:GB:tflcid": "RWG207329"}}, {"type": "node", "id": 10280281709, "lat": 51.363522, "lon": -0.1184795, "tags": {"amenity": "bicycle_parking", "bicycle_parking": "stands", "capacity": "2", "ref:GB:tflcid": "RWG207597"}}, {"type": "node", "id": 10280281710, "lat": 51.3646714, "lon": -0.1180921, "tags": {"amenity": "bicycle_parking", "bicycle_parking": "stands", "capacity": "6", "ref:GB:tflcid": "RWG207501"}}, {"type": "node", "id": 10280281711, "lat": 51.3651634, "lon": -0.1200797, "tags": {"amenity": "bicycle_parking", "bicycle_parking": "stands", "capacity": "16", "covered": "yes", "ref:GB:tflcid": "RWG207606"}}, {"type": "node", "id": 10280281712, "lat": 51.3623028, "lon": -0.1218389, "tags": {"amenity": "bicycle_parking", "bicycle_parking": "stands", "capacity": "2", "ref:GB:tflcid": "RWG207608"}}, {"type": "node", "id": 10280285418, "lat": 51.3219999, "lon": -0.136882, "tags": {"amenity": "bicycle_parking", "bicycle_parking": "stands", "capacity": "4", "covered": "no", "ref:GB:tflcid": "RWG207823"}}, {"type": "node", "id": 10280285419, "lat": 51.3219159, "lon": -0.1353409, "tags": {"amenity": "bicycle_parking", "bicycle_parking": "stands", "capacity": "8", "ref:GB:tflcid": "RWG207817"}}, {"type": "node", "id": 10280285420, "lat": 51.3211349, "lon": -0.1380551, "tags": {"amenity": "bicycle_parking", "bicycle_parking": "stands", "capacity": "6", "covered": "no", "ref:GB:tflcid": "RWG207825"}}, {"type": "node", "id": 10280285424, "lat": 51.3803256, "lon": -0.0868646, "tags": {"amenity": "bicycle_parking", "bicycle_parking": "stands", "capacity": "2", "ref:GB:tflcid": "RWG207880"}}, {"type": "node", "id": 10280285438, "lat": 51.3662071, "lon": -0.0990986, "tags": {"amenity": "bicycle_parking", "bicycle_parking": "stands", "capacity": "2", "covered": "no", "ref:GB:tflcid": "RWG207540"}}, {"type": "node", "id": 10280285439, "lat": 51.3662469, "lon": -0.0991029, "tags": {"amenity": "bicycle_parking", "bicycle_parking": "stands", "capacity": "2", "covered": "no", "ref:GB:tflcid": "RWG207541"}}, {"type": "node", "id": 10280285447, "lat": 51.3889037, "lon": -0.0905708, "tags": {"amenity": "bicycle_parking", "bicycle_parking": "stands", "capacity": "2", "ref:GB:tflcid": "RWG207620"}}, {"type": "node", "id": 10280285451, "lat": 51.4170094, "lon": -0.0516614, "tags": {"access": "private", "amenity": "bicycle_parking", "bicycle_parking": "shed", "capacity": "6", "covered": "yes", "on_carriageway": "yes", "operator": "Cyclehoop Rentals", "ref:GB:tflcid": "RWG293347"}}, {"type": "node", "id": 10280285473, "lat": 51.3416325, "lon": -0.0150854, "tags": {"amenity": "bicycle_parking", "bicycle_parking": "stands", "capacity": "8", "covered": "no", "ref:GB:tflcid": "RWG204426"}}, {"type": "node", "id": 10280285474, "lat": 51.3415356, "lon": -0.0148312, "tags": {"amenity": "bicycle_parking", "bicycle_parking": "stands", "capacity": "6", "ref:GB:tflcid": "RWG204428"}}, {"type": "node", "id": 10280285475, "lat": 51.3424121, "lon": -0.0164222, "tags": {"amenity": "bicycle_parking", "bicycle_parking": "stands", "capacity": "8", "ref:GB:tflcid": "RWG204425"}}, {"type": "node", "id": 10280285549, "lat": 51.3225901, "lon": -0.1358512, "tags": {"amenity": "bicycle_parking", "bicycle_parking": "stands", "capacity": "4", "covered": "no", "ref:GB:tflcid": "RWG207818"}}, {"type": "node", "id": 10280285559, "lat": 51.3805261, "lon": -0.0873572, "tags": {"amenity": "bicycle_parking", "bicycle_parking": "stands", "capacity": "2", "ref:GB:tflcid": "RWG207455"}}, {"type": "node", "id": 10280285560, "lat": 51.3795735, "lon": -0.0827121, "tags": {"amenity": "bicycle_parking", "bicycle_parking": "stands", "capacity": "2", "ref:GB:tflcid": "RWG207882"}}, {"type": "node", "id": 10280285576, "lat": 51.3850745, "lon": -0.1208943, "tags": {"amenity": "bicycle_parking", "bicycle_parking": "stands", "capacity": "4", "ref:GB:tflcid": "RWG207727"}}, {"type": "node", "id": 10280285577, "lat": 51.3873712, "lon": -0.1208516, "tags": {"amenity": "bicycle_parking", "bicycle_parking": "stands", "capacity": "4", "ref:GB:tflcid": "RWG207726"}}, {"type": "node", "id": 10280285617, "lat": 51.3803956, "lon": -0.0866198, "tags": {"amenity": "bicycle_parking", "bicycle_parking": "stands", "capacity": "2", "ref:GB:tflcid": "RWG207881"}}, {"type": "node", "id": 10280285627, "lat": 51.3869319, "lon": -0.096995, "tags": {"amenity": "bicycle_parking", "bicycle_parking": "stands", "capacity": "2", "ref:GB:tflcid": "RWG207842"}}, {"type": "node", "id": 10280285824, "lat": 51.4170536, "lon": -0.0554433, "tags": {"access": "private", "amenity": "bicycle_parking", "bicycle_parking": "shed", "capacity": "6", "covered": "yes", "operator": "Cyclehoop Rentals", "ref:GB:tflcid": "RWG204569"}}, {"type": "node", "id": 10280285825, "lat": 51.4176629, "lon": -0.0534029, "tags": {"access": "private", "amenity": "bicycle_parking", "bicycle_parking": "shed", "capacity": "6", "covered": "yes", "operator": "Cyclehoop Rentals", "ref:GB:tflcid": "RWG204571"}}, {"type": "node", "id": 10280285826, "lat": 51.4174496, "lon": -0.0526054, "tags": {"access": "private", "amenity": "bicycle_parking", "bicycle_parking": "shed", "capacity": "6", "covered": "yes", "operator": "Cyclehoop Rentals", "ref:GB:tflcid": "RWG204572"}}, {"type": "node", "id": 10280285835, "lat": 51.3411743, "lon": -0.0143041, "tags": {"amenity": "bicycle_parking", "bicycle_parking": "stands", "capacity": "8", "ref:GB:tflcid": "RWG204430"}}, {"type": "node", "id": 10280285836, "lat": 51.3408525, "lon": -0.0141161, "tags": {"amenity": "bicycle_parking", "bicycle_parking": "stands", "capacity": "8", "ref:GB:tflcid": "RWG204432"}}, {"type": "node", "id": 10280286211, "lat": 51.3856394, "lon": -0.0972409, "tags": {"amenity": "bicycle_parking", "bicycle_parking": "stands", "capacity": "4", "ref:GB:tflcid": "RWG207840"}}, {"type": "node", "id": 10280287318, "lat": 51.3891162, "lon": -0.0901887, "tags": {"amenity": "bicycle_parking", "bicycle_parking": "stands", "capacity": "4", "ref:GB:tflcid": "RWG207619"}}, {"type": "node", "id": 10280287810, "lat": 51.3888555, "lon": -0.0907497, "tags": {"amenity": "bicycle_parking", "bicycle_parking": "stands", "capacity": "2", "ref:GB:tflcid": "RWG207621"}}, {"type": "node", "id": 10280288414, "lat": 51.4171125, "lon": -0.0553962, "tags": {"access": "private", "amenity": "bicycle_parking", "bicycle_parking": "shed", "capacity": "6", "covered": "yes", "operator": "Cyclehoop Rentals", "ref:GB:tflcid": "RWG204570"}}, {"type": "node", "id": 10280289928, "lat": 51.3866116, "lon": -0.0967769, "tags": {"amenity": "bicycle_parking", "bicycle_parking": "stands", "capacity": "6", "ref:GB:tflcid": "RWG207841"}}, {"type": "node", "id": 10280289930, "lat": 51.4170191, "lon": -0.0568445, "tags": {"amenity": "bicycle_parking", "bicycle_parking": "stands", "capacity": "4", "covered": "no", "ref:GB:tflcid": "RWG204568"}}, {"type": "node", "id": 10280289939, "lat": 51.3450164, "lon": -0.0595284, "tags": {"amenity": "bicycle_parking", "bicycle_parking": "stands", "capacity": "2", "covered": "no", "ref:GB:tflcid": "RWG207509"}}, {"type": "node", "id": 10280289940, "lat": 51.3435963, "lon": -0.062326, "tags": {"amenity": "bicycle_parking", "bicycle_parking": "stands", "capacity": "4", "ref:GB:tflcid": "RWG207633"}}, {"type": "node", "id": 10280297145, "lat": 51.3796248, "lon": -0.074272, "tags": {"amenity": "bicycle_parking", "bicycle_parking": "stands", "capacity": "8", "ref:GB:tflcid": "RWG207888"}}, {"type": "node", "id": 10280297146, "lat": 51.3823129, "lon": -0.0689376, "tags": {"amenity": "bicycle_parking", "bicycle_parking": "stands", "capacity": "6", "ref:GB:tflcid": "RWG204460"}}, {"type": "node", "id": 10281975217, "lat": 51.3749203, "lon": -0.1092903, "tags": {"amenity": "bicycle_parking", "bicycle_parking": "stands", "capacity": "10", "covered": "no", "ref:GB:tflcid": "RWG290573"}}, {"type": "node", "id": 10281975243, "lat": 51.3933152, "lon": -0.085692, "tags": {"amenity": "bicycle_parking", "bicycle_parking": "stands", "capacity": "10", "ref:GB:tflcid": "RWG207613"}}, {"type": "node", "id": 10281975244, "lat": 51.3967065, "lon": -0.086359, "tags": {"amenity": "bicycle_parking", "bicycle_parking": "stands", "capacity": "4", "ref:GB:tflcid": "RWG207658"}}, {"type": "node", "id": 10281975245, "lat": 51.3974211, "lon": -0.0787884, "tags": {"amenity": "bicycle_parking", "bicycle_parking": "stands", "capacity": "6", "covered": "no", "ref:GB:tflcid": "RWG204344"}}, {"type": "node", "id": 10281975246, "lat": 51.3929908, "lon": -0.0787629, "tags": {"amenity": "bicycle_parking", "bicycle_parking": "upright_stands", "capacity": "24", "covered": "yes", "ref:GB:tflcid": "RWG207610"}}, {"type": "node", "id": 10281997718, "lat": 51.3758996, "lon": -0.1204281, "tags": {"amenity": "bicycle_parking", "bicycle_parking": "stands", "capacity": "6", "covered": "yes", "ref:GB:tflcid": "RWG207637"}}, {"type": "node", "id": 10281997719, "lat": 51.3757633, "lon": -0.1197456, "tags": {"amenity": "bicycle_parking", "bicycle_parking": "stands", "capacity": "12", "covered": "yes", "ref:GB:tflcid": "RWG207634"}}, {"type": "node", "id": 10281997811, "lat": 51.3727652, "lon": -0.1188594, "tags": {"amenity": "bicycle_parking", "bicycle_parking": "stands", "capacity": "10", "covered": "yes", "ref:GB:tflcid": "RWG207494"}}, {"type": "node", "id": 10281997812, "lat": 51.3769679, "lon": -0.1179852, "tags": {"amenity": "bicycle_parking", "bicycle_parking": "stands", "capacity": "16", "ref:GB:tflcid": "RWG207653"}}, {"type": "node", "id": 10281997869, "lat": 51.3070298, "lon": -0.1192615, "tags": {"amenity": "bicycle_parking", "bicycle_parking": "wall_loops", "capacity": "4", "ref:GB:tflcid": "RWG207800"}}, {"type": "node", "id": 10281997870, "lat": 51.3004543, "lon": -0.1172126, "tags": {"amenity": "bicycle_parking", "bicycle_parking": "stands", "capacity": "4", "ref:GB:tflcid": "RWG207796"}}, {"type": "node", "id": 10281998323, "lat": 51.3722883, "lon": -0.0963369, "tags": {"amenity": "bicycle_parking", "bicycle_parking": "stands", "capacity": "10", "ref:GB:tflcid": "RWG207807"}}, {"type": "node", "id": 10281998348, "lat": 51.3677416, "lon": -0.1315752, "tags": {"amenity": "bicycle_parking", "bicycle_parking": "stands", "capacity": "4", "ref:GB:tflcid": "RWG207563"}}, {"type": "node", "id": 10281998376, "lat": 51.3955883, "lon": -0.0679694, "tags": {"amenity": "bicycle_parking", "bicycle_parking": "stands", "capacity": "4", "covered": "no", "ref:GB:tflcid": "RWG204488"}}, {"type": "node", "id": 10281998397, "lat": 51.3954247, "lon": -0.0768149, "tags": {"amenity": "bicycle_parking", "bicycle_parking": "stands", "capacity": "8", "ref:GB:tflcid": "RWG204338"}}, {"type": "node", "id": 10281998398, "lat": 51.3973882, "lon": -0.0753654, "tags": {"amenity": "bicycle_parking", "bicycle_parking": "stands", "capacity": "10", "covered": "no", "ref:GB:tflcid": "RWG204335"}}, {"type": "node", "id": 10281998425, "lat": 51.404833, "lon": -0.0976695, "tags": {"amenity": "bicycle_parking", "bicycle_parking": "stands", "capacity": "4", "ref:GB:tflcid": "RWG207515"}}, {"type": "node", "id": 10281998434, "lat": 51.3532619, "lon": -0.0603874, "tags": {"amenity": "bicycle_parking", "bicycle_parking": "stands", "capacity": "2", "ref:GB:tflcid": "RWG207883"}}, {"type": "node", "id": 10281998439, "lat": 51.331917, "lon": -0.0753397, "tags": {"amenity": "bicycle_parking", "bicycle_parking": "stands", "capacity": "16", "ref:GB:tflcid": "RWG207651"}}, {"type": "node", "id": 10281998442, "lat": 51.3946732, "lon": -0.0243074, "tags": {"amenity": "bicycle_parking", "bicycle_parking": "stands", "capacity": "8", "covered": "no", "ref:GB:tflcid": "RWG278500"}}, {"type": "node", "id": 10281998444, "lat": 51.3365201, "lon": -0.1171019, "tags": {"amenity": "bicycle_parking", "capacity": "6", "ref:GB:tflcid": "RWG207743"}}, {"type": "node", "id": 10281998445, "lat": 51.3292853, "lon": -0.107701, "tags": {"amenity": "bicycle_parking", "bicycle_parking": "stands", "capacity": "2", "ref:GB:tflcid": "RWG207767"}}, {"type": "node", "id": 10281998452, "lat": 51.3751259, "lon": -0.0475542, "tags": {"amenity": "bicycle_parking", "bicycle_parking": "stands", "capacity": "12", "ref:GB:tflcid": "RWG204440"}}, {"type": "node", "id": 10281998453, "lat": 51.3743816, "lon": -0.0506562, "tags": {"amenity": "bicycle_parking", "bicycle_parking": "stands", "capacity": "4", "ref:GB:tflcid": "RWG207417"}}, {"type": "node", "id": 10281998551, "lat": 51.3712922, "lon": -0.0956734, "tags": {"amenity": "bicycle_parking", "bicycle_parking": "stands", "capacity": "16", "ref:GB:tflcid": "RWG207808"}}, {"type": "node", "id": 10281998556, "lat": 51.3641619, "lon": -0.0810765, "tags": {"amenity": "bicycle_parking", "bicycle_parking": "stands", "capacity": "16", "ref:GB:tflcid": "RWG207617"}}, {"type": "node", "id": 10281998557, "lat": 51.3645587, "lon": -0.0798469, "tags": {"amenity": "bicycle_parking", "bicycle_parking": "stands", "capacity": "20", "ref:GB:tflcid": "RWG207273"}}, {"type": "node", "id": 10281998919, "lat": 51.3622336, "lon": -0.0947565, "tags": {"amenity": "bicycle_parking", "bicycle_parking": "stands", "capacity": "4", "ref:GB:tflcid": "RWG207616"}}, {"type": "node", "id": 10281998945, "lat": 51.3963931, "lon": -0.0696415, "tags": {"amenity": "bicycle_parking", "bicycle_parking": "stands", "capacity": "4", "ref:GB:tflcid": "RWG204497"}}, {"type": "node", "id": 10281998953, "lat": 51.3640812, "lon": -0.1516089, "tags": {"amenity": "bicycle_parking", "bicycle_parking": "stands", "capacity": "2", "ref:GB:tflcid": "RWG207538"}}, {"type": "node", "id": 10281998954, "lat": 51.3643418, "lon": -0.1517125, "tags": {"amenity": "bicycle_parking", "bicycle_parking": "stands", "capacity": "2", "ref:GB:tflcid": "RWG207537"}}, {"type": "node", "id": 10281998980, "lat": 51.3909168, "lon": -0.028206, "tags": {"amenity": "bicycle_parking", "bicycle_parking": "stands", "capacity": "6", "covered": "no", "ref:GB:tflcid": "RWG204325"}}, {"type": "node", "id": 10281999010, "lat": 51.3932383, "lon": -0.0857995, "tags": {"amenity": "bicycle_parking", "bicycle_parking": "stands", "capacity": "10", "ref:GB:tflcid": "RWG207612"}}, {"type": "node", "id": 10281999055, "lat": 51.3678286, "lon": -0.1322608, "tags": {"amenity": "bicycle_parking", "bicycle_parking": "stands", "capacity": "2", "ref:GB:tflcid": "RWG207565"}}, {"type": "node", "id": 10281999056, "lat": 51.3675371, "lon": -0.1317344, "tags": {"amenity": "bicycle_parking", "bicycle_parking": "stands", "capacity": "4", "ref:GB:tflcid": "RWG207522"}}, {"type": "node", "id": 10281999057, "lat": 51.3669797, "lon": -0.1320537, "tags": {"amenity": "bicycle_parking", "bicycle_parking": "stands", "capacity": "4", "ref:GB:tflcid": "RWG207586"}}, {"type": "node", "id": 10281999069, "lat": 51.3980188, "lon": -0.0772264, "tags": {"amenity": "bicycle_parking", "bicycle_parking": "stands", "capacity": "4", "covered": "no", "ref:GB:tflcid": "RWG204626"}}, {"type": "node", "id": 10281999081, "lat": 51.3685712, "lon": -0.1549559, "tags": {"amenity": "bicycle_parking", "bicycle_parking": "stands", "capacity": "4", "ref:GB:tflcid": "RWG207910"}}, {"type": "node", "id": 10282005131, "lat": 51.3979987, "lon": -0.0938765, "tags": {"amenity": "bicycle_parking", "bicycle_parking": "stands", "capacity": "2", "ref:GB:tflcid": "RWG207668"}}, {"type": "node", "id": 10282005132, "lat": 51.3981812, "lon": -0.0938246, "tags": {"amenity": "bicycle_parking", "bicycle_parking": "stands", "capacity": "2", "ref:GB:tflcid": "RWG207670"}}, {"type": "node", "id": 10282005140, "lat": 51.3975217, "lon": -0.0756528, "tags": {"amenity": "bicycle_parking", "bicycle_parking": "stands", "capacity": "6", "covered": "no", "ref:GB:tflcid": "RWG204337"}}, {"type": "node", "id": 10282005149, "lat": 51.3528978, "lon": -0.0599723, "tags": {"amenity": "bicycle_parking", "bicycle_parking": "stands", "capacity": "2", "ref:GB:tflcid": "RWG207885"}}, {"type": "node", "id": 10282005174, "lat": 51.3545095, "lon": -0.0423451, "tags": {"amenity": "bicycle_parking", "bicycle_parking": "stands", "capacity": "8", "check_date:capacity": "2025-09-21", "covered": "no", "ref:GB:tflcid": "RWG207879"}}, {"type": "node", "id": 10282005175, "lat": 51.3520641, "lon": -0.0381983, "tags": {"amenity": "bicycle_parking", "bicycle_parking": "stands", "capacity": "6", "ref:GB:tflcid": "RWG207630"}}, {"type": "node", "id": 10282005816, "lat": 51.3723061, "lon": -0.1012955, "tags": {"amenity": "bicycle_parking", "bicycle_parking": "stands", "capacity": "12", "ref:GB:tflcid": "RWG207574"}}, {"type": "node", "id": 10282005828, "lat": 51.3629414, "lon": -0.0970025, "tags": {"amenity": "bicycle_parking", "bicycle_parking": "stands", "capacity": "4", "ref:GB:tflcid": "RWG207615"}}, {"type": "node", "id": 10282005838, "lat": 51.3069983, "lon": -0.119806, "tags": {"amenity": "bicycle_parking", "bicycle_parking": "stands", "capacity": "4", "covered": "no", "ref:GB:tflcid": "RWG207789"}}, {"type": "node", "id": 10282005839, "lat": 51.3005291, "lon": -0.1172744, "tags": {"amenity": "bicycle_parking", "bicycle_parking": "stands", "capacity": "10", "ref:GB:tflcid": "RWG207795"}}, {"type": "node", "id": 10282005840, "lat": 51.300411, "lon": -0.1171742, "tags": {"amenity": "bicycle_parking", "bicycle_parking": "stands", "capacity": "2", "ref:GB:tflcid": "RWG207797"}}, {"type": "node", "id": 10282006023, "lat": 51.3530214, "lon": -0.060105, "tags": {"amenity": "bicycle_parking", "bicycle_parking": "stands", "capacity": "2", "ref:GB:tflcid": "RWG207884"}}, {"type": "node", "id": 10282006027, "lat": 51.3358474, "lon": -0.1135139, "tags": {"amenity": "bicycle_parking", "bicycle_parking": "stands", "capacity": "4", "ref:GB:tflcid": "RWG207776"}}, {"type": "node", "id": 10282006035, "lat": 51.3742952, "lon": -0.0510895, "tags": {"amenity": "bicycle_parking", "bicycle_parking": "stands", "capacity": "4", "ref:GB:tflcid": "RWG207416"}}, {"type": "node", "id": 10282006209, "lat": 51.3628829, "lon": -0.0969556, "tags": {"amenity": "bicycle_parking", "bicycle_parking": "stands", "capacity": "4", "ref:GB:tflcid": "RWG207614"}}, {"type": "node", "id": 10282006212, "lat": 51.3250924, "lon": -0.1015391, "tags": {"access": "customers", "amenity": "bicycle_parking", "bicycle_parking": "shed", "capacity": "50", "covered": "yes", "ref:GB:tflcid": "RWG207773"}}, {"type": "node", "id": 10282006213, "lat": 51.3488219, "lon": -0.0102454, "tags": {"amenity": "bicycle_parking", "bicycle_parking": "stands", "capacity": "12", "ref:GB:tflcid": "RWG204530"}}, {"type": "node", "id": 10282006233, "lat": 51.4164201, "lon": -0.152743, "tags": {"amenity": "bicycle_parking", "bicycle_parking": "stands", "capacity": "8", "ref:GB:tflcid": "RWG207306"}}, {"type": "node", "id": 10282006315, "lat": 51.3824112, "lon": -0.1152307, "tags": {"amenity": "bicycle_parking", "bicycle_parking": "stands", "capacity": "2", "ref:GB:tflcid": "RWG207675"}}, {"type": "node", "id": 10282006432, "lat": 51.4030367, "lon": -0.0364452, "tags": {"amenity": "bicycle_parking", "bicycle_parking": "stands", "capacity": "4", "covered": "no", "ref:GB:tflcid": "RWG204343"}}, {"type": "node", "id": 10282006436, "lat": 51.4060186, "lon": -0.0609467, "tags": {"access": "private", "amenity": "bicycle_parking", "bicycle_parking": "shed", "capacity": "6", "covered": "yes", "on_carriageway": "yes", "operator": "Cyclehoop Rentals", "ref:GB:tflcid": "RWG204412"}}, {"type": "node", "id": 10282006437, "lat": 51.3816575, "lon": -0.0929299, "tags": {"amenity": "bicycle_parking", "bicycle_parking": "stands", "capacity": "4", "ref:GB:tflcid": "RWG207440"}}, {"type": "node", "id": 10282006443, "lat": 51.4042263, "lon": -0.1553187, "tags": {"amenity": "bicycle_parking", "bicycle_parking": "stands", "capacity": "12", "ref:GB:tflcid": "RWG207436"}}, {"type": "node", "id": 10282006459, "lat": 51.3626086, "lon": -0.1283975, "tags": {"amenity": "bicycle_parking", "bicycle_parking": "stands", "capacity": "2", "ref:GB:tflcid": "RWG207496"}}, {"type": "node", "id": 10282006460, "lat": 51.360165, "lon": -0.1334519, "tags": {"amenity": "bicycle_parking", "bicycle_parking": "stands", "capacity": "4", "ref:GB:tflcid": "RWG207607"}}, {"type": "node", "id": 10282006469, "lat": 51.3923693, "lon": -0.093943, "tags": {"amenity": "bicycle_parking", "bicycle_parking": "stands", "capacity": "2", "ref:GB:tflcid": "RWG207638"}}, {"type": "node", "id": 10282006518, "lat": 51.4223724, "lon": -0.1061036, "tags": {"amenity": "bicycle_parking", "bicycle_parking": "stands", "capacity": "4", "ref:GB:tflcid": "RWG207310"}}, {"type": "node", "id": 10282006529, "lat": 51.3952694, "lon": -0.1453388, "tags": {"amenity": "bicycle_parking", "bicycle_parking": "stands", "capacity": "5", "ref:GB:tflcid": "RWG207424"}}, {"type": "node", "id": 10282007428, "lat": 51.391929, "lon": 0.0005164, "tags": {"amenity": "bicycle_parking", "bicycle_parking": "stands", "capacity": "4", "covered": "no", "ref:GB:tflcid": "RWG204342"}}, {"type": "node", "id": 10282007442, "lat": 51.3574734, "lon": -0.1484777, "tags": {"amenity": "bicycle_parking", "bicycle_parking": "stands", "capacity": "4", "ref:GB:tflcid": "RWG207690"}}, {"type": "node", "id": 10282007445, "lat": 51.3917592, "lon": -0.0380935, "tags": {"amenity": "bicycle_parking", "bicycle_parking": "wall_loops", "capacity": "5", "ref:GB:tflcid": "RWG204406"}}, {"type": "node", "id": 10282007446, "lat": 51.3919281, "lon": -0.037571, "tags": {"amenity": "bicycle_parking", "bicycle_parking": "stands", "capacity": "4", "ref:GB:tflcid": "RWG204407"}}, {"type": "node", "id": 10282007463, "lat": 51.3999478, "lon": -0.1328099, "tags": {"amenity": "bicycle_parking", "bicycle_parking": "stands", "capacity": "2", "ref:GB:tflcid": "RWG207387"}}, {"type": "node", "id": 10282007464, "lat": 51.3999811, "lon": -0.1330866, "tags": {"amenity": "bicycle_parking", "bicycle_parking": "stands", "capacity": "4", "ref:GB:tflcid": "RWG207385"}}, {"type": "node", "id": 10282007465, "lat": 51.3997323, "lon": -0.1332362, "tags": {"amenity": "bicycle_parking", "bicycle_parking": "stands", "capacity": "16", "ref:GB:tflcid": "RWG207390"}}, {"type": "node", "id": 10282007468, "lat": 51.4107551, "lon": -0.122711, "tags": {"amenity": "bicycle_parking", "bicycle_parking": "stands", "capacity": "4", "ref:GB:tflcid": "RWG207281"}}, {"type": "node", "id": 10282007479, "lat": 51.3997323, "lon": -0.1318113, "tags": {"amenity": "bicycle_parking", "bicycle_parking": "stands", "capacity": "6", "covered": "yes", "ref:GB:tflcid": "RWG207394"}}, {"type": "node", "id": 10282007480, "lat": 51.3998759, "lon": -0.130263, "tags": {"amenity": "bicycle_parking", "bicycle_parking": "stands", "capacity": "6", "ref:GB:tflcid": "RWG207478"}}, {"type": "node", "id": 10282007521, "lat": 51.3924624, "lon": 0.0019778, "tags": {"amenity": "bicycle_parking", "bicycle_parking": "stands", "capacity": "6", "covered": "no", "ref:GB:tflcid": "RWG204340"}}, {"type": "node", "id": 10282007522, "lat": 51.3565281, "lon": -0.0976748, "tags": {"amenity": "bicycle_parking", "bicycle_parking": "stands", "capacity": "4", "covered": "no", "ref:GB:tflcid": "RWG207624"}}, {"type": "node", "id": 10282007552, "lat": 51.3996507, "lon": -0.1313059, "tags": {"amenity": "bicycle_parking", "bicycle_parking": "stands", "capacity": "6", "covered": "yes", "ref:GB:tflcid": "RWG207477"}}, {"type": "node", "id": 10282007584, "lat": 51.3990489, "lon": -0.0411807, "tags": {"amenity": "bicycle_parking", "bicycle_parking": "stands", "capacity": "8", "covered": "no", "ref:GB:tflcid": "RWG204324"}}, {"type": "node", "id": 10282007614, "lat": 51.373053, "lon": -0.123041, "tags": {"amenity": "bicycle_parking", "capacity": "10", "covered": "yes", "ref:GB:tflcid": "RWG207564"}}, {"type": "node", "id": 10282007616, "lat": 51.3559565, "lon": -0.1152763, "tags": {"amenity": "bicycle_parking", "bicycle_parking": "stands", "capacity": "8", "ref:GB:tflcid": "RWG207507"}}, {"type": "node", "id": 10282007621, "lat": 51.4186428, "lon": -0.1437806, "tags": {"amenity": "bicycle_parking", "bicycle_parking": "stands", "capacity": "4", "ref:GB:tflcid": "RWG110325"}}, {"type": "node", "id": 10282007627, "lat": 51.3861278, "lon": -0.0403692, "tags": {"amenity": "bicycle_parking", "bicycle_parking": "stands", "capacity": "6", "ref:GB:tflcid": "RWG204389"}}, {"type": "node", "id": 10282007629, "lat": 51.4151183, "lon": -0.0742293, "tags": {"access": "private", "amenity": "bicycle_parking", "bicycle_parking": "shed", "capacity": "6", "covered": "yes", "on_carriageway": "yes", "operator": "Cyclehoop Rentals", "ref:GB:tflcid": "RWG204601"}}, {"type": "node", "id": 10282007636, "lat": 51.4113054, "lon": -0.1232669, "tags": {"amenity": "bicycle_parking", "bicycle_parking": "stands", "capacity": "4", "ref:GB:tflcid": "RWG207277"}}, {"type": "node", "id": 10282007731, "lat": 51.3855831, "lon": -0.1286644, "tags": {"amenity": "bicycle_parking", "bicycle_parking": "stands", "capacity": "10", "ref:GB:tflcid": "RWG207731"}}, {"type": "node", "id": 10282007732, "lat": 51.3801751, "lon": -0.1251051, "tags": {"amenity": "bicycle_parking", "bicycle_parking": "stands", "capacity": "2", "ref:GB:tflcid": "RWG207640"}}, {"type": "node", "id": 10282007733, "lat": 51.380765, "lon": -0.1233968, "tags": {"amenity": "bicycle_parking", "bicycle_parking": "stands", "capacity": "8", "ref:GB:tflcid": "RWG207639"}}, {"type": "node", "id": 10282007734, "lat": 51.3924305, "lon": 0.0022606, "tags": {"amenity": "bicycle_parking", "bicycle_parking": "stands", "capacity": "6", "covered": "no", "ref:GB:tflcid": "RWG204339"}}, {"type": "node", "id": 10282007735, "lat": 51.3922685, "lon": 0.0014407, "tags": {"amenity": "bicycle_parking", "bicycle_parking": "stands", "capacity": "4", "covered": "no", "ref:GB:tflcid": "RWG204341"}}, {"type": "node", "id": 10282007740, "lat": 51.3536134, "lon": -0.0976949, "tags": {"amenity": "bicycle_parking", "bicycle_parking": "stands", "capacity": "4", "covered": "no", "ref:GB:tflcid": "RWG207628"}}, {"type": "node", "id": 10282007741, "lat": 51.3542011, "lon": -0.0976791, "tags": {"amenity": "bicycle_parking", "bicycle_parking": "stands", "capacity": "4", "covered": "no", "ref:GB:tflcid": "RWG207625"}}, {"type": "node", "id": 10282007742, "lat": 51.3530466, "lon": -0.0981235, "tags": {"amenity": "bicycle_parking", "bicycle_parking": "stands", "capacity": "4", "covered": "no", "ref:GB:tflcid": "RWG207707"}}, {"type": "node", "id": 10282007763, "lat": 51.4190255, "lon": -0.1437224, "tags": {"amenity": "bicycle_parking", "bicycle_parking": "wall_loops", "capacity": "10", "ref:GB:tflcid": "RWG110327"}}, {"type": "node", "id": 10282007764, "lat": 51.4196595, "lon": -0.146894, "tags": {"amenity": "bicycle_parking", "bicycle_parking": "stands", "capacity": "4", "ref:GB:tflcid": "RWG110217"}}, {"type": "node", "id": 10282007765, "lat": 51.420547, "lon": -0.1463128, "tags": {"amenity": "bicycle_parking", "bicycle_parking": "stands", "capacity": "4", "ref:GB:tflcid": "RWG110218"}}, {"type": "node", "id": 10282007778, "lat": 51.3571292, "lon": -0.1494136, "tags": {"amenity": "bicycle_parking", "bicycle_parking": "stands", "capacity": "4", "ref:GB:tflcid": "RWG207520"}}, {"type": "node", "id": 10282007779, "lat": 51.3576279, "lon": -0.147872, "tags": {"amenity": "bicycle_parking", "bicycle_parking": "stands", "capacity": "4", "ref:GB:tflcid": "RWG207688"}}, {"type": "node", "id": 10282007783, "lat": 51.3859897, "lon": -0.040405, "tags": {"amenity": "bicycle_parking", "bicycle_parking": "stands", "capacity": "4", "ref:GB:tflcid": "RWG204390"}}, {"type": "node", "id": 10282007786, "lat": 51.4157328, "lon": -0.0767228, "tags": {"access": "private", "amenity": "bicycle_parking", "bicycle_lock": "provided", "bicycle_parking": "shed", "capacity": "6", "covered": "yes", "operator": "Cyclehoop Rentals", "ref:GB:tflcid": "RWG293343"}}, {"type": "node", "id": 10282007787, "lat": 51.4155609, "lon": -0.0733802, "tags": {"access": "private", "amenity": "bicycle_parking", "bicycle_parking": "shed", "capacity": "6", "covered": "yes", "on_carriageway": "yes", "operator": "Cyclehoop Rentals", "ref:GB:tflcid": "RWG293344"}}, {"type": "node", "id": 10282007807, "lat": 51.3999209, "lon": -0.1326936, "tags": {"amenity": "bicycle_parking", "bicycle_parking": "stands", "capacity": "12", "ref:GB:tflcid": "RWG207391"}}, {"type": "node", "id": 10282007835, "lat": 51.3849258, "lon": -0.1094833, "tags": {"amenity": "bicycle_parking", "bicycle_parking": "stands", "capacity": "4", "covered": "no", "ref:GB:tflcid": "RWG292466"}}, {"type": "node", "id": 10282007842, "lat": 51.3799714, "lon": -0.1555243, "tags": {"amenity": "bicycle_parking", "bicycle_parking": "stands", "capacity": "16", "ref:GB:tflcid": "RWG207592"}}, {"type": "node", "id": 10282007864, "lat": 51.3404693, "lon": -0.011847, "tags": {"amenity": "bicycle_parking", "bicycle_parking": "stands", "capacity": "4", "ref:GB:tflcid": "RWG204435"}}, {"type": "node", "id": 10282007881, "lat": 51.3443483, "lon": -0.0063001, "tags": {"amenity": "bicycle_parking", "bicycle_parking": "stands", "capacity": "2", "ref:GB:tflcid": "RWG204446"}}, {"type": "node", "id": 10282007908, "lat": 51.4115461, "lon": -0.0117744, "tags": {"access": "private", "amenity": "bicycle_parking", "bicycle_parking": "shed", "capacity": "6", "covered": "yes", "operator": "Cyclehoop Rentals", "ref:GB:tflcid": "RWG204410"}}, {"type": "node", "id": 10282007912, "lat": 51.3561254, "lon": -0.1135199, "tags": {"amenity": "bicycle_parking", "bicycle_parking": "stands", "capacity": "20", "ref:GB:tflcid": "RWG207508"}}, {"type": "node", "id": 10282007913, "lat": 51.3564891, "lon": -0.1158767, "tags": {"amenity": "bicycle_parking", "bicycle_parking": "stands", "capacity": "16", "ref:GB:tflcid": "RWG207511"}}, {"type": "node", "id": 10282007917, "lat": 51.3574546, "lon": -0.1485393, "tags": {"amenity": "bicycle_parking", "bicycle_parking": "stands", "capacity": "4", "ref:GB:tflcid": "RWG207691"}}, {"type": "node", "id": 10282007932, "lat": 51.3989283, "lon": -0.0423319, "tags": {"amenity": "bicycle_parking", "bicycle_parking": "stands", "capacity": "6", "covered": "no", "ref:GB:tflcid": "RWG204323"}}, {"type": "node", "id": 10282007967, "lat": 51.3828547, "lon": -0.1073318, "tags": {"amenity": "bicycle_parking", "bicycle_parking": "stands", "capacity": "8", "ref:GB:tflcid": "RWG207561"}}, {"type": "node", "id": 10282007975, "lat": 51.3897065, "lon": -0.1061573, "tags": {"amenity": "bicycle_parking", "bicycle_parking": "stands", "capacity": "4", "ref:GB:tflcid": "RWG207837"}}, {"type": "node", "id": 10282007997, "lat": 51.3570472, "lon": -0.123806, "tags": {"amenity": "bicycle_parking", "bicycle_parking": "stands", "capacity": "1", "ref:GB:tflcid": "RWG207530"}}, {"type": "node", "id": 10282008326, "lat": 51.4184743, "lon": -0.0186597, "tags": {"amenity": "bicycle_parking", "bicycle_parking": "stands", "capacity": "2", "covered": "yes", "ref:GB:tflcid": "RWG204345"}}, {"type": "node", "id": 10282008327, "lat": 51.4187333, "lon": -0.0184885, "tags": {"amenity": "bicycle_parking", "bicycle_parking": "stands", "capacity": "4", "covered": "yes", "ref:GB:tflcid": "RWG204346"}}, {"type": "node", "id": 10282008342, "lat": 51.3550299, "lon": -0.1617335, "tags": {"amenity": "bicycle_parking", "bicycle_parking": "stands", "capacity": "4", "ref:GB:tflcid": "RWG207457"}}, {"type": "node", "id": 10282008350, "lat": 51.3874521, "lon": -0.1110663, "tags": {"amenity": "bicycle_parking", "bicycle_parking": "stands", "capacity": "2", "ref:GB:tflcid": "RWG207605"}}, {"type": "node", "id": 10282008377, "lat": 51.3338264, "lon": -0.0766781, "tags": {"access": "yes", "amenity": "bicycle_parking", "bicycle_parking": "stands", "capacity": "4", "covered": "no", "ref:GB:tflcid": "RWG207662"}}, {"type": "node", "id": 10282008401, "lat": 51.3404717, "lon": -0.0120091, "tags": {"amenity": "bicycle_parking", "bicycle_parking": "stands", "capacity": "4", "ref:GB:tflcid": "RWG204434"}}, {"type": "node", "id": 10282008814, "lat": 51.3894996, "lon": -0.1064957, "tags": {"amenity": "bicycle_parking", "bicycle_parking": "stands", "capacity": "2", "ref:GB:tflcid": "RWG207838"}}, {"type": "node", "id": 10282008838, "lat": 51.392675, "lon": -0.1575368, "tags": {"amenity": "bicycle_parking", "bicycle_parking": "stands", "capacity": "16", "covered": "no", "ref:GB:tflcid": "RWG207420"}}, {"type": "node", "id": 10282008840, "lat": 51.4180751, "lon": -0.0912364, "tags": {"amenity": "bicycle_parking", "bicycle_parking": "stands", "capacity": "6", "ref:GB:tflcid": "RWG207308"}}, {"type": "node", "id": 10282009609, "lat": 51.4107404, "lon": -0.0676612, "tags": {"amenity": "bicycle_parking", "bicycle_lock": "bring_own", "bicycle_parking": "lockers", "capacity": "2", "ref:GB:tflcid": "RWG204334"}}, {"type": "node", "id": 10282009626, "lat": 51.3793706, "lon": -0.1559116, "tags": {"amenity": "bicycle_parking", "bicycle_parking": "stands", "capacity": "4", "covered": "no", "ref:GB:tflcid": "RWG207595"}}, {"type": "node", "id": 10282009628, "lat": 51.3681647, "lon": -0.1186267, "tags": {"amenity": "bicycle_parking", "bicycle_parking": "stands", "capacity": "2", "ref:GB:tflcid": "RWG207485"}}, {"type": "node", "id": 10282009660, "lat": 51.3767964, "lon": -0.0602851, "tags": {"amenity": "bicycle_parking", "bicycle_parking": "stands", "capacity": "4", "ref:GB:tflcid": "RWG207400"}}, {"type": "node", "id": 10282009687, "lat": 51.4179159, "lon": -0.161686, "tags": {"amenity": "bicycle_parking", "bicycle_parking": "stands", "capacity": "2", "ref:GB:tflcid": "RWG207276"}}, {"type": "node", "id": 10282009701, "lat": 51.3616283, "lon": -0.140145, "tags": {"amenity": "bicycle_parking", "bicycle_parking": "stands", "capacity": "2", "ref:GB:tflcid": "RWG207510"}}, {"type": "node", "id": 10282009702, "lat": 51.3595936, "lon": -0.1387604, "tags": {"amenity": "bicycle_parking", "bicycle_parking": "stands", "capacity": "4", "ref:GB:tflcid": "RWG207531"}}, {"type": "node", "id": 10282010023, "lat": 51.4103994, "lon": -0.1228068, "tags": {"amenity": "bicycle_parking", "bicycle_parking": "stands", "capacity": "2", "ref:GB:tflcid": "RWG207279"}}, {"type": "node", "id": 10282010026, "lat": 51.3999137, "lon": -0.131849, "tags": {"amenity": "bicycle_parking", "bicycle_parking": "stands", "capacity": "4", "ref:GB:tflcid": "RWG207393"}}, {"type": "node", "id": 10282010409, "lat": 51.4107362, "lon": -0.1227047, "tags": {"amenity": "bicycle_parking", "bicycle_parking": "stands", "capacity": "4", "ref:GB:tflcid": "RWG207280"}}, {"type": "node", "id": 10282010424, "lat": 51.3556299, "lon": -0.1177847, "tags": {"amenity": "bicycle_parking", "bicycle_parking": "stands", "capacity": "10", "covered": "yes", "ref:GB:tflcid": "RWG207521"}}, {"type": "node", "id": 10282010425, "lat": 51.3849338, "lon": -0.0750187, "tags": {"amenity": "bicycle_parking", "bicycle_parking": "stands", "capacity": "4", "ref:GB:tflcid": "RWG207887"}}, {"type": "node", "id": 10282010445, "lat": 51.4050928, "lon": -0.1522644, "tags": {"amenity": "bicycle_parking", "bicycle_parking": "stands", "capacity": "12", "ref:GB:tflcid": "RWG207428"}}, {"type": "node", "id": 10282010472, "lat": 51.4166192, "lon": -0.1524471, "tags": {"amenity": "bicycle_parking", "bicycle_parking": "stands", "capacity": "6", "ref:GB:tflcid": "RWG207307"}}, {"type": "node", "id": 10282010475, "lat": 51.3936606, "lon": -0.0672737, "tags": {"amenity": "bicycle_parking", "bicycle_parking": "stands", "capacity": "16", "covered": "yes", "fee": "no", "ref:GB:tflcid": "RWG204491"}}, {"type": "node", "id": 10282010488, "lat": 51.3931607, "lon": -0.1245063, "tags": {"amenity": "bicycle_parking", "bicycle_parking": "stands", "capacity": "8", "ref:GB:tflcid": "RWG207369"}}, {"type": "node", "id": 10282010490, "lat": 51.3772038, "lon": -0.0279334, "tags": {"amenity": "bicycle_parking", "bicycle_parking": "stands", "capacity": "8", "covered": "no", "ref:GB:tflcid": "RWG204597"}}, {"type": "node", "id": 10282010491, "lat": 51.4059428, "lon": -0.0667912, "tags": {"amenity": "bicycle_parking", "bicycle_parking": "stands", "capacity": "10", "covered": "yes", "ref:GB:tflcid": "RWG204462"}}, {"type": "node", "id": 10282013816, "lat": 51.386914, "lon": -0.0814663, "tags": {"amenity": "bicycle_parking", "bicycle_parking": "stands", "capacity": "10", "covered": "yes", "ref:GB:tflcid": "RWG207897"}}, {"type": "node", "id": 10282013817, "lat": 51.3724917, "lon": -0.1187881, "tags": {"amenity": "bicycle_parking", "capacity": "24", "covered": "yes", "ref:GB:tflcid": "RWG207495"}}, {"type": "node", "id": 10282013818, "lat": 51.3330277, "lon": -0.0762371, "tags": {"amenity": "bicycle_parking", "bicycle_parking": "stands", "capacity": "4", "ref:GB:tflcid": "RWG207650"}}, {"type": "node", "id": 10282013837, "lat": 51.4036619, "lon": -0.1521156, "tags": {"amenity": "bicycle_parking", "bicycle_parking": "stands", "capacity": "12", "ref:GB:tflcid": "RWG207396"}}, {"type": "node", "id": 10282013846, "lat": 51.3826034, "lon": -0.0637844, "tags": {"amenity": "bicycle_parking", "capacity": "10", "ref:GB:tflcid": "RWG204456"}}, {"type": "node", "id": 10282013849, "lat": 51.408454, "lon": -0.0986819, "tags": {"amenity": "bicycle_parking", "bicycle_parking": "stands", "capacity": "4", "ref:GB:tflcid": "RWG207331"}}, {"type": "node", "id": 10282015216, "lat": 51.3986773, "lon": -0.0430963, "tags": {"amenity": "bicycle_parking", "bicycle_parking": "stands", "capacity": "6", "ref:GB:tflcid": "RWG204322"}}, {"type": "node", "id": 10282015217, "lat": 51.3990325, "lon": -0.0405202, "tags": {"amenity": "bicycle_parking", "bicycle_parking": "stands", "capacity": "8", "covered": "no", "ref:GB:tflcid": "RWG204349"}}, {"type": "node", "id": 10282015728, "lat": 51.4145712, "lon": -0.1238693, "tags": {"amenity": "bicycle_parking", "bicycle_parking": "stands", "capacity": "14", "covered": "yes", "ref:GB:tflcid": "RWG207309"}}, {"type": "node", "id": 10282015732, "lat": 51.3992536, "lon": -0.0183837, "tags": {"amenity": "bicycle_parking", "bicycle_parking": "stands", "capacity": "6", "covered": "no", "ref:GB:tflcid": "RWG278501"}}, {"type": "node", "id": 10282015819, "lat": 51.3571599, "lon": -0.0412637, "tags": {"amenity": "bicycle_parking", "bicycle_parking": "stands", "capacity": "6", "ref:GB:tflcid": "RWG207526"}}, {"type": "node", "id": 10282016921, "lat": 51.3199701, "lon": -0.0648018, "tags": {"amenity": "bicycle_parking", "bicycle_parking": "stands", "capacity": "4", "ref:GB:tflcid": "RWG207626"}}, {"type": "node", "id": 10282016922, "lat": 51.320264, "lon": -0.0650579, "tags": {"amenity": "bicycle_parking", "bicycle_parking": "stands", "capacity": "4", "ref:GB:tflcid": "RWG207627"}}, {"type": "node", "id": 10282016928, "lat": 51.3899266, "lon": -0.0262285, "tags": {"amenity": "bicycle_parking", "bicycle_parking": "stands", "bicycle_parking:stands": "m_stand", "capacity": "20", "covered": "yes", "ref:GB:tflcid": "RWG204327"}}, {"type": "node", "id": 10282019417, "lat": 51.3885821, "lon": -0.0521147, "tags": {"amenity": "bicycle_parking", "bicycle_parking": "stands", "capacity": "2", "ref:GB:tflcid": "RWG204528"}}, {"type": "node", "id": 10282019418, "lat": 51.3995084, "lon": -0.0603924, "tags": {"amenity": "bicycle_parking", "bicycle_parking": "stands", "capacity": "16", "covered": "no", "ref:GB:tflcid": "RWG204442"}}, {"type": "node", "id": 10282019419, "lat": 51.4193982, "lon": -0.0787604, "tags": {"amenity": "bicycle_parking", "bicycle_parking": "stands", "capacity": "4", "ref:GB:tflcid": "RWG204624"}}, {"type": "node", "id": 10282021822, "lat": 51.4063983, "lon": -0.0272869, "tags": {"amenity": "bicycle_parking", "bicycle_parking": "stands", "capacity": "10", "covered": "yes", "ref:GB:tflcid": "RWG291871"}}, {"type": "node", "id": 10282021823, "lat": 51.4069086, "lon": -0.0168948, "tags": {"amenity": "bicycle_parking", "bicycle_parking": "stands", "capacity": "4", "ref:GB:tflcid": "RWG204454"}}, {"type": "node", "id": 10282021828, "lat": 51.3442964, "lon": -0.0066726, "tags": {"amenity": "bicycle_parking", "bicycle_parking": "stands", "capacity": "2", "ref:GB:tflcid": "RWG204445"}}, {"type": "node", "id": 10282021851, "lat": 51.3762976, "lon": -0.0596624, "tags": {"amenity": "bicycle_parking", "bicycle_parking": "stands", "capacity": "4", "covered": "no", "ref:GB:tflcid": "RWG207399"}}, {"type": "node", "id": 10282024109, "lat": 51.4100277, "lon": -0.0118169, "tags": {"amenity": "bicycle_parking", "capacity": "24", "covered": "yes", "ref:GB:tflcid": "RWG204411"}}, {"type": "node", "id": 10282024112, "lat": 51.3748294, "lon": -0.077433, "tags": {"amenity": "bicycle_parking", "bicycle_parking": "stands", "capacity": "6", "ref:GB:tflcid": "RWG207812"}}, {"type": "node", "id": 10282024113, "lat": 51.3748216, "lon": -0.0773944, "tags": {"amenity": "bicycle_parking", "bicycle_parking": "stands", "capacity": "8", "ref:GB:tflcid": "RWG207813"}}, {"type": "node", "id": 10282027015, "lat": 51.4167708, "lon": -0.0792847, "tags": {"access": "private", "amenity": "bicycle_parking", "bicycle_parking": "shed", "capacity": "6", "covered": "yes", "on_carriageway": "yes", "operator": "Cyclehoop Rentals", "ref:GB:tflcid": "RWG204477"}}, {"type": "node", "id": 10282027037, "lat": 51.3831958, "lon": -0.0528249, "tags": {"amenity": "bicycle_parking", "bicycle_parking": "stands", "capacity": "6", "ref:GB:tflcid": "RWG278493"}}, {"type": "node", "id": 10282027038, "lat": 51.4018508, "lon": -0.0838909, "tags": {"amenity": "bicycle_parking", "bicycle_parking": "stands", "capacity": "6", "ref:GB:tflcid": "RWG204348"}}, {"type": "node", "id": 10282027039, "lat": 51.3920842, "lon": -0.080148, "tags": {"amenity": "bicycle_parking", "bicycle_parking": "stands", "capacity": "12", "covered": "yes", "ref:GB:tflcid": "RWG207611"}}, {"type": "node", "id": 10282033311, "lat": 51.4063217, "lon": 0.0026527, "tags": {"amenity": "bicycle_parking", "bicycle_parking": "stands", "capacity": "8", "covered": "no", "ref:GB:tflcid": "RWG204439"}}, {"type": "node", "id": 10282034416, "lat": 51.3930572, "lon": -0.1579441, "tags": {"amenity": "bicycle_parking", "bicycle_parking": "stands", "capacity": "6", "ref:GB:tflcid": "RWG207411"}}, {"type": "node", "id": 10308304781, "lat": 51.418757, "lon": -0.0505885, "tags": {"access": "private", "amenity": "bicycle_parking", "bicycle_parking": "lockers", "capacity": "5", "covered": "yes"}}, {"type": "node", "id": 10308304786, "lat": 51.4186488, "lon": -0.0506749, "tags": {"access": "private", "amenity": "bicycle_parking", "bicycle_parking": "lockers", "capacity": "5", "covered": "yes"}}, {"type": "node", "id": 10594509433, "lat": 51.4109086, "lon": -0.0252251, "tags": {"amenity": "bicycle_parking", "bicycle_parking": "stands", "capacity": "12", "covered": "yes"}}, {"type": "node", "id": 10632715802, "lat": 51.3780433, "lon": -0.1260945, "tags": {"access": "yes", "amenity": "bicycle_parking", "bicycle_parking": "stands", "capacity": "14", "covered": "yes", "fee": "no"}}, {"type": "node", "id": 10632724838, "lat": 51.3772282, "lon": -0.1187731, "tags": {"access": "customers", "amenity": "bicycle_parking", "bicycle_parking": "rack", "capacity": "3", "covered": "yes"}}, {"type": "node", "id": 10655196742, "lat": 51.4186796, "lon": -0.1278837, "tags": {"access": "yes", "amenity": "bicycle_parking", "bicycle_parking": "stands", "capacity": "8", "covered": "no", "fee": "no", "indoor": "no", "level": "0", "lit": "no", "source": "survey"}}, {"type": "node", "id": 10655525485, "lat": 51.3770659, "lon": -0.1189363, "tags": {"access": "yes", "amenity": "bicycle_parking", "bicycle_parking": "stands", "capacity": "12", "covered": "no", "fee": "no"}}, {"type": "node", "id": 10702804584, "lat": 51.3892754, "lon": -0.1418589, "tags": {"amenity": "bicycle_parking", "bicycle_parking": "stands", "capacity": "12", "covered": "no"}}, {"type": "node", "id": 10883991085, "lat": 51.4076454, "lon": -0.0270384, "tags": {"access": "yes", "amenity": "bicycle_parking", "bicycle_parking": "stands", "capacity": "2", "covered": "no", "fee": "no"}}, {"type": "node", "id": 10945454647, "lat": 51.4112845, "lon": -0.0691257, "tags": {"amenity": "bicycle_parking", "bicycle_parking": "rack", "capacity": "25", "covered": "no", "name": "Scooter Rack"}}, {"type": "node", "id": 10949404488, "lat": 51.400047, "lon": -0.0752942, "tags": {"access": "yes", "amenity": "bicycle_parking", "bicycle_parking": "stands", "capacity": "6", "covered": "no", "fee": "no"}}, {"type": "node", "id": 11003064987, "lat": 51.4085861, "lon": -0.0403283, "tags": {"access": "customers", "amenity": "bicycle_parking", "bicycle_parking": "shed", "bike_ride": "yes", "covered": "yes", "fee": "yes", "level": "0", "name": "Clock House Cycle Hub", "operator": "Cycle Hub", "source": "survey"}}, {"type": "node", "id": 11021212913, "lat": 51.3738803, "lon": 0.001468, "tags": {"amenity": "bicycle_parking", "bicycle_parking": "stands", "capacity": "4", "covered": "no"}}, {"type": "node", "id": 11083987142, "lat": 51.418935, "lon": -0.064118, "tags": {"amenity": "bicycle_parking", "bicycle_parking": "stands", "capacity": "8", "cover": "No"}}, {"type": "node", "id": 11108714869, "lat": 51.3911116, "lon": -0.065471, "tags": {"amenity": "bicycle_parking", "bicycle_parking": "stands", "capacity": "4", "covered": "no", "fee": "no", "ref:GB:tflcid": "RWG204447"}}, {"type": "node", "id": 11108714870, "lat": 51.3912886, "lon": -0.0655864, "tags": {"amenity": "bicycle_parking", "bicycle_parking": "stands", "capacity": "4", "covered": "no", "fee": "no", "ref:GB:tflcid": "RWG204447"}}, {"type": "node", "id": 11137858179, "lat": 51.4202573, "lon": -0.0151628, "tags": {"amenity": "bicycle_parking", "bicycle_parking": "stands", "capacity": "16", "covered": "no", "fee": "no"}}, {"type": "node", "id": 11173146606, "lat": 51.3797159, "lon": -0.1555271, "tags": {"amenity": "bicycle_parking"}}, {"type": "node", "id": 11173146607, "lat": 51.379904, "lon": -0.155493, "tags": {"amenity": "bicycle_parking"}}, {"type": "node", "id": 11235790798, "lat": 51.3408845, "lon": -0.0157181, "tags": {"amenity": "bicycle_parking", "bicycle_parking": "stands", "capacity": "16", "ref:GB:tflcid": "RWG204418"}}, {"type": "node", "id": 11240550703, "lat": 51.4153489, "lon": -0.0545388, "tags": {"access": "yes", "amenity": "bicycle_parking", "bicycle_parking": "stands", "capacity": "4", "covered": "no", "fee": "no"}}, {"type": "node", "id": 11240550704, "lat": 51.4152873, "lon": -0.0544625, "tags": {"access": "yes", "amenity": "bicycle_parking", "bicycle_parking": "stands", "capacity": "2", "covered": "no", "fee": "no"}}, {"type": "node", "id": 11240560962, "lat": 51.4156431, "lon": -0.0531796, "tags": {"access": "yes", "amenity": "bicycle_parking", "capacity": "6", "covered": "no", "fee": "no"}}, {"type": "node", "id": 11266956469, "lat": 51.3560155, "lon": -0.020888, "tags": {"amenity": "bicycle_parking"}}, {"type": "node", "id": 11309125680, "lat": 51.4074907, "lon": -0.0274319, "tags": {"access": "yes", "amenity": "bicycle_parking", "bicycle_parking": "stands", "capacity": "1", "covered": "no", "fee": "no"}}, {"type": "node", "id": 11309125684, "lat": 51.4066087, "lon": -0.0285931, "tags": {"access": "yes", "amenity": "bicycle_parking", "bicycle_parking": "stands", "capacity": "4", "covered": "no"}}, {"type": "node", "id": 11346452097, "lat": 51.3532617, "lon": -0.1337966, "tags": {"amenity": "bicycle_parking", "bicycle_parking": "stands", "capacity": "4", "covered": "no"}}, {"type": "node", "id": 11346452101, "lat": 51.3533298, "lon": -0.1347266, "tags": {"amenity": "bicycle_parking", "bicycle_parking": "stands", "capacity": "6", "covered": "no"}}, {"type": "node", "id": 11451672559, "lat": 51.4197209, "lon": -0.0153953, "tags": {"amenity": "bicycle_parking", "bicycle_parking": "stands", "capacity": "14", "covered": "no"}}, {"type": "node", "id": 11499741764, "lat": 51.3745513, "lon": -0.1094173, "tags": {"amenity": "bicycle_parking", "bicycle_parking": "streetpod", "capacity": "6", "covered": "no"}}, {"type": "node", "id": 11499741765, "lat": 51.374563, "lon": -0.1095255, "tags": {"amenity": "bicycle_parking", "bicycle_parking": "stands", "capacity": "8", "covered": "no"}}, {"type": "node", "id": 11512367592, "lat": 51.381583, "lon": -0.0146515, "tags": {"access": "customers", "amenity": "bicycle_parking", "bicycle_parking": "wide_stands", "capacity": "10", "covered": "yes"}}, {"type": "node", "id": 11898722110, "lat": 51.359542, "lon": -0.1392647, "tags": {"amenity": "bicycle_parking", "bicycle_parking": "stands", "capacity": "4", "covered": "no"}}, {"type": "node", "id": 11965997836, "lat": 51.4204725, "lon": -0.0214648, "tags": {"access": "yes", "amenity": "bicycle_parking", "bicycle_parking": "stands", "capacity": "4", "covered": "no", "fee": "no"}}, {"type": "node", "id": 12052798520, "lat": 51.4200219, "lon": -0.0650433, "tags": {"amenity": "bicycle_parking", "bicycle_parking": "wall_loops", "capacity": "8", "covered": "no", "fee": "no"}}, {"type": "node", "id": 12057053708, "lat": 51.3219348, "lon": -0.1346888, "tags": {"amenity": "bicycle_parking", "bicycle_parking": "two-tier", "covered": "yes"}}, {"type": "node", "id": 12146403492, "lat": 51.4166293, "lon": -0.0354154, "tags": {"amenity": "bicycle_parking", "bicycle_parking": "stands", "capacity": "10", "covered": "yes", "fee": "no"}}, {"type": "node", "id": 12146403493, "lat": 51.4165841, "lon": -0.0354315, "tags": {"amenity": "bicycle_parking", "bicycle_parking": "stands", "capacity": "10", "covered": "yes", "fee": "no"}}, {"type": "node", "id": 12178206029, "lat": 51.4192175, "lon": -0.0538966, "tags": {"access": "yes", "amenity": "bicycle_parking", "bicycle_parking": "stands", "capacity": "4", "covered": "yes", "fee": "no"}}, {"type": "node", "id": 12384339915, "lat": 51.4110158, "lon": -0.1616699, "tags": {"amenity": "bicycle_parking"}}, {"type": "node", "id": 12384339916, "lat": 51.4107915, "lon": -0.161736, "tags": {"amenity": "bicycle_parking"}}, {"type": "node", "id": 12426283302, "lat": 51.3726003, "lon": -0.0963198, "tags": {"amenity": "bicycle_parking", "bicycle_parking": "stands", "capacity": "10"}}, {"type": "node", "id": 12426283303, "lat": 51.3719571, "lon": -0.0962815, "tags": {"amenity": "bicycle_parking", "bicycle_parking": "stands", "capacity": "12"}}, {"type": "node", "id": 12526490467, "lat": 51.4125161, "lon": -0.1544128, "tags": {"amenity": "bicycle_parking"}}, {"type": "node", "id": 12774825319, "lat": 51.4173041, "lon": -0.1266762, "tags": {"access": "yes", "amenity": "bicycle_parking", "bicycle_parking": "stands", "capacity": "1", "check_date": "2025-04-22", "covered": "no", "fee": "no", "source": "survey ch"}}, {"type": "node", "id": 12921187801, "lat": 51.3939303, "lon": -0.1103855, "tags": {"amenity": "bicycle_parking"}}, {"type": "node", "id": 13015829043, "lat": 51.4190393, "lon": -0.1295205, "tags": {"amenity": "bicycle_parking", "bicycle_parking": "stands", "capacity": "10", "covered": "no"}}, {"type": "node", "id": 13265139906, "lat": 51.3924839, "lon": -0.0605116, "tags": {"amenity": "bicycle_parking"}}, {"type": "node", "id": 13329950255, "lat": 51.4118621, "lon": -0.1249163, "tags": {"amenity": "bicycle_parking", "bicycle_parking": "wall_loops", "capacity": "4", "covered": "no"}}, {"type": "node", "id": 13464024992, "lat": 51.4012, "lon": -0.0695435, "tags": {"amenity": "bicycle_parking", "bicycle_parking": "lockers"}}, {"type": "node", "id": 13517492682, "lat": 51.4179544, "lon": -0.0764074, "tags": {"access": "private", "amenity": "bicycle_parking", "bicycle_parking": "lockers", "capacity": "6", "colour": "darkgreen", "covered": "yes", "fee": "yes", "operator": "cyclehoop", "operator:type": "local_authority"}}, {"type": "way", "id": 351118789, "center": {"lat": 51.3378434, "lon": -0.1144553}, "nodes": [3568419593, 3568419594, 3568419595, 3568419596, 3568419593], "tags": {"amenity": "bicycle_parking", "bicycle_parking": "stands", "capacity": "30", "covered": "yes", "fee": "no"}}, {"type": "way", "id": 513704130, "center": {"lat": 51.4178542, "lon": -0.0735794}, "nodes": [5020811593, 5020811594, 5020811595, 5020811596, 5020811593], "tags": {"access": "yes", "amenity": "bicycle_parking", "bicycle_parking": "stands", "capacity": "12", "covered": "yes", "fee": "no", "shelter_type": "bicycle_parking"}}, {"type": "way", "id": 640731473, "center": {"lat": 51.4232924, "lon": -0.0222897}, "nodes": [6035741432, 6035741433, 6035741434, 6035741435, 6035741432], "tags": {"access": "customers", "amenity": "bicycle_parking", "bicycle_parking": "shed", "covered": "yes", "operator": "Sedgehill School", "wheelchair": "yes"}}, {"type": "way", "id": 1053151409, "center": {"lat": 51.3578397, "lon": -0.0219994}, "nodes": [9678428102, 9678428103, 9678428104, 9678428105, 9678428102], "tags": {"amenity": "bicycle_parking", "bicycle_parking": "stands", "building": "roof", "covered": "yes"}}, {"type": "way", "id": 1178233349, "center": {"lat": 51.4108052, "lon": -0.0685103}, "nodes": [10945454407, 10945454408, 10945454409, 10962642254, 10945454407], "tags": {"access": "customers", "amenity": "bicycle_parking", "bicycle_parking": "shed", "building": "yes", "fee": "no"}}, {"type": "way", "id": 1216111711, "center": {"lat": 51.4192103, "lon": -0.0545089}, "nodes": [11267799339, 294952739, 11267799338, 11267799337, 11267799339], "tags": {"access": "yes", "amenity": "bicycle_parking", "bicycle_parking": "stands", "building": "carport", "capacity": "24", "covered": "yes"}}, {"type": "way", "id": 1226033181, "center": {"lat": 51.4123816, "lon": -0.0449911}, "nodes": [11369680777, 11369680776, 11369680775, 11369680774, 11369680777], "tags": {"amenity": "bicycle_parking", "bicycle_parking": "rack", "capacity": "20", "covered": "yes"}}, {"type": "way", "id": 1226033182, "center": {"lat": 51.4124235, "lon": -0.0450957}, "nodes": [11369680778, 11369680781, 11369680780, 11369680779, 11369680778], "tags": {"amenity": "bicycle_parking", "bicycle_parking": "rack", "capacity": "20", "covered": "yes"}}, {"type": "way", "id": 1239368080, "center": {"lat": 51.3810874, "lon": -0.0140962}, "nodes": [11513664759, 11519538126, 11519538127, 11513664758, 11513664759], "tags": {"access": "customers", "amenity": "bicycle_parking", "bicycle_parking": "wide_stands", "capacity": "40"}}, {"type": "way", "id": 1355187247, "center": {"lat": 51.4067924, "lon": -0.1533837}, "nodes": [12541990092, 12541990093, 12541990094, 12541990095, 12541990092], "tags": {"amenity": "bicycle_parking"}}, {"type": "way", "id": 1356657960, "center": {"lat": 51.4028268, "lon": -0.132738}, "nodes": [12556380860, 12556380861, 12556380862, 12556380863, 12556380860], "tags": {"amenity": "bicycle_parking"}}, {"type": "way", "id": 1442933875, "center": {"lat": 51.3923942, "lon": -0.0614384}, "nodes": [13239973900, 13240029201, 13240029206, 1937231511, 13240029202, 13239973900], "tags": {"access": "customers", "amenity": "bicycle_parking", "bicycle_parking": "shed", "building": "yes", "capacity": "35", "fee": "no"}}, {"type": "way", "id": 1442933876, "center": {"lat": 51.392437, "lon": -0.0612506}, "nodes": [13240029203, 13240029204, 13240029205, 1937231511, 13240029203], "tags": {"access": "customers", "amenity": "bicycle_parking", "bicycle_parking": "shed", "building": "yes", "capacity": "8", "fee": "no"}}, {"type": "way", "id": 1458084052, "center": {"lat": 51.4118609, "lon": -0.1249183}, "nodes": [13372059571, 13372059570, 13372059544, 13372059572, 13372059571], "tags": {"access": "yes", "amenity": "bicycle_parking", "bicycle_parking": "stands", "capacity": "4", "covered": "no", "fee": "no"}}, {"type": "way", "id": 1460084034, "center": {"lat": 51.4179276, "lon": -0.0730291}, "nodes": [13391075133, 13391075134, 13391075135, 13391075136, 13391075133], "tags": {"access": "yes", "amenity": "bicycle_parking", "bicycle_parking": "stands", "capacity": "12", "covered": "no", "fee": "no", "operator": "Transport for London", "operator:type": "public"}}, {"type": "way", "id": 1467114794, "center": {"lat": 51.3932401, "lon": -0.1582405}, "nodes": [13456530063, 13456530064, 13456530065, 13456530060, 13456530066, 13456530063], "tags": {"access": "yes", "amenity": "bicycle_parking", "bicycle_parking": "covered", "covered": "yes", "fee": "no"}}]}