{"version": 0.6, "generator": "Overpass API 0.7.62.10 2d4cfc48", "osm3s": {"timestamp_osm_base": "2026-02-19T13:39:14Z", "copyright": "The data included in this document is from www.openstreetmap.org. The data is made available under ODbL."}, "elements": [{"type": "node", "id": 274870159, "lat": 51.5257742, "lon": 0.1925622, "tags": {"amenity": "bicycle_parking", "check_date": "2022-07-19"}}, {"type": "node", "id": 1344561848, "lat": 51.5587505, "lon": 0.2518227, "tags": {"amenity": "bicycle_parking", "bicycle_parking": "stands", "capacity": "14", "covered": "yes"}}, {"type": "node", "id": 1640831269, "lat": 51.5319398, "lon": 0.1470018, "tags": {"amenity": "bicycle_parking", "bicycle_parking": "stands", "capacity": "8", "check_date": "2024-05-29", "covered": "no"}}, {"type": "node", "id": 1831388584, "lat": 51.4869178, "lon": 0.2275427, "tags": {"amenity": "bicycle_parking", "bicycle_parking": "stands", "capacity": "18", "covered": "yes", "source": "Local_knowledge"}}, {"type": "node", "id": 1924404941, "lat": 51.6309509, "lon": 0.3292044, "tags": {"amenity": "bicycle_parking", "covered": "yes"}}, {"type": "node", "id": 1924404949, "lat": 51.6309392, "lon": 0.329969, "tags": {"amenity": "bicycle_parking", "covered": "yes"}}, {"type": "node", "id": 2025827546, "lat": 51.5216866, "lon": 0.2904096, "tags": {"amenity": "bicycle_parking"}}, {"type": "node", "id": 2320751625, "lat": 51.5585929, "lon": 0.2520801, "tags": {"amenity": "bicycle_parking", "bicycle_parking": "high_density", "capacity": "24", "covered": "yes"}}, {"type": "node", "id": 3010377633, "lat": 51.6137376, "lon": 0.2999205, "tags": {"access": "yes", "amenity": "bicycle_parking", "bicycle_parking": "stands", "capacity": "22", "covered": "yes", "fee": "no", "source": "survey", "supervised": "no"}}, {"type": "node", "id": 3104472651, "lat": 51.5810805, "lon": 0.252502, "tags": {"amenity": "bicycle_parking", "description": "3 stands for 6 bicycles"}}, {"type": "node", "id": 3104472670, "lat": 51.5944099, "lon": 0.2356086, "tags": {"amenity": "bicycle_parking"}}, {"type": "node", "id": 3202060544, "lat": 51.5427521, "lon": 0.1657593, "tags": {"amenity": "bicycle_parking", "bicycle_parking": "stands"}}, {"type": "node", "id": 3221558719, "lat": 51.5545826, "lon": 0.248445, "tags": {"amenity": "bicycle_parking", "bicycle_parking": "stands", "capacity": "6", "check_date:capacity": "2021-06-23", "covered": "no"}}, {"type": "node", "id": 3225682668, "lat": 51.553287, "lon": 0.2474866, "tags": {"amenity": "bicycle_parking", "bicycle_parking": "stands", "capacity": "4", "covered": "no"}}, {"type": "node", "id": 3244383768, "lat": 51.5584349, "lon": 0.2502582, "tags": {"access": "yes", "amenity": "bicycle_parking", "bicycle_parking": "stands", "capacity": "50", "covered": "no", "fee": "no"}}, {"type": "node", "id": 3749182495, "lat": 51.5898794, "lon": 0.1912415, "tags": {"amenity": "bicycle_parking", "source": "gps+mapnoter"}}, {"type": "node", "id": 4081920759, "lat": 51.5587753, "lon": 0.2512451, "tags": {"amenity": "bicycle_parking", "name": "Upminster Station Bike Compound"}}, {"type": "node", "id": 4393407427, "lat": 51.5528465, "lon": 0.1762962, "tags": {"amenity": "bicycle_parking", "bicycle_parking": "stands", "covered": "no", "source": "gps+mapnoter"}}, {"type": "node", "id": 5408557300, "lat": 51.6305653, "lon": 0.3287966, "tags": {"amenity": "bicycle_parking", "bicycle_parking": "stands", "capacity": "4", "covered": "no"}}, {"type": "node", "id": 5408557301, "lat": 51.6306735, "lon": 0.329156, "tags": {"amenity": "bicycle_parking", "bicycle_parking": "stands", "capacity": "16", "covered": "no"}}, {"type": "node", "id": 5408557311, "lat": 51.6313053, "lon": 0.3302115, "tags": {"amenity": "bicycle_parking", "covered": "yes"}}, {"type": "node", "id": 6187762394, "lat": 51.6085194, "lon": 0.1934371, "tags": {"amenity": "bicycle_parking", "capacity": "8", "check_date": "2025-05-25"}}, {"type": "node", "id": 6418480139, "lat": 51.5588686, "lon": 0.2360798, "tags": {"amenity": "bicycle_parking", "bicycle_parking": "stands", "capacity": "10", "covered": "yes"}}, {"type": "node", "id": 6418480141, "lat": 51.5589769, "lon": 0.2356587, "tags": {"amenity": "bicycle_parking", "bicycle_parking": "stands", "capacity": "8", "covered": "no"}}, {"type": "node", "id": 6432648833, "lat": 51.4975278, "lon": 0.1547125, "tags": {"amenity": "bicycle_parking", "capacity": "8", "type": "sheffield"}}, {"type": "node", "id": 6683958576, "lat": 51.5817195, "lon": 0.2040525, "tags": {"access": "yes", "amenity": "bicycle_parking", "bicycle_parking": "stands", "capacity": "4", "covered": "no", "fee": "no"}}, {"type": "node", "id": 6906050644, "lat": 51.5813521, "lon": 0.2053434, "tags": {"access": "yes", "amenity": "bicycle_parking", "bicycle_parking": "stands", "capacity": "10", "covered": "no", "fee": "no", "source": "survey"}}, {"type": "node", "id": 7077821403, "lat": 51.5201223, "lon": 0.2027417, "tags": {"amenity": "bicycle_parking", "bicycle_parking": "stands", "capacity": "6", "covered": "no"}}, {"type": "node", "id": 7846968994, "lat": 51.5760963, "lon": 0.1409624, "tags": {"amenity": "bicycle_parking", "bicycle_parking": "stands", "capacity": "4"}}, {"type": "node", "id": 7846968995, "lat": 51.5754772, "lon": 0.1407371, "tags": {"amenity": "bicycle_parking", "bicycle_parking": "stands", "capacity": "4"}}, {"type": "node", "id": 7846968998, "lat": 51.5823319, "lon": 0.1406691, "tags": {"amenity": "bicycle_parking", "bicycle_parking": "lockers", "capacity": "4", "note": "Own lock"}}, {"type": "node", "id": 7846968999, "lat": 51.5823319, "lon": 0.140647, "tags": {"amenity": "bicycle_parking", "bicycle_parking": "stands", "capacity": "10"}}, {"type": "node", "id": 7846969000, "lat": 51.582338, "lon": 0.1406672, "tags": {"amenity": "bicycle_parking", "bicycle_parking": "lockers", "capacity": "4", "note": "Own lock"}}, {"type": "node", "id": 7854325125, "lat": 51.5723424, "lon": 0.1433476, "tags": {"amenity": "bicycle_parking", "bicycle_parking": "stands", "capacity": "4"}}, {"type": "node", "id": 7854325126, "lat": 51.5723379, "lon": 0.14332, "tags": {"amenity": "bicycle_parking", "bicycle_parking": "stands", "capacity": "4"}}, {"type": "node", "id": 7859051567, "lat": 51.5184452, "lon": 0.1922612, "tags": {"access": "yes", "amenity": "bicycle_parking", "bicycle_parking": "stands", "capacity": "8", "covered": "no", "fee": "no"}}, {"type": "node", "id": 7859051568, "lat": 51.5186005, "lon": 0.1924191, "tags": {"access": "yes", "amenity": "bicycle_parking", "bicycle_parking": "stands", "capacity": "8", "covered": "no", "fee": "no"}}, {"type": "node", "id": 7864478407, "lat": 51.5657256, "lon": 0.1434713, "tags": {"amenity": "bicycle_parking", "bicycle_parking": "stands", "capacity": "6"}}, {"type": "node", "id": 7864478408, "lat": 51.5643834, "lon": 0.1462798, "tags": {"amenity": "bicycle_parking", "bicycle_parking": "stands", "capacity": "6"}}, {"type": "node", "id": 7864478409, "lat": 51.5653648, "lon": 0.1449851, "tags": {"amenity": "bicycle_parking", "bicycle_parking": "stands", "capacity": "10"}}, {"type": "node", "id": 7864581165, "lat": 51.56332, "lon": 0.1466615, "tags": {"amenity": "bicycle_parking", "bicycle_parking": "stands", "capacity": "6"}}, {"type": "node", "id": 7864581166, "lat": 51.5625633, "lon": 0.1470548, "tags": {"amenity": "bicycle_parking", "bicycle_parking": "stands", "capacity": "4"}}, {"type": "node", "id": 7864581167, "lat": 51.5636414, "lon": 0.1465282, "tags": {"amenity": "bicycle_parking", "bicycle_parking": "stands", "capacity": "6"}}, {"type": "node", "id": 7864581168, "lat": 51.5619574, "lon": 0.1476462, "tags": {"amenity": "bicycle_parking", "bicycle_parking": "stands", "capacity": "6"}}, {"type": "node", "id": 7865267479, "lat": 51.561135, "lon": 0.1487011, "tags": {"amenity": "bicycle_parking", "bicycle_parking": "stands", "capacity": "24", "covered": "yes"}}, {"type": "node", "id": 7865267480, "lat": 51.5609816, "lon": 0.1494581, "tags": {"amenity": "bicycle_parking", "bicycle_parking": "stands", "capacity": "16", "covered": "yes"}}, {"type": "node", "id": 7865267481, "lat": 51.5608949, "lon": 0.1494673, "tags": {"amenity": "bicycle_parking", "bicycle_parking": "lockers", "capacity": "4", "note": "Own lock"}}, {"type": "node", "id": 7865267482, "lat": 51.5611206, "lon": 0.1494395, "tags": {"amenity": "bicycle_parking", "bicycle_parking": "stands", "capacity": "8"}}, {"type": "node", "id": 7865267483, "lat": 51.5604483, "lon": 0.1474385, "tags": {"amenity": "bicycle_parking", "bicycle_parking": "stands", "capacity": "6"}}, {"type": "node", "id": 7865267484, "lat": 51.5601649, "lon": 0.1478324, "tags": {"amenity": "bicycle_parking", "bicycle_parking": "stands", "capacity": "4"}}, {"type": "node", "id": 7865315985, "lat": 51.560385, "lon": 0.1476991, "tags": {"amenity": "bicycle_parking", "bicycle_parking": "stands", "capacity": "10"}}, {"type": "node", "id": 7865315986, "lat": 51.5604298, "lon": 0.1471965, "tags": {"amenity": "bicycle_parking", "bicycle_parking": "stands", "capacity": "2"}}, {"type": "node", "id": 7865315987, "lat": 51.5603603, "lon": 0.1470935, "tags": {"amenity": "bicycle_parking", "bicycle_parking": "stands", "capacity": "2"}}, {"type": "node", "id": 7865315988, "lat": 51.5612133, "lon": 0.1476914, "tags": {"amenity": "bicycle_parking", "bicycle_parking": "stands", "capacity": "6"}}, {"type": "node", "id": 7865315989, "lat": 51.5608696, "lon": 0.1469211, "tags": {"amenity": "bicycle_parking", "bicycle_parking": "stands", "capacity": "2"}}, {"type": "node", "id": 7865315990, "lat": 51.5602233, "lon": 0.1478431, "tags": {"amenity": "bicycle_parking", "bicycle_parking": "stands", "capacity": "2"}}, {"type": "node", "id": 7865315991, "lat": 51.5605368, "lon": 0.1471137, "tags": {"amenity": "bicycle_parking", "bicycle_parking": "stands", "capacity": "4"}}, {"type": "node", "id": 7865315992, "lat": 51.5611492, "lon": 0.147062, "tags": {"amenity": "bicycle_parking", "bicycle_parking": "stands", "capacity": "2"}}, {"type": "node", "id": 7865315993, "lat": 51.5607138, "lon": 0.1470438, "tags": {"amenity": "bicycle_parking", "bicycle_parking": "stands", "capacity": "4"}}, {"type": "node", "id": 7865315994, "lat": 51.5609532, "lon": 0.1466349, "tags": {"amenity": "bicycle_parking", "bicycle_parking": "stands", "capacity": "2"}}, {"type": "node", "id": 7865579741, "lat": 51.5599187, "lon": 0.1480467, "tags": {"amenity": "bicycle_parking", "bicycle_parking": "stands", "capacity": "4"}}, {"type": "node", "id": 7865579742, "lat": 51.5599763, "lon": 0.1480472, "tags": {"amenity": "bicycle_parking", "bicycle_parking": "stands", "capacity": "4"}}, {"type": "node", "id": 7865991392, "lat": 51.5594247, "lon": 0.1565999, "tags": {"amenity": "bicycle_parking", "bicycle_parking": "stands", "capacity": "8"}}, {"type": "node", "id": 7865991393, "lat": 51.5603283, "lon": 0.1540148, "tags": {"amenity": "bicycle_parking", "bicycle_parking": "stands", "capacity": "2"}}, {"type": "node", "id": 7865991394, "lat": 51.5606768, "lon": 0.1562928, "tags": {"amenity": "bicycle_parking", "bicycle_parking": "stands", "capacity": "160", "note": "Shared lock"}}, {"type": "node", "id": 7865991395, "lat": 51.5610389, "lon": 0.1554919, "tags": {"amenity": "bicycle_parking", "capacity": "6"}}, {"type": "node", "id": 7866026813, "lat": 51.5544701, "lon": 0.1415706, "tags": {"amenity": "bicycle_parking", "bicycle_parking": "stands", "capacity": "6", "covered": "no"}}, {"type": "node", "id": 7866026814, "lat": 51.5546503, "lon": 0.1432928, "tags": {"amenity": "bicycle_parking", "bicycle_parking": "stands", "capacity": "4", "covered": "no"}}, {"type": "node", "id": 7866026815, "lat": 51.553955, "lon": 0.1480648, "tags": {"amenity": "bicycle_parking", "bicycle_parking": "upright_stands", "capacity": "6"}}, {"type": "node", "id": 7866026816, "lat": 51.5543833, "lon": 0.1416321, "tags": {"amenity": "bicycle_parking", "bicycle_parking": "stands", "capacity": "2", "covered": "no"}}, {"type": "node", "id": 7873132212, "lat": 51.5452551, "lon": 0.1613937, "tags": {"amenity": "bicycle_parking", "bicycle_parking": "stands", "capacity": "4"}}, {"type": "node", "id": 7873132213, "lat": 51.5440032, "lon": 0.1660999, "tags": {"amenity": "bicycle_parking", "bicycle_parking": "hoop", "capacity": "5"}}, {"type": "node", "id": 7873132214, "lat": 51.5451215, "lon": 0.1605561, "tags": {"amenity": "bicycle_parking", "bicycle_parking": "stands", "capacity": "4"}}, {"type": "node", "id": 7873132215, "lat": 51.5438355, "lon": 0.1660659, "tags": {"amenity": "bicycle_parking", "bicycle_parking": "hoop", "capacity": "4"}}, {"type": "node", "id": 7873132216, "lat": 51.5436551, "lon": 0.1665334, "tags": {"amenity": "bicycle_parking", "bicycle_parking": "stands", "capacity": "4"}}, {"type": "node", "id": 7873132217, "lat": 51.5464333, "lon": 0.1649765, "tags": {"amenity": "bicycle_parking", "bicycle_parking": "stands", "capacity": "4"}}, {"type": "node", "id": 7873132218, "lat": 51.5436516, "lon": 0.1666415, "tags": {"amenity": "bicycle_parking", "bicycle_parking": "stands", "capacity": "6"}}, {"type": "node", "id": 7873132219, "lat": 51.5461481, "lon": 0.1652306, "tags": {"amenity": "bicycle_parking", "bicycle_parking": "stands", "capacity": "4"}}, {"type": "node", "id": 7873132220, "lat": 51.552135, "lon": 0.1624179, "tags": {"amenity": "bicycle_parking", "bicycle_parking": "stands", "capacity": "12", "covered": "no"}}, {"type": "node", "id": 7873132221, "lat": 51.5512584, "lon": 0.1611153, "tags": {"amenity": "bicycle_parking", "bicycle_parking": "stands", "capacity": "6"}}, {"type": "node", "id": 7873132222, "lat": 51.5518956, "lon": 0.1622143, "tags": {"amenity": "bicycle_parking", "bicycle_parking": "stands", "capacity": "4", "covered": "no"}}, {"type": "node", "id": 7873132223, "lat": 51.5399286, "lon": 0.1473608, "tags": {"amenity": "bicycle_parking", "bicycle_parking": "stands", "capacity": "8", "covered": "no"}}, {"type": "node", "id": 7873132224, "lat": 51.5418015, "lon": 0.1477735, "tags": {"amenity": "bicycle_parking", "bicycle_parking": "stands", "capacity": "16", "covered": "no"}}, {"type": "node", "id": 7873132225, "lat": 51.5400559, "lon": 0.1476265, "tags": {"amenity": "bicycle_parking", "bicycle_parking": "stands", "capacity": "6", "covered": "no"}}, {"type": "node", "id": 7873132226, "lat": 51.5427633, "lon": 0.1478131, "tags": {"amenity": "bicycle_parking", "bicycle_parking": "stands", "capacity": "10", "covered": "no"}}, {"type": "node", "id": 7873132227, "lat": 51.5400584, "lon": 0.1474315, "tags": {"amenity": "bicycle_parking", "bicycle_parking": "stands", "capacity": "6", "covered": "no"}}, {"type": "node", "id": 7873132228, "lat": 51.5400017, "lon": 0.1475192, "tags": {"amenity": "bicycle_parking", "bicycle_parking": "stands", "capacity": "6", "covered": "no"}}, {"type": "node", "id": 7873132229, "lat": 51.5415884, "lon": 0.1480564, "tags": {"amenity": "bicycle_parking", "bicycle_parking": "stands", "capacity": "18", "check_date": "2026-02-08", "covered": "no"}}, {"type": "node", "id": 7873132230, "lat": 51.540438, "lon": 0.1479787, "tags": {"amenity": "bicycle_parking", "bicycle_parking": "stands", "capacity": "10", "covered": "no"}}, {"type": "node", "id": 7873132231, "lat": 51.5400988, "lon": 0.1475807, "tags": {"amenity": "bicycle_parking", "bicycle_parking": "stands", "capacity": "6", "covered": "no"}}, {"type": "node", "id": 7873132232, "lat": 51.5427747, "lon": 0.1479582, "tags": {"amenity": "bicycle_parking", "bicycle_parking": "stands", "capacity": "10", "covered": "no"}}, {"type": "node", "id": 7873132233, "lat": 51.5404596, "lon": 0.1482095, "tags": {"amenity": "bicycle_parking", "bicycle_parking": "stands", "capacity": "10", "covered": "no"}}, {"type": "node", "id": 7873176927, "lat": 51.5641018, "lon": 0.175835, "tags": {"amenity": "bicycle_parking", "bicycle_parking": "stands", "capacity": "4"}}, {"type": "node", "id": 7873176928, "lat": 51.5654109, "lon": 0.1851107, "tags": {"amenity": "bicycle_parking", "bicycle_parking": "wall_loops", "capacity": "14", "covered": "yes"}}, {"type": "node", "id": 7873176929, "lat": 51.5652445, "lon": 0.1848614, "tags": {"amenity": "bicycle_parking", "bicycle_parking": "stands", "capacity": "14"}}, {"type": "node", "id": 7873176930, "lat": 51.5427667, "lon": 0.1789166, "tags": {"amenity": "bicycle_parking", "bicycle_parking": "stands", "capacity": "2"}}, {"type": "node", "id": 7873176932, "lat": 51.5613512, "lon": 0.1404948, "tags": {"amenity": "bicycle_parking", "bicycle_parking": "stands", "capacity": "4"}}, {"type": "node", "id": 7873176933, "lat": 51.5613161, "lon": 0.1408236, "tags": {"amenity": "bicycle_parking", "bicycle_parking": "stands", "capacity": "4"}}, {"type": "node", "id": 7873176938, "lat": 51.533805, "lon": 0.1511798, "tags": {"amenity": "bicycle_parking", "bicycle_parking": "stands", "capacity": "6", "covered": "no"}}, {"type": "node", "id": 7873176939, "lat": 51.5317722, "lon": 0.161127, "tags": {"amenity": "bicycle_parking", "bicycle_parking": "stands", "capacity": "2", "covered": "no"}}, {"type": "node", "id": 7873176940, "lat": 51.5342466, "lon": 0.1512348, "tags": {"amenity": "bicycle_parking", "bicycle_parking": "stands", "capacity": "6", "covered": "no"}}, {"type": "node", "id": 7873176941, "lat": 51.5353, "lon": 0.1520315, "tags": {"amenity": "bicycle_parking", "bicycle_parking": "stands", "capacity": "6"}}, {"type": "node", "id": 7873176942, "lat": 51.5365335, "lon": 0.1727486, "tags": {"amenity": "bicycle_parking", "bicycle_parking": "stands", "capacity": "6"}}, {"type": "node", "id": 7873176944, "lat": 51.536885, "lon": 0.1722017, "tags": {"amenity": "bicycle_parking", "bicycle_parking": "stands", "capacity": "14"}}, {"type": "node", "id": 7873176945, "lat": 51.539055, "lon": 0.1655265, "tags": {"amenity": "bicycle_parking", "bicycle_parking": "stands", "capacity": "4", "covered": "no"}}, {"type": "node", "id": 7873176946, "lat": 51.5379876, "lon": 0.1669106, "tags": {"amenity": "bicycle_parking", "bicycle_parking": "stands", "capacity": "8", "covered": "no"}}, {"type": "node", "id": 7873176947, "lat": 51.537928, "lon": 0.1671578, "tags": {"amenity": "bicycle_parking", "bicycle_parking": "stands", "capacity": "8", "covered": "no"}}, {"type": "node", "id": 7873176948, "lat": 51.5373783, "lon": 0.1575748, "tags": {"amenity": "bicycle_parking", "bicycle_parking": "stands", "capacity": "4"}}, {"type": "node", "id": 7873176949, "lat": 51.5378646, "lon": 0.1642278, "tags": {"amenity": "bicycle_parking", "bicycle_parking": "stands", "capacity": "6", "covered": "no"}}, {"type": "node", "id": 7873176950, "lat": 51.5370786, "lon": 0.1576162, "tags": {"amenity": "bicycle_parking", "bicycle_parking": "stands", "capacity": "8"}}, {"type": "node", "id": 7873176952, "lat": 51.5262231, "lon": 0.1463392, "tags": {"amenity": "bicycle_parking", "bicycle_parking": "stands", "capacity": "8"}}, {"type": "node", "id": 7873176953, "lat": 51.5254698, "lon": 0.147358, "tags": {"amenity": "bicycle_parking", "bicycle_parking": "stands", "capacity": "14"}}, {"type": "node", "id": 7873176954, "lat": 51.524242, "lon": 0.1463022, "tags": {"amenity": "bicycle_parking", "bicycle_parking": "stands", "capacity": "10", "covered": "yes"}}, {"type": "node", "id": 7873176955, "lat": 51.5255751, "lon": 0.1468902, "tags": {"amenity": "bicycle_parking", "bicycle_parking": "stands", "capacity": "8"}}, {"type": "node", "id": 7873176956, "lat": 51.5255699, "lon": 0.1468902, "tags": {"amenity": "bicycle_parking", "bicycle_parking": "stands", "capacity": "6"}}, {"type": "node", "id": 7873176957, "lat": 51.5263388, "lon": 0.1469465, "tags": {"amenity": "bicycle_parking", "bicycle_parking": "stands", "capacity": "4"}}, {"type": "node", "id": 7873176964, "lat": 51.5303423, "lon": 0.1414869, "tags": {"amenity": "bicycle_parking", "bicycle_parking": "stands", "capacity": "8", "covered": "yes"}}, {"type": "node", "id": 7873176965, "lat": 51.5298819, "lon": 0.1433651, "tags": {"amenity": "bicycle_parking", "bicycle_parking": "wall_loops", "capacity": "6", "covered": "yes"}}, {"type": "node", "id": 7873176966, "lat": 51.5303822, "lon": 0.1414658, "tags": {"amenity": "bicycle_parking", "bicycle_parking": "stands", "capacity": "8", "covered": "yes"}}, {"type": "node", "id": 7873176968, "lat": 51.53235, "lon": 0.1457765, "tags": {"amenity": "bicycle_parking", "bicycle_parking": "stands", "capacity": "6", "covered": "no"}}, {"type": "node", "id": 7873176969, "lat": 51.5322216, "lon": 0.1461253, "tags": {"amenity": "bicycle_parking", "bicycle_parking": "stands", "capacity": "4", "covered": "no"}}, {"type": "node", "id": 7873176970, "lat": 51.5305566, "lon": 0.1478265, "tags": {"amenity": "bicycle_parking", "bicycle_parking": "stands", "capacity": "6"}}, {"type": "node", "id": 7873176971, "lat": 51.5321157, "lon": 0.1464955, "tags": {"amenity": "bicycle_parking", "bicycle_parking": "stands", "capacity": "4", "covered": "no"}}, {"type": "node", "id": 7873176972, "lat": 51.5312443, "lon": 0.1484371, "tags": {"amenity": "bicycle_parking", "bicycle_parking": "stands", "capacity": "20", "covered": "yes"}}, {"type": "node", "id": 7873176973, "lat": 51.5321539, "lon": 0.1463595, "tags": {"amenity": "bicycle_parking", "bicycle_parking": "stands", "capacity": "4", "covered": "no"}}, {"type": "node", "id": 7873176974, "lat": 51.53187, "lon": 0.1477465, "tags": {"amenity": "bicycle_parking", "bicycle_parking": "stands", "capacity": "2", "covered": "no"}}, {"type": "node", "id": 7900307058, "lat": 51.5191998, "lon": 0.1908628, "tags": {"amenity": "bicycle_parking", "bicycle_parking": "stands", "capacity": "10", "covered": "no", "fee": "no"}}, {"type": "node", "id": 7901808916, "lat": 51.5199624, "lon": 0.2014655, "tags": {"amenity": "bicycle_parking", "bicycle_parking": "stands", "capacity": "6", "covered": "no"}}, {"type": "node", "id": 7909985629, "lat": 51.519432, "lon": 0.1951768, "tags": {"access": "private", "amenity": "bicycle_parking", "bicycle_parking": "stands", "capacity": "6", "covered": "no"}}, {"type": "node", "id": 7911368516, "lat": 51.5166975, "lon": 0.1910092, "tags": {"amenity": "bicycle_parking", "bicycle_parking": "stands", "capacity": "10", "check_date:capacity": "2025-09-10", "covered": "no"}}, {"type": "node", "id": 7911368521, "lat": 51.5168004, "lon": 0.191094, "tags": {"amenity": "bicycle_parking", "bicycle_parking": "stands", "capacity": "10", "check_date:capacity": "2025-09-10", "covered": "no"}}, {"type": "node", "id": 7975226541, "lat": 51.5519723, "lon": 0.282318, "tags": {"amenity": "bicycle_parking", "bicycle_parking": "stands"}}, {"type": "node", "id": 8118580437, "lat": 51.527853, "lon": 0.1698402, "tags": {"amenity": "bicycle_parking", "bicycle_parking": "stands", "capacity": "6", "covered": "no"}}, {"type": "node", "id": 8118580438, "lat": 51.5272706, "lon": 0.1697376, "tags": {"amenity": "bicycle_parking", "bicycle_parking": "stands", "capacity": "6", "covered": "no"}}, {"type": "node", "id": 8930579627, "lat": 51.598756, "lon": 0.3195977, "tags": {"amenity": "bicycle_parking", "bicycle_parking": "stands", "capacity": "8"}}, {"type": "node", "id": 8972234719, "lat": 51.5540985, "lon": 0.1419143, "tags": {"amenity": "bicycle_parking", "bicycle_parking": "stands", "capacity": "8", "covered": "no"}}, {"type": "node", "id": 9275374271, "lat": 51.6137086, "lon": 0.3000834, "tags": {"access": "customers", "amenity": "bicycle_parking", "bicycle_parking": "stands", "capacity": "8", "covered": "yes", "fee": "no", "source": "survey"}}, {"type": "node", "id": 9301518207, "lat": 51.6120026, "lon": 0.3271139, "tags": {"access": "yes", "amenity": "bicycle_parking", "bicycle_parking": "stands", "capacity": "2", "covered": "no", "fee": "no", "source": "survey"}}, {"type": "node", "id": 9315297251, "lat": 51.5619697, "lon": 0.2672488, "tags": {"access": "yes", "amenity": "bicycle_parking", "bicycle_parking": "stands", "capacity": "4", "covered": "no", "fee": "no", "source": "survey"}}, {"type": "node", "id": 9315297252, "lat": 51.561708, "lon": 0.266979, "tags": {"access": "yes", "amenity": "bicycle_parking", "bicycle_parking": "stands", "capacity": "4", "covered": "no", "fee": "no", "source": "survey"}}, {"type": "node", "id": 9315297253, "lat": 51.5626865, "lon": 0.2664285, "tags": {"access": "yes", "amenity": "bicycle_parking", "bicycle_parking": "stands", "capacity": "2", "covered": "no", "fee": "no"}}, {"type": "node", "id": 9326793555, "lat": 51.5476776, "lon": 0.1696443, "tags": {"amenity": "bicycle_parking"}}, {"type": "node", "id": 9332228658, "lat": 51.6302712, "lon": 0.327811, "tags": {"access": "yes", "amenity": "bicycle_parking", "bicycle_parking": "stands", "capacity": "8", "covered": "no", "fee": "no", "source": "survey"}}, {"type": "node", "id": 9341057407, "lat": 51.6180165, "lon": 0.3080802, "tags": {"access": "yes", "amenity": "bicycle_parking", "bicycle_parking": "stands", "capacity": "20", "covered": "yes", "fee": "no", "source": "survey"}}, {"type": "node", "id": 9341057408, "lat": 51.6187126, "lon": 0.3077981, "tags": {"access": "yes", "amenity": "bicycle_parking", "bicycle_parking": "stands", "capacity": "16", "covered": "no", "fee": "no", "source": "survey"}}, {"type": "node", "id": 9341057409, "lat": 51.6182369, "lon": 0.3081045, "tags": {"access": "yes", "amenity": "bicycle_parking", "bicycle_parking": "stands", "capacity": "8", "covered": "yes", "fee": "no", "source": "survey"}}, {"type": "node", "id": 9341057410, "lat": 51.6184412, "lon": 0.3080674, "tags": {"amenity": "bicycle_parking", "bicycle_parking": "stands", "capacity": "10", "covered": "no", "fee": "no", "source": "survey"}}, {"type": "node", "id": 9352976667, "lat": 51.6188922, "lon": 0.3025875, "tags": {"access": "yes", "amenity": "bicycle_parking", "bicycle_parking": "stands", "capacity": "12", "covered": "no", "fee": "no", "source": "survey"}}, {"type": "node", "id": 9352976668, "lat": 51.6187289, "lon": 0.3018172, "tags": {"access": "yes", "amenity": "bicycle_parking", "bicycle_parking": "stands", "capacity": "20", "covered": "yes", "fee": "no", "source": "survey"}}, {"type": "node", "id": 9352976669, "lat": 51.6149131, "lon": 0.2992749, "tags": {"access": "yes", "amenity": "bicycle_parking", "bicycle_parking": "stands", "capacity": "10", "covered": "no", "fee": "no", "source": "survey"}}, {"type": "node", "id": 9352976670, "lat": 51.6194983, "lon": 0.2987124, "tags": {"access": "yes", "amenity": "bicycle_parking", "bicycle_parking": "stands", "capacity": "2", "covered": "no", "fee": "no", "source": "survey"}}, {"type": "node", "id": 9352995005, "lat": 51.6199406, "lon": 0.3062762, "tags": {"access": "customers", "amenity": "bicycle_parking", "bicycle_parking": "stands", "capacity": "6", "covered": "no", "fee": "no"}}, {"type": "node", "id": 9353735502, "lat": 51.6206842, "lon": 0.3038149, "tags": {"access": "yes", "amenity": "bicycle_parking", "bicycle_parking": "stands", "capacity": "12", "covered": "no", "fee": "no", "source": "survey"}}, {"type": "node", "id": 9353735503, "lat": 51.6205685, "lon": 0.3034427, "tags": {"access": "yes", "amenity": "bicycle_parking", "bicycle_parking": "stands", "capacity": "6", "covered": "no", "fee": "no", "indoor": "no", "source": "survey"}}, {"type": "node", "id": 9353735504, "lat": 51.6206439, "lon": 0.3032581, "tags": {"access": "yes", "amenity": "bicycle_parking", "bicycle_parking": "stands", "capacity": "2", "covered": "no", "fee": "no"}}, {"type": "node", "id": 9355504407, "lat": 51.6206158, "lon": 0.301237, "tags": {"access": "yes", "amenity": "bicycle_parking", "bicycle_parking": "stands", "capacity": "14", "covered": "no", "fee": "no", "source": "survey"}}, {"type": "node", "id": 9355504408, "lat": 51.6223849, "lon": 0.3034056, "tags": {"access": "yes", "amenity": "bicycle_parking", "bicycle_parking": "stands", "capacity": "10", "covered": "yes", "fee": "no", "level": "0"}}, {"type": "node", "id": 9363462520, "lat": 51.6237024, "lon": 0.2646281, "tags": {"amenity": "bicycle_parking", "bicycle_parking": "stands", "capacity": "6", "covered": "no"}}, {"type": "node", "id": 9471169916, "lat": 51.5256508, "lon": 0.1468516, "tags": {"amenity": "bicycle_parking"}}, {"type": "node", "id": 9471464279, "lat": 51.5172376, "lon": 0.1512913, "tags": {"amenity": "bicycle_parking"}}, {"type": "node", "id": 9880905257, "lat": 51.5814066, "lon": 0.2055046, "tags": {"access": "yes", "amenity": "bicycle_parking", "bicycle_parking": "stands", "capacity": "10", "covered": "no", "fee": "no", "source": "survey"}}, {"type": "node", "id": 9880905258, "lat": 51.5811147, "lon": 0.2051275, "tags": {"access": "yes", "amenity": "bicycle_parking", "bicycle_parking": "stands", "capacity": "4", "covered": "no", "fee": "no", "source": "survey"}}, {"type": "node", "id": 9880905259, "lat": 51.5819639, "lon": 0.2050489, "tags": {"amenity": "bicycle_parking", "bicycle_parking": "two-tier", "capacity": "32", "covered": "yes", "fee": "no", "operator": "TFL", "source": "survey"}}, {"type": "node", "id": 9888153746, "lat": 51.5930725, "lon": 0.2332507, "tags": {"access": "yes", "amenity": "bicycle_parking", "bicycle_parking": "stands", "capacity": "12", "covered": "no", "fee": "no", "source": "survey"}}, {"type": "node", "id": 9888153747, "lat": 51.5929108, "lon": 0.2330004, "tags": {"access": "yes", "amenity": "bicycle_parking", "bicycle_parking": "two-tier", "capacity": "64", "covered": "yes", "fee": "no", "source": "survey"}}, {"type": "node", "id": 9888153748, "lat": 51.5933644, "lon": 0.2331507, "tags": {"access": "yes", "amenity": "bicycle_parking", "bicycle_parking": "stands", "capacity": "8", "covered": "no", "fee": "no", "source": "survey"}}, {"type": "node", "id": 9888153749, "lat": 51.5935863, "lon": 0.2338234, "tags": {"access": "yes", "amenity": "bicycle_parking", "bicycle_parking": "stands", "capacity": "4", "covered": "no", "fee": "no"}}, {"type": "node", "id": 10080470689, "lat": 51.5004378, "lon": 0.2612799, "tags": {"amenity": "bicycle_parking", "bicycle_parking": "stands", "capacity": "8"}}, {"type": "node", "id": 10080940181, "lat": 51.5029787, "lon": 0.2549878, "tags": {"amenity": "bicycle_parking", "bicycle_parking": "stands", "covered": "no"}}, {"type": "node", "id": 10080940182, "lat": 51.5030227, "lon": 0.254715, "tags": {"amenity": "bicycle_parking", "bicycle_parking": "stands", "covered": "no"}}, {"type": "node", "id": 10086692643, "lat": 51.4855213, "lon": 0.1744809, "tags": {"amenity": "bicycle_parking", "bicycle_parking": "stands", "capacity": "12", "covered": "no"}}, {"type": "node", "id": 10240626316, "lat": 51.6116149, "lon": 0.3132635, "tags": {"access": "yes", "amenity": "bicycle_parking", "bicycle_parking": "stands", "capacity": "20", "covered": "no", "fee": "no"}}, {"type": "node", "id": 10240626317, "lat": 51.6114153, "lon": 0.3132715, "tags": {"access": "yes", "amenity": "bicycle_parking", "bicycle_parking": "stands", "capacity": "20", "covered": "no", "fee": "no", "source": "survey"}}, {"type": "node", "id": 10273090600, "lat": 51.5799354, "lon": 0.1844047, "tags": {"amenity": "bicycle_parking", "bicycle_parking": "post_hoop", "capacity": "5", "covered": "no", "ref:GB:tflcid": "RWG122801"}}, {"type": "node", "id": 10273090601, "lat": 51.581101, "lon": 0.1835333, "tags": {"amenity": "bicycle_parking", "bicycle_parking": "stands", "capacity": "4", "ref:GB:tflcid": "RWG122793"}}, {"type": "node", "id": 10273090602, "lat": 51.580007, "lon": 0.1862467, "tags": {"amenity": "bicycle_parking", "bicycle_parking": "stands", "capacity": "54", "covered": "yes", "ref:GB:tflcid": "RWG122773"}}, {"type": "node", "id": 10273090603, "lat": 51.580027, "lon": 0.1836017, "tags": {"amenity": "bicycle_parking", "bicycle_parking": "stands", "capacity": "6", "covered": "yes", "ref:GB:tflcid": "RWG122778"}}, {"type": "node", "id": 10273090604, "lat": 51.5751616, "lon": 0.1835148, "tags": {"amenity": "bicycle_parking", "bicycle_parking": "stands", "capacity": "4", "covered": "no", "ref:GB:tflcid": "RWG122670"}}, {"type": "node", "id": 10273090605, "lat": 51.5772678, "lon": 0.1839882, "tags": {"amenity": "bicycle_parking", "bicycle_parking": "stands", "capacity": "6", "covered": "yes", "ref:GB:tflcid": "RWG122781"}}, {"type": "node", "id": 10273090606, "lat": 51.5771976, "lon": 0.1838575, "tags": {"amenity": "bicycle_parking", "bicycle_parking": "stands", "capacity": "6", "covered": "yes", "ref:GB:tflcid": "RWG122782"}}, {"type": "node", "id": 10273090607, "lat": 51.5744483, "lon": 0.1847826, "tags": {"amenity": "bicycle_parking", "bicycle_parking": "stands", "capacity": "6", "ref:GB:tflcid": "RWG122789"}}, {"type": "node", "id": 10273090608, "lat": 51.5740298, "lon": 0.1838254, "tags": {"amenity": "bicycle_parking", "bicycle_parking": "stands", "capacity": "4", "ref:GB:tflcid": "RWG122665"}}, {"type": "node", "id": 10273108557, "lat": 51.5754472, "lon": 0.1832546, "tags": {"amenity": "bicycle_parking", "bicycle_parking": "stands", "capacity": "6", "covered": "no", "ref:GB:tflcid": "RWG122750"}}, {"type": "node", "id": 10273108558, "lat": 51.5750104, "lon": 0.1836147, "tags": {"amenity": "bicycle_parking", "bicycle_parking": "stands", "capacity": "2", "covered": "yes", "ref:GB:tflcid": "RWG122668"}}, {"type": "node", "id": 10273108559, "lat": 51.5742028, "lon": 0.1844029, "tags": {"amenity": "bicycle_parking", "bicycle_parking": "stands", "capacity": "4", "ref:GB:tflcid": "RWG122787"}}, {"type": "node", "id": 10273108560, "lat": 51.5743193, "lon": 0.1843708, "tags": {"amenity": "bicycle_parking", "bicycle_parking": "stands", "capacity": "6", "ref:GB:tflcid": "RWG122788"}}, {"type": "node", "id": 10273108676, "lat": 51.5807723, "lon": 0.1832857, "tags": {"amenity": "bicycle_parking", "bicycle_parking": "stands", "capacity": "12", "ref:GB:tflcid": "RWG122794"}}, {"type": "node", "id": 10273108677, "lat": 51.5799266, "lon": 0.1827355, "tags": {"amenity": "bicycle_parking", "bicycle_parking": "stands", "capacity": "4", "ref:GB:tflcid": "RWG122764"}}, {"type": "node", "id": 10273108678, "lat": 51.5798688, "lon": 0.1826359, "tags": {"amenity": "bicycle_parking", "bicycle_parking": "stands", "capacity": "4", "ref:GB:tflcid": "RWG122762"}}, {"type": "node", "id": 10273108679, "lat": 51.5795713, "lon": 0.1848199, "tags": {"amenity": "bicycle_parking", "bicycle_parking": "post_hoop", "capacity": "1", "ref:GB:tflcid": "RWG122783"}}, {"type": "node", "id": 10273108680, "lat": 51.5748766, "lon": 0.1836991, "tags": {"amenity": "bicycle_parking", "bicycle_parking": "stands", "capacity": "18", "covered": "yes", "ref:GB:tflcid": "RWG122667"}}, {"type": "node", "id": 10273108681, "lat": 51.577233, "lon": 0.1839223, "tags": {"amenity": "bicycle_parking", "bicycle_parking": "stands", "capacity": "6", "covered": "yes", "ref:GB:tflcid": "RWG122780"}}, {"type": "node", "id": 10273108682, "lat": 51.5756999, "lon": 0.1830268, "tags": {"amenity": "bicycle_parking", "bicycle_parking": "stands", "capacity": "8", "covered": "no", "ref:GB:tflcid": "RWG122751"}}, {"type": "node", "id": 10273108683, "lat": 51.5733461, "lon": 0.1839729, "tags": {"amenity": "bicycle_parking", "bicycle_parking": "stands", "capacity": "6", "ref:GB:tflcid": "RWG122786"}}, {"type": "node", "id": 10273109033, "lat": 51.5808555, "lon": 0.1832454, "tags": {"amenity": "bicycle_parking", "bicycle_parking": "stands", "capacity": "6", "ref:GB:tflcid": "RWG122795"}}, {"type": "node", "id": 10273109034, "lat": 51.5765265, "lon": 0.1825452, "tags": {"amenity": "bicycle_parking", "bicycle_parking": "stands", "capacity": "20", "ref:GB:tflcid": "RWG122753"}}, {"type": "node", "id": 10273109127, "lat": 51.5798446, "lon": 0.1825928, "tags": {"amenity": "bicycle_parking", "bicycle_parking": "stands", "capacity": "8", "ref:GB:tflcid": "RWG122759"}}, {"type": "node", "id": 10273109128, "lat": 51.5795738, "lon": 0.1848467, "tags": {"amenity": "bicycle_parking", "bicycle_parking": "post_hoop", "capacity": "1", "ref:GB:tflcid": "RWG122784"}}, {"type": "node", "id": 10273109129, "lat": 51.5753883, "lon": 0.183307, "tags": {"amenity": "bicycle_parking", "bicycle_parking": "stands", "capacity": "6", "covered": "no", "ref:GB:tflcid": "RWG122749"}}, {"type": "node", "id": 10273109130, "lat": 51.5764675, "lon": 0.1826118, "tags": {"amenity": "bicycle_parking", "bicycle_parking": "stands", "capacity": "4", "ref:GB:tflcid": "RWG122752"}}, {"type": "node", "id": 10273109316, "lat": 51.5750873, "lon": 0.1835608, "tags": {"amenity": "bicycle_parking", "bicycle_parking": "stands", "capacity": "12", "covered": "yes", "ref:GB:tflcid": "RWG122671"}}, {"type": "node", "id": 10273109514, "lat": 51.5790117, "lon": 0.184698, "tags": {"amenity": "bicycle_parking", "bicycle_parking": "stands", "capacity": "8", "covered": "yes", "ref:GB:tflcid": "RWG122779"}}, {"type": "node", "id": 10273109628, "lat": 51.5799467, "lon": 0.1827667, "tags": {"amenity": "bicycle_parking", "bicycle_parking": "stands", "capacity": "4", "ref:GB:tflcid": "RWG122765"}}, {"type": "node", "id": 10275588840, "lat": 51.5631599, "lon": 0.2176932, "tags": {"amenity": "bicycle_parking", "bicycle_parking": "wall_loops", "capacity": "3", "ref:GB:tflcid": "RWG122627"}}, {"type": "node", "id": 10275588841, "lat": 51.5623078, "lon": 0.2215358, "tags": {"amenity": "bicycle_parking", "bicycle_parking": "stands", "capacity": "12", "ref:GB:tflcid": "RWG122593"}}, {"type": "node", "id": 10275588870, "lat": 51.5560867, "lon": 0.2492482, "tags": {"amenity": "bicycle_parking", "bicycle_parking": "post_hoop", "capacity": "4", "ref:GB:tflcid": "RWG122582"}}, {"type": "node", "id": 10275588871, "lat": 51.5467934, "lon": 0.2518546, "tags": {"amenity": "bicycle_parking", "bicycle_parking": "wall_loops", "capacity": "34", "ref:GB:tflcid": "RWG151278"}}, {"type": "node", "id": 10275588956, "lat": 51.5671111, "lon": 0.2202408, "tags": {"amenity": "bicycle_parking", "bicycle_parking": "stands", "capacity": "4", "ref:GB:tflcid": "RWG122675"}}, {"type": "node", "id": 10275589073, "lat": 51.5590809, "lon": 0.2206285, "tags": {"amenity": "bicycle_parking", "bicycle_parking": "stands", "capacity": "2", "ref:GB:tflcid": "RWG122597"}}, {"type": "node", "id": 10275589074, "lat": 51.5624788, "lon": 0.2198091, "tags": {"amenity": "bicycle_parking", "bicycle_parking": "stands", "capacity": "4", "ref:GB:tflcid": "RWG122591"}}, {"type": "node", "id": 10275589075, "lat": 51.5625746, "lon": 0.2202551, "tags": {"amenity": "bicycle_parking", "bicycle_parking": "stands", "capacity": "4", "ref:GB:tflcid": "RWG122592"}}, {"type": "node", "id": 10275589076, "lat": 51.5618645, "lon": 0.220511, "tags": {"amenity": "bicycle_parking", "bicycle_parking": "stands", "capacity": "4", "ref:GB:tflcid": "RWG122594"}}, {"type": "node", "id": 10275589077, "lat": 51.5623264, "lon": 0.217843, "tags": {"amenity": "bicycle_parking", "bicycle_parking": "stands", "capacity": "8", "ref:GB:tflcid": "RWG122612"}}, {"type": "node", "id": 10275589323, "lat": 51.5627334, "lon": 0.2180843, "tags": {"amenity": "bicycle_parking", "bicycle_parking": "stands", "capacity": "4", "ref:GB:tflcid": "RWG122625"}}, {"type": "node", "id": 10275589324, "lat": 51.5611696, "lon": 0.2207928, "tags": {"amenity": "bicycle_parking", "bicycle_parking": "stands", "capacity": "4", "ref:GB:tflcid": "RWG122595"}}, {"type": "node", "id": 10275589325, "lat": 51.5621702, "lon": 0.2202264, "tags": {"amenity": "bicycle_parking", "bicycle_parking": "stands", "capacity": "4", "ref:GB:tflcid": "RWG122590"}}, {"type": "node", "id": 10275589355, "lat": 51.5526462, "lon": 0.2474425, "tags": {"amenity": "bicycle_parking", "bicycle_parking": "stands", "capacity": "4", "ref:GB:tflcid": "RWG122579"}}, {"type": "node", "id": 10275589356, "lat": 51.556205, "lon": 0.2510098, "tags": {"amenity": "bicycle_parking", "bicycle_parking": "stands", "capacity": "4", "ref:GB:tflcid": "RWG122570"}}, {"type": "node", "id": 10275589357, "lat": 51.5564847, "lon": 0.2532548, "tags": {"amenity": "bicycle_parking", "bicycle_parking": "stands", "capacity": "6", "ref:GB:tflcid": "RWG122568"}}, {"type": "node", "id": 10275589719, "lat": 51.5648866, "lon": 0.2208431, "tags": {"amenity": "bicycle_parking", "bicycle_parking": "stands", "capacity": "8", "ref:GB:tflcid": "RWG122683"}}, {"type": "node", "id": 10275589720, "lat": 51.559325, "lon": 0.2206291, "tags": {"amenity": "bicycle_parking", "bicycle_parking": "stands", "capacity": "2", "ref:GB:tflcid": "RWG122596"}}, {"type": "node", "id": 10275589721, "lat": 51.5603656, "lon": 0.228669, "tags": {"amenity": "bicycle_parking", "bicycle_parking": "stands", "capacity": "8", "ref:GB:tflcid": "RWG122598"}}, {"type": "node", "id": 10275609962, "lat": 51.6019839, "lon": 0.2240067, "tags": {"amenity": "bicycle_parking", "bicycle_lock": "bring_own", "bicycle_parking": "lockers", "capacity": "2", "ref:GB:tflcid": "RWG122657"}}, {"type": "node", "id": 10275609963, "lat": 51.6010861, "lon": 0.2250563, "tags": {"amenity": "bicycle_parking", "bicycle_lock": "bring_own", "bicycle_parking": "lockers", "capacity": "4", "ref:GB:tflcid": "RWG122651"}}, {"type": "node", "id": 10275609964, "lat": 51.6011748, "lon": 0.2249242, "tags": {"amenity": "bicycle_parking", "bicycle_lock": "bring_own", "bicycle_parking": "lockers", "capacity": "3", "ref:GB:tflcid": "RWG122652"}}, {"type": "node", "id": 10275609965, "lat": 51.6012083, "lon": 0.2229134, "tags": {"amenity": "bicycle_parking", "bicycle_lock": "bring_own", "bicycle_parking": "lockers", "capacity": "1", "ref:GB:tflcid": "RWG122654"}}, {"type": "node", "id": 10275609966, "lat": 51.6009382, "lon": 0.2228595, "tags": {"amenity": "bicycle_parking", "bicycle_lock": "bring_own", "bicycle_parking": "lockers", "capacity": "1", "ref:GB:tflcid": "RWG122653"}}, {"type": "node", "id": 10275609967, "lat": 51.6016591, "lon": 0.2230749, "tags": {"amenity": "bicycle_parking", "bicycle_lock": "bring_own", "bicycle_parking": "lockers", "capacity": "1", "ref:GB:tflcid": "RWG122655"}}, {"type": "node", "id": 10275609968, "lat": 51.6015409, "lon": 0.2230813, "tags": {"amenity": "bicycle_parking", "bicycle_lock": "bring_own", "bicycle_parking": "lockers", "capacity": "4", "ref:GB:tflcid": "RWG122656"}}, {"type": "node", "id": 10275609969, "lat": 51.6007161, "lon": 0.224069, "tags": {"amenity": "bicycle_parking", "bicycle_lock": "bring_own", "bicycle_parking": "lockers", "capacity": "3", "ref:GB:tflcid": "RWG122649"}}, {"type": "node", "id": 10275609970, "lat": 51.6048808, "lon": 0.2367991, "tags": {"amenity": "bicycle_parking", "bicycle_lock": "provided", "bicycle_parking": "stands", "capacity": "10", "covered": "yes", "ref:GB:tflcid": "RWG122638"}}, {"type": "node", "id": 10275609971, "lat": 51.6014923, "lon": 0.235549, "tags": {"amenity": "bicycle_parking", "bicycle_parking": "stands", "capacity": "10", "ref:GB:tflcid": "RWG122679"}}, {"type": "node", "id": 10275609972, "lat": 51.6031033, "lon": 0.2474592, "tags": {"amenity": "bicycle_parking", "bicycle_parking": "stands", "capacity": "4", "ref:GB:tflcid": "RWG122748"}}, {"type": "node", "id": 10275610231, "lat": 51.6020391, "lon": 0.2243208, "tags": {"amenity": "bicycle_parking", "bicycle_lock": "bring_own", "bicycle_parking": "lockers", "capacity": "2", "ref:GB:tflcid": "RWG122658"}}, {"type": "node", "id": 10275610232, "lat": 51.6008452, "lon": 0.2247012, "tags": {"amenity": "bicycle_parking", "bicycle_lock": "bring_own", "bicycle_parking": "lockers", "capacity": "3", "ref:GB:tflcid": "RWG122650"}}, {"type": "node", "id": 10275610233, "lat": 51.6051075, "lon": 0.2350684, "tags": {"amenity": "bicycle_parking", "bicycle_parking": "stands", "capacity": "4", "ref:GB:tflcid": "RWG122637"}}, {"type": "node", "id": 10275610234, "lat": 51.6055735, "lon": 0.2343653, "tags": {"amenity": "bicycle_parking", "bicycle_parking": "stands", "capacity": "4", "ref:GB:tflcid": "RWG122636"}}, {"type": "node", "id": 10275610235, "lat": 51.6030963, "lon": 0.234518, "tags": {"amenity": "bicycle_parking", "bicycle_parking": "stands", "capacity": "8", "ref:GB:tflcid": "RWG122676"}}, {"type": "node", "id": 10275613409, "lat": 51.5626616, "lon": 0.2189415, "tags": {"amenity": "bicycle_parking", "bicycle_parking": "stands", "capacity": "4", "ref:GB:tflcid": "RWG122626"}}, {"type": "node", "id": 10275615850, "lat": 51.5551472, "lon": 0.2468569, "tags": {"amenity": "bicycle_parking", "bicycle_parking": "stands", "capacity": "10", "ref:GB:tflcid": "RWG122574"}}, {"type": "node", "id": 10275615851, "lat": 51.5572933, "lon": 0.2498778, "tags": {"amenity": "bicycle_parking", "bicycle_parking": "post_hoop", "capacity": "1", "ref:GB:tflcid": "RWG122584"}}, {"type": "node", "id": 10275615852, "lat": 51.5574645, "lon": 0.2498511, "tags": {"amenity": "bicycle_parking", "bicycle_parking": "stands", "capacity": "4", "ref:GB:tflcid": "RWG122585"}}, {"type": "node", "id": 10275615853, "lat": 51.5549884, "lon": 0.2484754, "tags": {"amenity": "bicycle_parking", "bicycle_parking": "stands", "capacity": "8", "ref:GB:tflcid": "RWG122581"}}, {"type": "node", "id": 10275615854, "lat": 51.5551343, "lon": 0.247652, "tags": {"amenity": "bicycle_parking", "bicycle_parking": "stands", "capacity": "8", "ref:GB:tflcid": "RWG122575"}}, {"type": "node", "id": 10275615855, "lat": 51.5542404, "lon": 0.2480528, "tags": {"amenity": "bicycle_parking", "bicycle_parking": "stands", "capacity": "8", "ref:GB:tflcid": "RWG122577"}}, {"type": "node", "id": 10275615856, "lat": 51.55632, "lon": 0.24958, "tags": {"amenity": "bicycle_parking", "bicycle_parking": "stands", "capacity": "6", "ref:GB:tflcid": "RWG122583"}}, {"type": "node", "id": 10275615857, "lat": 51.5537353, "lon": 0.2479815, "tags": {"amenity": "bicycle_parking", "bicycle_parking": "stands", "capacity": "4", "ref:GB:tflcid": "RWG122578"}}, {"type": "node", "id": 10275615858, "lat": 51.5564581, "lon": 0.2530221, "tags": {"amenity": "bicycle_parking", "bicycle_parking": "stands", "capacity": "8", "ref:GB:tflcid": "RWG122569"}}, {"type": "node", "id": 10277991402, "lat": 51.5512361, "lon": 0.1995572, "tags": {"amenity": "bicycle_parking", "bicycle_parking": "stands", "capacity": "4", "ref:GB:tflcid": "RWG122704"}}, {"type": "node", "id": 10277991403, "lat": 51.550737, "lon": 0.1988649, "tags": {"amenity": "bicycle_parking", "bicycle_parking": "stands", "capacity": "6", "ref:GB:tflcid": "RWG122708"}}, {"type": "node", "id": 10277991404, "lat": 51.5523657, "lon": 0.1983196, "tags": {"amenity": "bicycle_parking", "bicycle_parking": "stands", "capacity": "10", "ref:GB:tflcid": "RWG122712"}}, {"type": "node", "id": 10277991502, "lat": 51.5510207, "lon": 0.1987029, "tags": {"amenity": "bicycle_parking", "bicycle_parking": "post_hoop", "capacity": "4", "ref:GB:tflcid": "RWG122707"}}, {"type": "node", "id": 10277991503, "lat": 51.5488486, "lon": 0.199629, "tags": {"amenity": "bicycle_parking", "bicycle_parking": "stands", "capacity": "10", "ref:GB:tflcid": "RWG122741"}}, {"type": "node", "id": 10277991504, "lat": 51.5494587, "lon": 0.1998973, "tags": {"amenity": "bicycle_parking", "bicycle_parking": "stands", "capacity": "6", "ref:GB:tflcid": "RWG122742"}}, {"type": "node", "id": 10277991505, "lat": 51.5486242, "lon": 0.2001905, "tags": {"amenity": "bicycle_parking", "bicycle_parking": "stands", "capacity": "6", "ref:GB:tflcid": "RWG122739"}}, {"type": "node", "id": 10277991875, "lat": 51.5286902, "lon": 0.1699602, "tags": {"amenity": "bicycle_parking", "capacity": "8", "ref:GB:tflcid": "RWG122723"}}, {"type": "node", "id": 10277991876, "lat": 51.5287377, "lon": 0.1706004, "tags": {"amenity": "bicycle_parking", "capacity": "8", "ref:GB:tflcid": "RWG122721"}}, {"type": "node", "id": 10277991959, "lat": 51.5989574, "lon": 0.1613235, "tags": {"amenity": "bicycle_parking", "bicycle_parking": "stands", "capacity": "4", "ref:GB:tflcid": "RWG156553"}}, {"type": "node", "id": 10277992223, "lat": 51.5491497, "lon": 0.1995418, "tags": {"amenity": "bicycle_parking", "bicycle_parking": "stands", "capacity": "10", "ref:GB:tflcid": "RWG122743"}}, {"type": "node", "id": 10277992232, "lat": 51.5285037, "lon": 0.1893748, "tags": {"amenity": "bicycle_parking", "bicycle_parking": "stands", "capacity": "8", "ref:GB:tflcid": "RWG122641"}}, {"type": "node", "id": 10277992234, "lat": 51.5296186, "lon": 0.1687905, "tags": {"amenity": "bicycle_parking", "bicycle_parking": "stands", "capacity": "6", "ref:GB:tflcid": "RWG122717"}}, {"type": "node", "id": 10277992237, "lat": 51.5990797, "lon": 0.1619708, "tags": {"amenity": "bicycle_parking", "bicycle_parking": "post_hoop", "capacity": "2", "ref:GB:tflcid": "RWG156550"}}, {"type": "node", "id": 10277993011, "lat": 51.5294636, "lon": 0.1680741, "tags": {"amenity": "bicycle_parking", "bicycle_lock": "provided", "bicycle_parking": "upright_stands", "capacity": "10", "covered": "yes", "ref:GB:tflcid": "RWG122714"}}, {"type": "node", "id": 10277993469, "lat": 51.5512715, "lon": 0.1999476, "tags": {"amenity": "bicycle_parking", "bicycle_parking": "stands", "capacity": "4", "ref:GB:tflcid": "RWG122703"}}, {"type": "node", "id": 10277993470, "lat": 51.5508998, "lon": 0.1990557, "tags": {"amenity": "bicycle_parking", "bicycle_parking": "stands", "capacity": "4", "ref:GB:tflcid": "RWG122709"}}, {"type": "node", "id": 10277993471, "lat": 51.5513117, "lon": 0.198778, "tags": {"amenity": "bicycle_parking", "bicycle_parking": "stands", "capacity": "4", "ref:GB:tflcid": "RWG122705"}}, {"type": "node", "id": 10277995309, "lat": 51.551059, "lon": 0.1987508, "tags": {"amenity": "bicycle_parking", "bicycle_parking": "post_hoop", "capacity": "2", "ref:GB:tflcid": "RWG122706"}}, {"type": "node", "id": 10277995464, "lat": 51.5179902, "lon": 0.1709234, "tags": {"amenity": "bicycle_parking", "bicycle_parking": "stands", "capacity": "16", "covered": "yes", "ref:GB:tflcid": "RWG122772"}}, {"type": "node", "id": 10277995466, "lat": 51.5292612, "lon": 0.1686833, "tags": {"amenity": "bicycle_parking", "bicycle_parking": "stands", "capacity": "8", "ref:GB:tflcid": "RWG122715"}}, {"type": "node", "id": 10277995467, "lat": 51.5285979, "lon": 0.1699437, "tags": {"amenity": "bicycle_parking", "capacity": "8", "ref:GB:tflcid": "RWG122722"}}, {"type": "node", "id": 10277995468, "lat": 51.5285714, "lon": 0.1698272, "tags": {"amenity": "bicycle_parking", "capacity": "8", "ref:GB:tflcid": "RWG122724"}}, {"type": "node", "id": 10277995469, "lat": 51.5289635, "lon": 0.1695363, "tags": {"amenity": "bicycle_parking", "bicycle_parking": "stands", "capacity": "10", "ref:GB:tflcid": "RWG122720"}}, {"type": "node", "id": 10277995470, "lat": 51.529508, "lon": 0.1697331, "tags": {"amenity": "bicycle_parking", "bicycle_parking": "stands", "capacity": "8", "ref:GB:tflcid": "RWG122718"}}, {"type": "node", "id": 10277995489, "lat": 51.5992062, "lon": 0.1625181, "tags": {"amenity": "bicycle_parking", "bicycle_parking": "stands", "capacity": "2", "ref:GB:tflcid": "RWG156551"}}, {"type": "node", "id": 10277995490, "lat": 51.600555, "lon": 0.1640481, "tags": {"amenity": "bicycle_parking", "bicycle_parking": "stands", "capacity": "6", "ref:GB:tflcid": "RWG122635"}}, {"type": "node", "id": 10277995640, "lat": 51.518054, "lon": 0.1707753, "tags": {"amenity": "bicycle_parking", "bicycle_parking": "stands", "capacity": "30", "covered": "yes", "ref:GB:tflcid": "RWG122771"}}, {"type": "node", "id": 10277995641, "lat": 51.5324707, "lon": 0.1911657, "tags": {"amenity": "bicycle_parking", "bicycle_parking": "stands", "capacity": "4", "ref:GB:tflcid": "RWG122767"}}, {"type": "node", "id": 10277995642, "lat": 51.52846, "lon": 0.1903284, "tags": {"amenity": "bicycle_parking", "bicycle_parking": "stands", "capacity": "2", "ref:GB:tflcid": "RWG122744"}}, {"type": "node", "id": 10277995646, "lat": 51.5292967, "lon": 0.1704948, "tags": {"amenity": "bicycle_parking", "capacity": "12", "ref:GB:tflcid": "RWG122719"}}, {"type": "node", "id": 10277995657, "lat": 51.5977738, "lon": 0.1534686, "tags": {"amenity": "bicycle_parking", "bicycle_parking": "post_hoop", "capacity": "2", "ref:GB:tflcid": "RWG156576"}}, {"type": "node", "id": 10277995658, "lat": 51.5989116, "lon": 0.1622215, "tags": {"amenity": "bicycle_parking", "bicycle_parking": "stands", "capacity": "2", "ref:GB:tflcid": "RWG156546"}}, {"type": "node", "id": 10277995659, "lat": 51.5990107, "lon": 0.1616266, "tags": {"amenity": "bicycle_parking", "bicycle_parking": "stands", "capacity": "2", "ref:GB:tflcid": "RWG156552"}}, {"type": "node", "id": 10277995660, "lat": 51.5985634, "lon": 0.1609971, "tags": {"amenity": "bicycle_parking", "bicycle_parking": "stands", "capacity": "10", "ref:GB:tflcid": "RWG156547"}}, {"type": "node", "id": 10277995661, "lat": 51.5999706, "lon": 0.1635839, "tags": {"amenity": "bicycle_parking", "bicycle_parking": "stands", "capacity": "2", "ref:GB:tflcid": "RWG122669"}}, {"type": "node", "id": 10277996562, "lat": 51.5187975, "lon": 0.1698181, "tags": {"amenity": "bicycle_parking", "bicycle_parking": "stands", "capacity": "6", "covered": "yes", "ref:GB:tflcid": "RWG122769"}}, {"type": "node", "id": 10277996563, "lat": 51.5245469, "lon": 0.1758992, "tags": {"amenity": "bicycle_parking", "bicycle_parking": "stands", "capacity": "10", "covered": "yes", "ref:GB:tflcid": "RWG122735"}}, {"type": "node", "id": 10277996564, "lat": 51.5287519, "lon": 0.1898342, "tags": {"amenity": "bicycle_parking", "bicycle_parking": "stands", "capacity": "4", "ref:GB:tflcid": "RWG122643"}}, {"type": "node", "id": 10277996565, "lat": 51.5288017, "lon": 0.1901518, "tags": {"amenity": "bicycle_parking", "bicycle_parking": "stands", "capacity": "4", "ref:GB:tflcid": "RWG122740"}}, {"type": "node", "id": 10277996566, "lat": 51.5303589, "lon": 0.1876236, "tags": {"amenity": "bicycle_parking", "bicycle_parking": "stands", "capacity": "6", "ref:GB:tflcid": "RWG122661"}}, {"type": "node", "id": 10277996567, "lat": 51.5288993, "lon": 0.1892528, "tags": {"amenity": "bicycle_parking", "bicycle_parking": "stands", "capacity": "4", "ref:GB:tflcid": "RWG122642"}}, {"type": "node", "id": 10277996574, "lat": 51.5294704, "lon": 0.1689204, "tags": {"amenity": "bicycle_parking", "bicycle_parking": "stands", "capacity": "8", "ref:GB:tflcid": "RWG122716"}}, {"type": "node", "id": 10277996580, "lat": 51.5981837, "lon": 0.1574918, "tags": {"amenity": "bicycle_parking", "bicycle_parking": "stands", "capacity": "4", "ref:GB:tflcid": "RWG156554"}}, {"type": "node", "id": 10277996581, "lat": 51.5990472, "lon": 0.1628649, "tags": {"amenity": "bicycle_parking", "bicycle_parking": "stands", "capacity": "4", "ref:GB:tflcid": "RWG156545"}}, {"type": "node", "id": 10280248246, "lat": 51.6128317, "lon": 0.222016, "tags": {"amenity": "bicycle_parking", "bicycle_parking": "stands", "capacity": "2", "ref:GB:tflcid": "RWG122613"}}, {"type": "node", "id": 10280248247, "lat": 51.6127633, "lon": 0.2217926, "tags": {"amenity": "bicycle_parking", "bicycle_parking": "stands", "capacity": "2", "ref:GB:tflcid": "RWG122614"}}, {"type": "node", "id": 10280248248, "lat": 51.6070245, "lon": 0.2181517, "tags": {"amenity": "bicycle_parking", "bicycle_parking": "stands", "capacity": "4", "ref:GB:tflcid": "RWG122733"}}, {"type": "node", "id": 10280252430, "lat": 51.6032458, "lon": 0.214026, "tags": {"amenity": "bicycle_parking", "bicycle_parking": "stands", "capacity": "10", "ref:GB:tflcid": "RWG122633"}}, {"type": "node", "id": 10280252431, "lat": 51.6062186, "lon": 0.2188055, "tags": {"amenity": "bicycle_parking", "bicycle_parking": "stands", "capacity": "8", "ref:GB:tflcid": "RWG122736"}}, {"type": "node", "id": 10280252432, "lat": 51.6076279, "lon": 0.218538, "tags": {"amenity": "bicycle_parking", "bicycle_parking": "stands", "capacity": "12", "ref:GB:tflcid": "RWG122746"}}, {"type": "node", "id": 10280252433, "lat": 51.6069514, "lon": 0.217542, "tags": {"amenity": "bicycle_parking", "bicycle_parking": "stands", "capacity": "4", "ref:GB:tflcid": "RWG122734"}}, {"type": "node", "id": 10280252434, "lat": 51.6075249, "lon": 0.2197777, "tags": {"amenity": "bicycle_parking", "bicycle_parking": "stands", "capacity": "4", "ref:GB:tflcid": "RWG122731"}}, {"type": "node", "id": 10280259087, "lat": 51.5772029, "lon": 0.1794897, "tags": {"amenity": "bicycle_parking", "bicycle_parking": "stands", "capacity": "10", "covered": "yes", "ref:GB:tflcid": "RWG122754"}}, {"type": "node", "id": 10280259088, "lat": 51.5776634, "lon": 0.1786727, "tags": {"amenity": "bicycle_parking", "bicycle_parking": "stands", "capacity": "8", "ref:GB:tflcid": "RWG122800"}}, {"type": "node", "id": 10280259089, "lat": 51.5686189, "lon": 0.1804756, "tags": {"amenity": "bicycle_parking", "bicycle_parking": "stands", "capacity": "10", "ref:GB:tflcid": "RWG289780"}}, {"type": "node", "id": 10280259090, "lat": 51.5684357, "lon": 0.1808179, "tags": {"amenity": "bicycle_parking", "bicycle_parking": "stands", "capacity": "20", "covered": "yes", "ref:GB:tflcid": "RWG289777"}}, {"type": "node", "id": 10280259091, "lat": 51.5685641, "lon": 0.1805221, "tags": {"amenity": "bicycle_parking", "bicycle_parking": "stands", "capacity": "10", "ref:GB:tflcid": "RWG289779"}}, {"type": "node", "id": 10280259092, "lat": 51.5679286, "lon": 0.1808734, "tags": {"amenity": "bicycle_parking", "bicycle_parking": "stands", "capacity": "10", "covered": "yes", "ref:GB:tflcid": "RWG289782"}}, {"type": "node", "id": 10280259139, "lat": 51.5815497, "lon": 0.1744775, "tags": {"amenity": "bicycle_parking", "bicycle_parking": "upright_stands", "capacity": "10", "covered": "yes", "ref:GB:tflcid": "RWG156560"}}, {"type": "node", "id": 10280260221, "lat": 51.5814563, "lon": 0.1745566, "tags": {"amenity": "bicycle_parking", "bicycle_parking": "upright_stands", "capacity": "15", "covered": "yes", "ref:GB:tflcid": "RWG156561"}}, {"type": "node", "id": 10280260222, "lat": 51.5769466, "lon": 0.1775546, "tags": {"amenity": "bicycle_parking", "bicycle_parking": "stands", "capacity": "10", "ref:GB:tflcid": "RWG122755"}}, {"type": "node", "id": 10280260293, "lat": 51.5717386, "lon": 0.1892719, "tags": {"amenity": "bicycle_parking", "bicycle_parking": "post_hoop", "capacity": "4", "ref:GB:tflcid": "RWG122790"}}, {"type": "node", "id": 10280260294, "lat": 51.5653233, "lon": 0.1881655, "tags": {"amenity": "bicycle_parking", "bicycle_parking": "stands", "capacity": "6", "ref:GB:tflcid": "RWG122603"}}, {"type": "node", "id": 10280260295, "lat": 51.5689557, "lon": 0.1932901, "tags": {"amenity": "bicycle_parking", "bicycle_parking": "post_hoop", "capacity": "2", "ref:GB:tflcid": "RWG122600"}}, {"type": "node", "id": 10280263011, "lat": 51.606321, "lon": 0.2193923, "tags": {"amenity": "bicycle_parking", "bicycle_parking": "stands", "capacity": "10", "ref:GB:tflcid": "RWG122737"}}, {"type": "node", "id": 10280263609, "lat": 51.6127141, "lon": 0.2216409, "tags": {"amenity": "bicycle_parking", "bicycle_parking": "stands", "capacity": "2", "ref:GB:tflcid": "RWG122615"}}, {"type": "node", "id": 10280277501, "lat": 51.533941, "lon": 0.1672996, "tags": {"amenity": "bicycle_parking", "bicycle_parking": "stands", "capacity": "4", "ref:GB:tflcid": "RWG157018"}}, {"type": "node", "id": 10280281641, "lat": 51.5659418, "lon": 0.1911958, "tags": {"amenity": "bicycle_parking", "capacity": "18", "ref:GB:tflcid": "RWG220377"}}, {"type": "node", "id": 10280282720, "lat": 51.5687588, "lon": 0.1933977, "tags": {"amenity": "bicycle_parking", "bicycle_parking": "post_hoop", "capacity": "2", "ref:GB:tflcid": "RWG122599"}}, {"type": "node", "id": 10280282721, "lat": 51.5692198, "lon": 0.1931725, "tags": {"amenity": "bicycle_parking", "bicycle_parking": "post_hoop", "capacity": "2", "ref:GB:tflcid": "RWG122601"}}, {"type": "node", "id": 10280282722, "lat": 51.5693968, "lon": 0.19309, "tags": {"amenity": "bicycle_parking", "bicycle_parking": "post_hoop", "capacity": "2", "ref:GB:tflcid": "RWG122602"}}, {"type": "node", "id": 10281975256, "lat": 51.5949507, "lon": 0.2126773, "tags": {"amenity": "bicycle_parking", "bicycle_parking": "stands", "capacity": "4", "ref:GB:tflcid": "RWG122710"}}, {"type": "node", "id": 10281975257, "lat": 51.5950231, "lon": 0.2126534, "tags": {"amenity": "bicycle_parking", "bicycle_parking": "stands", "capacity": "4", "ref:GB:tflcid": "RWG122711"}}, {"type": "node", "id": 10281975258, "lat": 51.5932598, "lon": 0.2136131, "tags": {"amenity": "bicycle_parking", "bicycle_parking": "stands", "capacity": "8", "ref:GB:tflcid": "RWG122774"}}, {"type": "node", "id": 10281975259, "lat": 51.5928094, "lon": 0.2153767, "tags": {"amenity": "bicycle_parking", "bicycle_parking": "stands", "capacity": "8", "covered": "yes", "ref:GB:tflcid": "RWG122726"}}, {"type": "node", "id": 10281975260, "lat": 51.5928455, "lon": 0.216646, "tags": {"amenity": "bicycle_parking", "bicycle_parking": "stands", "capacity": "12", "ref:GB:tflcid": "RWG122727"}}, {"type": "node", "id": 10281975297, "lat": 51.5983511, "lon": 0.1769913, "tags": {"amenity": "bicycle_parking", "bicycle_parking": "stands", "capacity": "2", "ref:GB:tflcid": "RWG122693"}}, {"type": "node", "id": 10281997767, "lat": 51.5984955, "lon": 0.1764965, "tags": {"amenity": "bicycle_parking", "bicycle_parking": "stands", "capacity": "2", "covered": "no", "ref:GB:tflcid": "RWG122694"}}, {"type": "node", "id": 10281998315, "lat": 51.6010311, "lon": 0.1754072, "tags": {"amenity": "bicycle_parking", "bicycle_parking": "stands", "capacity": "2", "ref:GB:tflcid": "RWG122682"}}, {"type": "node", "id": 10281998330, "lat": 51.5558434, "lon": 0.1992362, "tags": {"amenity": "bicycle_parking", "bicycle_parking": "stands", "capacity": "8", "ref:GB:tflcid": "RWG220379"}}, {"type": "node", "id": 10281998391, "lat": 51.5856134, "lon": 0.2162143, "tags": {"amenity": "bicycle_parking", "bicycle_parking": "stands", "capacity": "10", "covered": "yes", "ref:GB:tflcid": "RWG122688"}}, {"type": "node", "id": 10281998392, "lat": 51.5855825, "lon": 0.2160918, "tags": {"amenity": "bicycle_parking", "bicycle_parking": "stands", "capacity": "10", "covered": "yes", "ref:GB:tflcid": "RWG122687"}}, {"type": "node", "id": 10281998393, "lat": 51.5833192, "lon": 0.2131324, "tags": {"amenity": "bicycle_parking", "bicycle_parking": "wall_loops", "capacity": "6", "ref:GB:tflcid": "RWG122701"}}, {"type": "node", "id": 10281998968, "lat": 51.525827, "lon": 0.2149022, "tags": {"amenity": "bicycle_parking", "bicycle_parking": "stands", "capacity": "2", "ref:GB:tflcid": "RWG122659"}}, {"type": "node", "id": 10281999006, "lat": 51.610706, "lon": 0.1623271, "tags": {"amenity": "bicycle_parking", "bicycle_parking": "stands", "capacity": "20", "covered": "yes", "ref:GB:tflcid": "RWG151277"}}, {"type": "node", "id": 10281999007, "lat": 51.6095326, "lon": 0.1653212, "tags": {"amenity": "bicycle_parking", "bicycle_parking": "stands", "capacity": "10", "covered": "yes", "ref:GB:tflcid": "RWG122616"}}, {"type": "node", "id": 10281999017, "lat": 51.6008469, "lon": 0.1758254, "tags": {"amenity": "bicycle_parking", "bicycle_parking": "stands", "capacity": "2", "ref:GB:tflcid": "RWG122680"}}, {"type": "node", "id": 10281999018, "lat": 51.6009458, "lon": 0.1756099, "tags": {"amenity": "bicycle_parking", "bicycle_parking": "stands", "capacity": "2", "ref:GB:tflcid": "RWG122681"}}, {"type": "node", "id": 10281999032, "lat": 51.5565432, "lon": 0.1983234, "tags": {"amenity": "bicycle_parking", "bicycle_parking": "stands", "capacity": "6", "ref:GB:tflcid": "RWG220378"}}, {"type": "node", "id": 10282005111, "lat": 51.5558722, "lon": 0.199846, "tags": {"amenity": "bicycle_parking", "bicycle_parking": "stands", "capacity": "6", "ref:GB:tflcid": "RWG220380"}}, {"type": "node", "id": 10282005190, "lat": 51.5812906, "lon": 0.2084069, "tags": {"amenity": "bicycle_parking", "bicycle_parking": "stands", "capacity": "4", "ref:GB:tflcid": "RWG122674"}}, {"type": "node", "id": 10282006034, "lat": 51.6062321, "lon": 0.1669986, "tags": {"amenity": "bicycle_parking", "bicycle_parking": "stands", "capacity": "6", "ref:GB:tflcid": "RWG122639"}}, {"type": "node", "id": 10282006119, "lat": 51.5546898, "lon": 0.2194718, "tags": {"amenity": "bicycle_parking", "bicycle_parking": "post_hoop", "capacity": "6", "ref:GB:tflcid": "RWG122586"}}, {"type": "node", "id": 10282006442, "lat": 51.5397612, "lon": 0.1872349, "tags": {"amenity": "bicycle_parking", "bicycle_parking": "stands", "capacity": "6", "ref:GB:tflcid": "RWG122745"}}, {"type": "node", "id": 10282006452, "lat": 51.5837837, "lon": 0.1686261, "tags": {"amenity": "bicycle_parking", "bicycle_parking": "stands", "capacity": "12", "ref:GB:tflcid": "RWG156565"}}, {"type": "node", "id": 10282006520, "lat": 51.5879643, "lon": 0.2386265, "tags": {"amenity": "bicycle_parking", "capacity": "4", "ref:GB:tflcid": "RWG122732"}}, {"type": "node", "id": 10282007319, "lat": 51.580494, "lon": 0.1781572, "tags": {"amenity": "bicycle_parking", "bicycle_parking": "post_hoop", "capacity": "1", "ref:GB:tflcid": "RWG122797"}}, {"type": "node", "id": 10282007320, "lat": 51.5805406, "lon": 0.1781489, "tags": {"amenity": "bicycle_parking", "bicycle_parking": "post_hoop", "capacity": "1", "ref:GB:tflcid": "RWG122798"}}, {"type": "node", "id": 10282007321, "lat": 51.5793344, "lon": 0.1786828, "tags": {"amenity": "bicycle_parking", "bicycle_parking": "stands", "capacity": "8", "ref:GB:tflcid": "RWG122799"}}, {"type": "node", "id": 10282007322, "lat": 51.5780825, "lon": 0.1806799, "tags": {"amenity": "bicycle_parking", "bicycle_parking": "stands", "capacity": "8", "ref:GB:tflcid": "RWG122756"}}, {"type": "node", "id": 10282007545, "lat": 51.5614852, "lon": 0.2079976, "tags": {"amenity": "bicycle_parking", "bicycle_parking": "stands", "capacity": "8", "ref:GB:tflcid": "RWG122760"}}, {"type": "node", "id": 10282007588, "lat": 51.5551799, "lon": 0.1955544, "tags": {"amenity": "bicycle_parking", "bicycle_parking": "stands", "capacity": "2", "ref:GB:tflcid": "RWG122702"}}, {"type": "node", "id": 10282007793, "lat": 51.5614234, "lon": 0.207597, "tags": {"amenity": "bicycle_parking", "bicycle_parking": "stands", "capacity": "18", "ref:GB:tflcid": "RWG122757"}}, {"type": "node", "id": 10282007794, "lat": 51.5616911, "lon": 0.2078086, "tags": {"amenity": "bicycle_parking", "bicycle_parking": "stands", "capacity": "10", "covered": "yes", "ref:GB:tflcid": "RWG122763"}}, {"type": "node", "id": 10282007795, "lat": 51.5615073, "lon": 0.2079113, "tags": {"amenity": "bicycle_parking", "bicycle_parking": "stands", "capacity": "6", "ref:GB:tflcid": "RWG122761"}}, {"type": "node", "id": 10282007808, "lat": 51.5929799, "lon": 0.1811217, "tags": {"amenity": "bicycle_parking", "bicycle_parking": "stands", "capacity": "6", "covered": "no", "ref:GB:tflcid": "RWG122640"}}, {"type": "node", "id": 10282007836, "lat": 51.565558, "lon": 0.175898, "tags": {"amenity": "bicycle_parking", "bicycle_parking": "stands", "capacity": "2", "ref:GB:tflcid": "RWG156581"}}, {"type": "node", "id": 10282007837, "lat": 51.5655262, "lon": 0.1754693, "tags": {"amenity": "bicycle_parking", "bicycle_parking": "stands", "capacity": "2", "ref:GB:tflcid": "RWG156580"}}, {"type": "node", "id": 10282007853, "lat": 51.5347809, "lon": 0.1926875, "tags": {"amenity": "bicycle_parking", "bicycle_parking": "stands", "capacity": "4", "ref:GB:tflcid": "RWG122766"}}, {"type": "node", "id": 10282007856, "lat": 51.5842451, "lon": 0.220431, "tags": {"amenity": "bicycle_parking", "bicycle_parking": "stands", "capacity": "4", "ref:GB:tflcid": "RWG122685"}}, {"type": "node", "id": 10282007888, "lat": 51.5999709, "lon": 0.2219403, "tags": {"amenity": "bicycle_parking", "bicycle_parking": "stands", "capacity": "4", "ref:GB:tflcid": "RWG122646"}}, {"type": "node", "id": 10282007893, "lat": 51.6003095, "lon": 0.2112213, "tags": {"amenity": "bicycle_parking", "bicycle_parking": "stands", "capacity": "6", "ref:GB:tflcid": "RWG122631"}}, {"type": "node", "id": 10282007896, "lat": 51.6112316, "lon": 0.2104365, "tags": {"amenity": "bicycle_parking", "bicycle_parking": "stands", "capacity": "12", "covered": "yes", "ref:GB:tflcid": "RWG122776"}}, {"type": "node", "id": 10282007897, "lat": 51.6109898, "lon": 0.2101264, "tags": {"amenity": "bicycle_parking", "bicycle_parking": "stands", "capacity": "6", "ref:GB:tflcid": "RWG122777"}}, {"type": "node", "id": 10282007907, "lat": 51.5685964, "lon": 0.267656, "tags": {"amenity": "bicycle_parking", "bicycle_parking": "stands", "capacity": "4", "ref:GB:tflcid": "RWG122623"}}, {"type": "node", "id": 10282007910, "lat": 51.5804678, "lon": 0.1781819, "tags": {"amenity": "bicycle_parking", "bicycle_parking": "post_hoop", "capacity": "1", "ref:GB:tflcid": "RWG122796"}}, {"type": "node", "id": 10282007954, "lat": 51.5835172, "lon": 0.167377, "tags": {"amenity": "bicycle_parking", "bicycle_parking": "stands", "capacity": "8", "ref:GB:tflcid": "RWG220536"}}, {"type": "node", "id": 10282007971, "lat": 51.5653768, "lon": 0.1755155, "tags": {"amenity": "bicycle_parking", "bicycle_parking": "stands", "capacity": "2", "ref:GB:tflcid": "RWG156593"}}, {"type": "node", "id": 10282008336, "lat": 51.5824465, "lon": 0.1647697, "tags": {"amenity": "bicycle_parking", "bicycle_parking": "stands", "capacity": "4", "ref:GB:tflcid": "RWG157323"}}, {"type": "node", "id": 10282008345, "lat": 51.4920455, "lon": 0.1523309, "tags": {"amenity": "bicycle_parking", "capacity": "10", "covered": "yes", "ref:GB:tflcid": "RWG171637"}}, {"type": "node", "id": 10282008346, "lat": 51.4913894, "lon": 0.1502625, "tags": {"amenity": "bicycle_parking", "bicycle_parking": "stands", "capacity": "6", "ref:GB:tflcid": "RWG171593"}}, {"type": "node", "id": 10282008404, "lat": 51.5896438, "lon": 0.1682825, "tags": {"amenity": "bicycle_parking", "bicycle_parking": "stands", "capacity": "4", "ref:GB:tflcid": "RWG122628"}}, {"type": "node", "id": 10282008811, "lat": 51.5762831, "lon": 0.2153561, "tags": {"amenity": "bicycle_parking", "bicycle_parking": "stands", "capacity": "4", "ref:GB:tflcid": "RWG122791"}}, {"type": "node", "id": 10282008819, "lat": 51.59309, "lon": 0.2179376, "tags": {"amenity": "bicycle_parking", "capacity": "14", "ref:GB:tflcid": "RWG122738"}}, {"type": "node", "id": 10282008841, "lat": 51.5909487, "lon": 0.2102935, "tags": {"amenity": "bicycle_parking", "bicycle_parking": "stands", "capacity": "6", "ref:GB:tflcid": "RWG220381"}}, {"type": "node", "id": 10282009635, "lat": 51.5833684, "lon": 0.2205743, "tags": {"amenity": "bicycle_parking", "bicycle_parking": "stands", "capacity": "4", "ref:GB:tflcid": "RWG122684"}}, {"type": "node", "id": 10282009636, "lat": 51.5684641, "lon": 0.2198289, "tags": {"amenity": "bicycle_parking", "bicycle_parking": "stands", "capacity": "4", "ref:GB:tflcid": "RWG122607"}}, {"type": "node", "id": 10282009637, "lat": 51.5262183, "lon": 0.1935665, "tags": {"amenity": "bicycle_parking", "bicycle_parking": "stands", "capacity": "4", "ref:GB:tflcid": "RWG151280"}}, {"type": "node", "id": 10282009647, "lat": 51.5906922, "lon": 0.1675726, "tags": {"amenity": "bicycle_parking", "bicycle_parking": "stands", "capacity": "8", "covered": "yes", "ref:GB:tflcid": "RWG122629"}}, {"type": "node", "id": 10282009657, "lat": 51.5648354, "lon": 0.202699, "tags": {"amenity": "bicycle_parking", "bicycle_parking": "stands", "capacity": "4", "ref:GB:tflcid": "RWG122609"}}, {"type": "node", "id": 10282009658, "lat": 51.6084163, "lon": 0.2236075, "tags": {"amenity": "bicycle_parking", "bicycle_parking": "stands", "capacity": "20", "covered": "yes", "ref:GB:tflcid": "RWG151282"}}, {"type": "node", "id": 10282009663, "lat": 51.6026634, "lon": 0.213778, "tags": {"amenity": "bicycle_parking", "bicycle_parking": "stands", "capacity": "8", "ref:GB:tflcid": "RWG122632"}}, {"type": "node", "id": 10282009683, "lat": 51.5429322, "lon": 0.1989753, "tags": {"amenity": "bicycle_parking", "bicycle_lock": "provided", "bicycle_parking": "stands", "capacity": "8", "covered": "yes", "ref:GB:tflcid": "RWG122747"}}, {"type": "node", "id": 10282010009, "lat": 51.5953353, "lon": 0.1849577, "tags": {"amenity": "bicycle_parking", "bicycle_parking": "stands", "capacity": "10", "ref:GB:tflcid": "RWG122697"}}, {"type": "node", "id": 10282010010, "lat": 51.5957962, "lon": 0.1866708, "tags": {"amenity": "bicycle_parking", "bicycle_parking": "stands", "capacity": "6", "ref:GB:tflcid": "RWG122699"}}, {"type": "node", "id": 10282010011, "lat": 51.5953371, "lon": 0.1858386, "tags": {"amenity": "bicycle_parking", "bicycle_parking": "stands", "capacity": "10", "ref:GB:tflcid": "RWG122698"}}, {"type": "node", "id": 10282010479, "lat": 51.5580307, "lon": 0.2498724, "tags": {"amenity": "bicycle_parking", "bicycle_parking": "stands", "capacity": "6", "covered": "no", "ref:GB:tflcid": "RWG122573"}}, {"type": "node", "id": 10282010489, "lat": 51.5828302, "lon": 0.1918326, "tags": {"amenity": "bicycle_parking", "bicycle_parking": "stands", "capacity": "10", "ref:GB:tflcid": "RWG122634"}}, {"type": "node", "id": 10282010492, "lat": 51.5800221, "lon": 0.2061012, "tags": {"amenity": "bicycle_parking", "bicycle_parking": "stands", "capacity": "12", "covered": "yes", "ref:GB:tflcid": "RWG122664"}}, {"type": "node", "id": 10282010507, "lat": 51.5925124, "lon": 0.2142904, "tags": {"amenity": "bicycle_parking", "bicycle_parking": "stands", "capacity": "10", "ref:GB:tflcid": "RWG122725"}}, {"type": "node", "id": 10282013811, "lat": 51.5829185, "lon": 0.1671994, "tags": {"amenity": "bicycle_parking", "bicycle_parking": "stands", "capacity": "14", "ref:GB:tflcid": "RWG156566"}}, {"type": "node", "id": 10282013813, "lat": 51.4974179, "lon": 0.1551718, "tags": {"amenity": "bicycle_parking", "bicycle_parking": "stands", "capacity": "6", "ref:GB:tflcid": "RWG171768"}}, {"type": "node", "id": 10282013824, "lat": 51.5716331, "lon": 0.2189745, "tags": {"amenity": "bicycle_parking", "bicycle_parking": "stands", "capacity": "6", "ref:GB:tflcid": "RWG122792"}}, {"type": "node", "id": 10282013834, "lat": 51.6109132, "lon": 0.2398982, "tags": {"amenity": "bicycle_parking", "bicycle_lock": "provided", "bicycle_parking": "stands", "capacity": "60", "covered": "yes", "ref:GB:tflcid": "RWG151279"}}, {"type": "node", "id": 10282013847, "lat": 51.4935166, "lon": 0.1384465, "tags": {"amenity": "bicycle_parking", "bicycle_parking": "stands", "capacity": "4", "covered": "no", "ref:GB:tflcid": "RWG171556"}}, {"type": "node", "id": 10282013859, "lat": 51.5267081, "lon": 0.1656319, "tags": {"access": "private", "amenity": "bicycle_parking", "bicycle_parking": "shed", "capacity": "6", "covered": "yes", "operator": "Cyclehoop Rentals", "ref:GB:tflcid": "RWG122713"}}, {"type": "node", "id": 10282013860, "lat": 51.58708, "lon": 0.2020748, "tags": {"amenity": "bicycle_parking", "bicycle_parking": "post_hoop", "capacity": "2", "ref:GB:tflcid": "RWG122644"}}, {"type": "node", "id": 10282015767, "lat": 51.5535727, "lon": 0.1923191, "tags": {"amenity": "bicycle_parking", "bicycle_parking": "stands", "capacity": "12", "ref:GB:tflcid": "RWG122730"}}, {"type": "node", "id": 10282016910, "lat": 51.5152681, "lon": 0.202053, "tags": {"amenity": "bicycle_parking", "bicycle_parking": "post_hoop", "capacity": "2", "ref:GB:tflcid": "RWG122645"}}, {"type": "node", "id": 10282016911, "lat": 51.5151702, "lon": 0.2021613, "tags": {"amenity": "bicycle_parking", "bicycle_parking": "post_hoop", "capacity": "2", "ref:GB:tflcid": "RWG122647"}}, {"type": "node", "id": 10282016934, "lat": 51.5913024, "lon": 0.1573603, "tags": {"amenity": "bicycle_parking", "bicycle_parking": "stands", "capacity": "6", "ref:GB:tflcid": "RWG156548"}}, {"type": "node", "id": 10282016935, "lat": 51.5973296, "lon": 0.1581814, "tags": {"amenity": "bicycle_parking", "bicycle_parking": "stands", "capacity": "6", "ref:GB:tflcid": "RWG156555"}}, {"type": "node", "id": 10282016936, "lat": 51.591062, "lon": 0.157714, "tags": {"amenity": "bicycle_parking", "bicycle_parking": "stands", "capacity": "6", "ref:GB:tflcid": "RWG156549"}}, {"type": "node", "id": 10282018113, "lat": 51.5558976, "lon": 0.2079829, "tags": {"amenity": "bicycle_parking", "bicycle_parking": "stands", "capacity": "2", "ref:GB:tflcid": "RWG122630"}}, {"type": "node", "id": 10282018114, "lat": 51.554814, "lon": 0.2195387, "tags": {"amenity": "bicycle_parking", "bicycle_parking": "post_hoop", "capacity": "8", "ref:GB:tflcid": "RWG122587"}}, {"type": "node", "id": 10282018909, "lat": 51.5777271, "lon": 0.2075348, "tags": {"amenity": "bicycle_parking", "bicycle_parking": "stands", "capacity": "6", "ref:GB:tflcid": "RWG122666"}}, {"type": "node", "id": 10282019411, "lat": 51.5685679, "lon": 0.2681832, "tags": {"amenity": "bicycle_parking", "bicycle_parking": "stands", "capacity": "4", "ref:GB:tflcid": "RWG122624"}}, {"type": "node", "id": 10282020709, "lat": 51.5339908, "lon": 0.1827484, "tags": {"amenity": "bicycle_parking", "bicycle_parking": "stands", "capacity": "4", "ref:GB:tflcid": "RWG122775"}}, {"type": "node", "id": 10282021839, "lat": 51.5998554, "lon": 0.2222755, "tags": {"amenity": "bicycle_parking", "bicycle_parking": "stands", "capacity": "4", "ref:GB:tflcid": "RWG122648"}}, {"type": "node", "id": 10282021841, "lat": 51.5650721, "lon": 0.1999801, "tags": {"amenity": "bicycle_parking", "bicycle_parking": "post_hoop", "capacity": "2", "ref:GB:tflcid": "RWG122604"}}, {"type": "node", "id": 10282021842, "lat": 51.5933078, "lon": 0.2187886, "tags": {"amenity": "bicycle_parking", "capacity": "22", "covered": "yes", "ref:GB:tflcid": "RWG122770"}}, {"type": "node", "id": 10282024116, "lat": 51.5434548, "lon": 0.2080182, "tags": {"amenity": "bicycle_parking", "bicycle_parking": "wall_loops", "capacity": "4", "ref:GB:tflcid": "RWG122617"}}, {"type": "node", "id": 10282027024, "lat": 51.5526006, "lon": 0.2292742, "tags": {"amenity": "bicycle_parking", "bicycle_parking": "stands", "capacity": "12", "ref:GB:tflcid": "RWG122564"}}, {"type": "node", "id": 10282027033, "lat": 51.5635649, "lon": 0.2343238, "tags": {"amenity": "bicycle_parking", "bicycle_parking": "stands", "capacity": "4", "covered": "no", "ref:GB:tflcid": "RWG122660"}}, {"type": "node", "id": 10282034010, "lat": 51.552422, "lon": 0.218472, "tags": {"amenity": "bicycle_parking", "bicycle_parking": "stands", "capacity": "6", "ref:GB:tflcid": "RWG122610"}}, {"type": "node", "id": 10585448350, "lat": 51.4978067, "lon": 0.3290064, "tags": {"access": "yes", "amenity": "bicycle_parking", "bicycle_parking": "stands", "capacity": "2", "covered": "no", "fee": "no"}}, {"type": "node", "id": 10585448351, "lat": 51.497808, "lon": 0.3290252, "tags": {"access": "yes", "amenity": "bicycle_parking", "bicycle_parking": "stands", "capacity": "2", "covered": "no", "fee": "no"}}, {"type": "node", "id": 10585448352, "lat": 51.4979036, "lon": 0.3290238, "tags": {"access": "yes", "amenity": "bicycle_parking", "bicycle_parking": "stands", "capacity": "2", "covered": "no", "fee": "no"}}, {"type": "node", "id": 10585448353, "lat": 51.4979078, "lon": 0.3290681, "tags": {"access": "yes", "amenity": "bicycle_parking", "bicycle_parking": "stands", "capacity": "2", "covered": "no", "fee": "no"}}, {"type": "node", "id": 10585448357, "lat": 51.4979883, "lon": 0.3299767, "tags": {"access": "yes", "amenity": "bicycle_parking", "bicycle_parking": "stands", "capacity": "2", "covered": "no", "fee": "no"}}, {"type": "node", "id": 10585448358, "lat": 51.4979896, "lon": 0.3299995, "tags": {"access": "yes", "amenity": "bicycle_parking", "bicycle_parking": "stands", "capacity": "2", "covered": "no", "fee": "no"}}, {"type": "node", "id": 10585448359, "lat": 51.497879, "lon": 0.329862, "tags": {"access": "yes", "amenity": "bicycle_parking", "bicycle_parking": "stands", "capacity": "2", "covered": "no", "fee": "no"}}, {"type": "node", "id": 10585448360, "lat": 51.4978815, "lon": 0.3298882, "tags": {"access": "yes", "amenity": "bicycle_parking", "bicycle_parking": "stands", "capacity": "2", "covered": "no", "fee": "no"}}, {"type": "node", "id": 10593828838, "lat": 51.5619028, "lon": 0.2064568, "tags": {"amenity": "bicycle_parking", "capacity": "16"}}, {"type": "node", "id": 10594194743, "lat": 51.5627816, "lon": 0.2664019, "tags": {"access": "yes", "amenity": "bicycle_parking", "bicycle_parking": "stands", "capacity": "2", "covered": "no", "fee": "no"}}, {"type": "node", "id": 10594194744, "lat": 51.5625878, "lon": 0.266474, "tags": {"access": "yes", "amenity": "bicycle_parking", "bicycle_parking": "stands", "capacity": "2", "covered": "no", "fee": "no"}}, {"type": "node", "id": 10940498938, "lat": 51.4848075, "lon": 0.2786326, "tags": {"access": "yes", "amenity": "bicycle_parking", "bicycle_parking": "stands", "capacity": "12", "colour": "silver", "covered": "no", "fee": "no", "lit": "yes"}}, {"type": "node", "id": 11524733613, "lat": 51.4912969, "lon": 0.1532393, "tags": {"amenity": "bicycle_parking", "bicycle_parking": "stands", "capacity": "8"}}, {"type": "node", "id": 11965375295, "lat": 51.5193302, "lon": 0.1934285, "tags": {"amenity": "bicycle_parking", "bicycle_parking": "shed", "capacity": "22", "covered": "yes", "fee": "no"}}, {"type": "node", "id": 11965375296, "lat": 51.519406, "lon": 0.1934456, "tags": {"amenity": "bicycle_parking", "bicycle_parking": "shed", "capacity": "22", "covered": "yes", "fee": "no"}}, {"type": "node", "id": 11965377331, "lat": 51.520043, "lon": 0.1911697, "tags": {"amenity": "bicycle_parking", "bicycle_parking": "stands", "capacity": "4", "covered": "yes", "fee": "no"}}, {"type": "node", "id": 11983094293, "lat": 51.5225149, "lon": 0.1863453, "tags": {"amenity": "bicycle_parking", "bicycle_parking": "stands", "capacity": "6", "covered": "no", "fee": "no"}}, {"type": "node", "id": 12400212733, "lat": 51.4876202, "lon": 0.2709704, "tags": {"amenity": "bicycle_parking", "bicycle_parking": "stands", "capacity": "12", "covered": "yes"}}, {"type": "node", "id": 12400215057, "lat": 51.4871866, "lon": 0.2701163, "tags": {"amenity": "bicycle_parking", "bicycle_parking": "stands", "capacity": "10", "covered": "no"}}, {"type": "node", "id": 12400231812, "lat": 51.4868242, "lon": 0.2700341, "tags": {"amenity": "bicycle_parking", "bicycle_parking": "stands", "capacity": "8", "covered": "no"}}, {"type": "node", "id": 12514235841, "lat": 51.4921587, "lon": 0.2946152, "tags": {"amenity": "bicycle_parking", "bicycle_parking": "stands", "capacity": "4", "covered": "no"}}, {"type": "node", "id": 12563266521, "lat": 51.4887222, "lon": 0.2759689, "tags": {"amenity": "bicycle_parking", "bicycle_parking": "stands", "capacity": "12", "covered": "yes"}}, {"type": "node", "id": 12563266522, "lat": 51.4888953, "lon": 0.2766707, "tags": {"amenity": "bicycle_parking", "bicycle_parking": "stands", "capacity": "12", "covered": "yes"}}, {"type": "node", "id": 12563266523, "lat": 51.4886651, "lon": 0.2757466, "tags": {"amenity": "bicycle_parking", "bicycle_parking": "stands", "capacity": "30", "covered": "yes"}}, {"type": "node", "id": 12666855688, "lat": 51.5052237, "lon": 0.1793058, "tags": {"amenity": "bicycle_parking", "bicycle_parking": "stands", "capacity": "8"}}, {"type": "node", "id": 12708071986, "lat": 51.4892165, "lon": 0.2813864, "tags": {"amenity": "bicycle_parking", "bicycle_parking": "stands", "capacity": "34", "covered": "yes"}}, {"type": "node", "id": 12713846626, "lat": 51.4843356, "lon": 0.2294413, "tags": {"amenity": "bicycle_parking", "bicycle_parking": "stands", "capacity": "6"}}, {"type": "node", "id": 12723125273, "lat": 51.485905, "lon": 0.2853153, "tags": {"amenity": "bicycle_parking", "bicycle_parking": "stands", "capacity": "8", "covered": "no", "lit": "yes"}}, {"type": "node", "id": 12723140936, "lat": 51.487645, "lon": 0.2851945, "tags": {"amenity": "bicycle_parking", "bicycle_parking": "stands", "capacity": "12", "covered": "no", "lit": "yes"}}, {"type": "node", "id": 12723144423, "lat": 51.4892365, "lon": 0.2846418, "tags": {"amenity": "bicycle_parking", "bicycle_parking": "wall_loops", "capacity": "4", "covered": "no"}}, {"type": "way", "id": 246708916, "center": {"lat": 51.48573, "lon": 0.2878287}, "nodes": [2537142442, 2537142444, 11116181043, 2537142448, 2537142442], "tags": {"amenity": "bicycle_parking", "area": "yes", "operator": "C2C"}}, {"type": "way", "id": 806830831, "center": {"lat": 51.5165449, "lon": 0.1911141}, "nodes": [7544971280, 7544971279, 7544971278, 7544971277, 7544971280], "tags": {"amenity": "bicycle_parking", "bicycle_parking": "shed", "building": "yes", "covered": "yes"}}, {"type": "way", "id": 851772781, "center": {"lat": 51.5456807, "lon": 0.217922}, "nodes": [7944484115, 7944484116, 7944484117, 7944484118, 7944484115], "tags": {"access": "private", "amenity": "bicycle_parking", "bicycle_parking": "building", "building": "yes"}}, {"type": "way", "id": 851772782, "center": {"lat": 51.5458826, "lon": 0.2169491}, "nodes": [7944484119, 7944484120, 7944484121, 7944484122, 7944484119], "tags": {"access": "private", "amenity": "bicycle_parking", "bicycle_parking": "building", "building": "yes"}}, {"type": "way", "id": 860751371, "center": {"lat": 51.5347647, "lon": 0.1555709}, "nodes": [8022616900, 8022616901, 8022616902, 8022616903, 8022616900], "tags": {"amenity": "bicycle_parking", "covered": "yes"}}, {"type": "way", "id": 860751389, "center": {"lat": 51.5727128, "lon": 0.1769253}, "nodes": [8022616996, 8022617011, 8022617010, 8022617009, 8022616996], "tags": {"amenity": "bicycle_parking", "covered": "yes"}}, {"type": "way", "id": 1010930943, "center": {"lat": 51.5477279, "lon": 0.1697}, "nodes": [9326760434, 9326760435, 9326760436, 9326760437, 9326760434], "tags": {"amenity": "bicycle_parking", "bicycle_parking": "shed", "building": "yes"}}, {"type": "way", "id": 1079537555, "center": {"lat": 51.5412555, "lon": 0.2146471}, "nodes": [7975226495, 9895801505, 9895801504, 9895801503, 7975226495], "tags": {"access": "yes", "amenity": "bicycle_parking", "bicycle_parking": "stands", "covered": "no", "fee": "no"}}, {"type": "way", "id": 1079942002, "center": {"lat": 51.526686, "lon": 0.1946607}, "nodes": [9899054411, 9899054410, 9899054409, 9899054408, 9899054411], "tags": {"amenity": "bicycle_parking", "bicycle_parking": "stands", "capacity": "6", "covered": "no"}}, {"type": "way", "id": 1079942006, "center": {"lat": 51.5262595, "lon": 0.1937193}, "nodes": [9899054444, 9899054443, 9899054442, 9899054441, 9899054444], "tags": {"access": "yes", "amenity": "bicycle_parking", "bicycle_parking": "stands", "capacity": "10", "covered": "no", "lit": "no"}}, {"type": "way", "id": 1080544556, "center": {"lat": 51.5509835, "lon": 0.2321995}, "nodes": [9904154268, 9904154267, 9904154266, 9904154265, 9904154268], "tags": {"amenity": "bicycle_parking", "bicycle_parking": "stands", "capacity": "10", "covered": "no"}}, {"type": "way", "id": 1190056259, "center": {"lat": 51.4898606, "lon": 0.304231}, "nodes": [11050077458, 11050077459, 11050077460, 11050077461, 11050077458], "tags": {"amenity": "bicycle_parking", "bicycle_parking": "stands", "capacity": "6", "covered": "no"}}, {"type": "way", "id": 1193755596, "center": {"lat": 51.4880881, "lon": 0.2844893}, "nodes": [11080918980, 11080918981, 11080918982, 11080918983, 11080918980], "tags": {"amenity": "bicycle_parking", "bicycle_parking": "stands", "capacity": "8", "covered": "yes"}}, {"type": "way", "id": 1193755598, "center": {"lat": 51.4870596, "lon": 0.2847366}, "nodes": [11080918988, 11080918989, 11080918990, 11080918991, 11080918988], "tags": {"amenity": "bicycle_parking", "bicycle_parking": "stands", "capacity": "12", "covered": "yes"}}, {"type": "way", "id": 1197161498, "center": {"lat": 51.5488437, "lon": 0.2182822}, "nodes": [11108304376, 11108304377, 11108304378, 11108304379, 11108304376], "tags": {"amenity": "bicycle_parking"}}, {"type": "way", "id": 1197161501, "center": {"lat": 51.5486826, "lon": 0.2195873}, "nodes": [11108304404, 11108304405, 11108304406, 11108304407, 11108304404], "tags": {"amenity": "bicycle_parking"}}, {"type": "way", "id": 1292746614, "center": {"lat": 51.4862775, "lon": 0.2726972}, "nodes": [11984368515, 11984368516, 11984368517, 11984368518, 11984368515], "tags": {"amenity": "bicycle_parking"}}, {"type": "way", "id": 1395791343, "center": {"lat": 51.6269876, "lon": 0.303366}, "nodes": [12919833139, 12919833140, 12919833141, 12919833142, 12919833139], "tags": {"access": "customers", "amenity": "bicycle_parking", "bicycle_parking": "building", "building": "yes", "check_date": "2025-06-16", "covered": "yes", "fee": "no", "indoor": "no", "lit": "no"}}]}