{"version": 0.6, "generator": "Overpass API 0.7.62.10 2d4cfc48", "osm3s": {"timestamp_osm_base": "2026-02-19T13:39:14Z", "copyright": "The data included in this document is from www.openstreetmap.org. The data is made available under ODbL."}, "elements": [{"type": "node", "id": 544303743, "lat": 51.5625575, "lon": -0.4136393, "tags": {"amenity": "bicycle_parking", "capacity": "6"}}, {"type": "node", "id": 544310527, "lat": 51.5698427, "lon": -0.4376505, "tags": {"amenity": "bicycle_parking", "capacity": "20"}}, {"type": "node", "id": 649054461, "lat": 51.5481823, "lon": -0.4754327, "tags": {"amenity": "bicycle_parking", "capacity": "8", "name": "Sainsbury's"}}, {"type": "node", "id": 763554373, "lat": 51.5472172, "lon": -0.4806766, "tags": {"amenity": "bicycle_parking", "bicycle_parking": "loopular", "capacity": "6", "covered": "no", "fixme": "Location may be inaccurate"}}, {"type": "node", "id": 1145260593, "lat": 51.5122898, "lon": -0.4729221, "tags": {"amenity": "bicycle_parking", "capacity": "8", "covered": "no"}}, {"type": "node", "id": 1145260605, "lat": 51.5102733, "lon": -0.4728182, "tags": {"amenity": "bicycle_parking", "capacity": "12", "covered": "no"}}, {"type": "node", "id": 1224759149, "lat": 51.5507396, "lon": -0.4485808, "tags": {"amenity": "bicycle_parking", "bicycle_parking": "Hoops", "capacity": "4", "covered": "no", "fee": "no", "source": "hoops"}}, {"type": "node", "id": 1224759150, "lat": 51.5518799, "lon": -0.4485144, "tags": {"amenity": "bicycle_parking", "bicycle_parking": "stands", "capacity": "4", "covered": "no", "fee": "no"}}, {"type": "node", "id": 1312678951, "lat": 51.5954949, "lon": -0.3850097, "tags": {"amenity": "bicycle_parking", "bicycle_parking": "stands", "capacity": "10", "covered": "no"}}, {"type": "node", "id": 1319513717, "lat": 51.5766143, "lon": -0.3975151, "tags": {"amenity": "bicycle_parking"}}, {"type": "node", "id": 1579360488, "lat": 51.4730294, "lon": -0.3862057, "tags": {"amenity": "bicycle_parking", "bicycle_parking": "stands", "capacity": "30", "covered": "no"}}, {"type": "node", "id": 1782697101, "lat": 51.5451857, "lon": -0.4749131, "tags": {"amenity": "bicycle_parking", "bicycle_parking": "stands", "capacity": "10", "covered": "yes"}}, {"type": "node", "id": 3074630903, "lat": 51.5457729, "lon": -0.4789921, "tags": {"amenity": "bicycle_parking", "bicycle_parking": "stands", "capacity": "8", "covered": "no"}}, {"type": "node", "id": 3423466401, "lat": 51.4698755, "lon": -0.4898012, "tags": {"amenity": "bicycle_parking", "bicycle_parking": "double_decker", "capacity": "110", "covered": "yes", "cyclestreets_id": "65038", "level": "0", "website": "https://www.heathrow.com/transport-and-directions/cycling"}}, {"type": "node", "id": 4095572211, "lat": 51.5419465, "lon": -0.4901998, "tags": {"amenity": "bicycle_parking", "bicycle_parking": "stands", "capacity": "28", "covered": "yes"}}, {"type": "node", "id": 4095572244, "lat": 51.5426038, "lon": -0.4902052, "tags": {"amenity": "bicycle_parking", "bicycle_parking": "stands", "capacity": "28", "covered": "yes"}}, {"type": "node", "id": 4095604063, "lat": 51.556461, "lon": -0.3986321, "tags": {"amenity": "bicycle_parking", "bicycle_parking": "stands", "capacity": "14", "covered": "no", "fee": "no"}}, {"type": "node", "id": 4095604571, "lat": 51.5709184, "lon": -0.4114553, "tags": {"amenity": "bicycle_parking", "bicycle_parking": "stands", "capacity": "6", "covered": "no"}}, {"type": "node", "id": 4095604572, "lat": 51.5709542, "lon": -0.4113185, "tags": {"amenity": "bicycle_parking", "bicycle_parking": "stands", "capacity": "6", "covered": "no"}}, {"type": "node", "id": 4095604573, "lat": 51.5718774, "lon": -0.4121875, "tags": {"amenity": "bicycle_parking", "bicycle_parking": "stands", "capacity": "4", "covered": "no"}}, {"type": "node", "id": 4095604589, "lat": 51.5576262, "lon": -0.3964705, "tags": {"amenity": "bicycle_parking", "bicycle_parking": "stands", "capacity": "4", "covered": "no"}}, {"type": "node", "id": 4095615990, "lat": 51.573862, "lon": -0.4136151, "tags": {"amenity": "bicycle_parking", "bicycle_parking": "stands", "capacity": "16", "covered": "no"}}, {"type": "node", "id": 4324851491, "lat": 51.5922159, "lon": -0.3869759, "tags": {"amenity": "bicycle_parking", "bicycle_parking": "stands", "check_date": "2024-03-24", "covered": "no"}}, {"type": "node", "id": 4534859189, "lat": 51.6294973, "lon": -0.4326245, "tags": {"access": "permissive", "amenity": "bicycle_parking", "bicycle_parking": "rack", "capacity": "20", "check_date": "2023-06-11", "covered": "yes"}}, {"type": "node", "id": 4742984358, "lat": 51.594859, "lon": -0.3837957, "tags": {"access": "yes", "amenity": "bicycle_parking", "bicycle_parking": "stands", "capacity": "8", "covered": "no", "fee": "no"}}, {"type": "node", "id": 4742984367, "lat": 51.5942157, "lon": -0.3825273, "tags": {"access": "yes", "amenity": "bicycle_parking", "bicycle_parking": "stands", "capacity": "4", "fee": "no"}}, {"type": "node", "id": 4742984372, "lat": 51.5922148, "lon": -0.3819512, "tags": {"access": "yes", "amenity": "bicycle_parking", "bicycle_parking": "stands", "capacity": "4", "fee": "no"}}, {"type": "node", "id": 4792983795, "lat": 51.5695895, "lon": -0.4381238, "tags": {"amenity": "bicycle_parking"}}, {"type": "node", "id": 5037491466, "lat": 51.5754485, "lon": -0.3825137, "tags": {"access": "yes", "amenity": "bicycle_parking", "bicycle_parking": "stands", "capacity": "4", "fee": "no", "smoothness": "good", "supervised": "no", "surface": "asphalt"}}, {"type": "node", "id": 5037491472, "lat": 51.5755026, "lon": -0.3809273, "tags": {"access": "yes", "amenity": "bicycle_parking", "bicycle_parking": "stands", "capacity": "10", "fee": "no", "lit": "yes", "smoothness": "good", "supervised": "no", "surface": "asphalt"}}, {"type": "node", "id": 5046191362, "lat": 51.5854785, "lon": -0.3818945, "tags": {"access": "yes", "amenity": "bicycle_parking", "bicycle_parking": "stands", "capacity": "2", "fee": "no"}}, {"type": "node", "id": 5046191368, "lat": 51.5866139, "lon": -0.3817224, "tags": {"access": "yes", "amenity": "bicycle_parking", "bicycle_parking": "stands", "capacity": "6", "fee": "no"}}, {"type": "node", "id": 5046191377, "lat": 51.5859453, "lon": -0.3816704, "tags": {"access": "yes", "amenity": "bicycle_parking", "bicycle_parking": "stands", "capacity": "4", "fee": "no"}}, {"type": "node", "id": 5196261393, "lat": 51.5583863, "lon": -0.3816634, "tags": {"amenity": "bicycle_parking", "bicycle_parking": "stands", "capacity": "8"}}, {"type": "node", "id": 5249274573, "lat": 51.5088945, "lon": -0.4565134, "tags": {"access": "yes", "amenity": "bicycle_parking", "bicycle_parking": "stands", "capacity": "5", "covered": "no"}}, {"type": "node", "id": 5587704541, "lat": 51.4674296, "lon": -0.4208135, "tags": {"amenity": "bicycle_parking", "bicycle_parking": "stands", "covered": "yes"}}, {"type": "node", "id": 5587704543, "lat": 51.467573, "lon": -0.4200442, "tags": {"amenity": "bicycle_parking", "bicycle_parking": "stands", "covered": "yes"}}, {"type": "node", "id": 5587704547, "lat": 51.4674423, "lon": -0.4204402, "tags": {"amenity": "bicycle_parking", "bicycle_parking": "stands", "covered": "yes"}}, {"type": "node", "id": 5587704553, "lat": 51.4675593, "lon": -0.4203599, "tags": {"amenity": "bicycle_parking", "bicycle_parking": "stands", "covered": "yes"}}, {"type": "node", "id": 5761740720, "lat": 51.6072024, "lon": -0.3762754, "tags": {"access": "yes", "amenity": "bicycle_parking", "bicycle_parking": "stands", "capacity": "8", "covered": "no", "fee": "no"}}, {"type": "node", "id": 6110818402, "lat": 51.5483437, "lon": -0.4775894, "tags": {"access": "yes", "amenity": "bicycle_parking", "bicycle_parking": "stands", "capacity": "2"}}, {"type": "node", "id": 6348638817, "lat": 51.5538542, "lon": -0.4483317, "tags": {"amenity": "bicycle_parking", "bicycle_parking": "rack"}}, {"type": "node", "id": 6515923789, "lat": 51.5635499, "lon": -0.4436374, "tags": {"amenity": "bicycle_parking", "bicycle_parking": "stands", "capacity": "6", "covered": "no"}}, {"type": "node", "id": 6537339857, "lat": 51.4734883, "lon": -0.4898106, "tags": {"amenity": "bicycle_parking", "capacity": "110", "level": "0", "website": "https://www.heathrow.com/transport-and-directions/cycling"}}, {"type": "node", "id": 6537576443, "lat": 51.4599713, "lon": -0.4452855, "tags": {"amenity": "bicycle_parking", "capacity": "60", "covered": "yes", "ele": "Ground Floor", "name": "T4 Cycle Park P", "website": "https://www.heathrow.com/transport-and-directions/cycling"}}, {"type": "node", "id": 6552447411, "lat": 51.5028557, "lon": -0.3808508, "tags": {"access": "yes", "amenity": "bicycle_parking", "capacity": "8"}}, {"type": "node", "id": 6599948491, "lat": 51.5156545, "lon": -0.4766988, "tags": {"amenity": "bicycle_parking", "bicycle_parking": "stands", "covered": "no"}}, {"type": "node", "id": 6601991373, "lat": 51.5146625, "lon": -0.4740195, "tags": {"amenity": "bicycle_parking", "bicycle_parking": "stands", "capacity": "10", "covered": "yes"}}, {"type": "node", "id": 6925120436, "lat": 51.6166881, "lon": -0.4457527, "tags": {"amenity": "bicycle_parking", "bicycle_parking": "stands"}}, {"type": "node", "id": 6925165694, "lat": 51.6167305, "lon": -0.4457527, "tags": {"amenity": "bicycle_parking", "bicycle_parking": "stands", "covered": "yes"}}, {"type": "node", "id": 7017406435, "lat": 51.6284897, "lon": -0.3859552, "tags": {"amenity": "bicycle_parking", "covered": "no"}}, {"type": "node", "id": 7070092006, "lat": 51.4554472, "lon": -0.4203364, "tags": {"amenity": "bicycle_parking", "bicycle_parking": "stands", "capacity": "6"}}, {"type": "node", "id": 7072188577, "lat": 51.4533078, "lon": -0.4297288, "tags": {"amenity": "bicycle_parking", "bicycle_parking": "stands", "capacity": "12", "covered": "no"}}, {"type": "node", "id": 7157418496, "lat": 51.6187372, "lon": -0.3831181, "tags": {"amenity": "bicycle_parking"}}, {"type": "node", "id": 7203026128, "lat": 51.4585922, "lon": -0.4031545, "tags": {"amenity": "bicycle_parking", "bicycle_parking": "stands", "capacity": "6", "covered": "no"}}, {"type": "node", "id": 7244958435, "lat": 51.6282984, "lon": -0.3861878, "tags": {"amenity": "bicycle_parking", "bicycle_parking": "stands", "capacity": "16", "covered": "yes", "lit": "yes"}}, {"type": "node", "id": 7244992994, "lat": 51.6284342, "lon": -0.3864126, "tags": {"amenity": "bicycle_parking", "bicycle_parking": "stands", "capacity": "12", "covered": "no", "lit": "yes"}}, {"type": "node", "id": 7244992995, "lat": 51.6284415, "lon": -0.3865499, "tags": {"amenity": "bicycle_parking", "bicycle_parking": "stands", "capacity": "10", "covered": "no", "lit": "yes"}}, {"type": "node", "id": 7803514874, "lat": 51.5329942, "lon": -0.4737439, "tags": {"amenity": "bicycle_parking", "bicycle_parking": "stands", "fee": "no"}}, {"type": "node", "id": 8173236213, "lat": 51.5116495, "lon": -0.4479534, "tags": {"access": "private", "amenity": "bicycle_parking"}}, {"type": "node", "id": 8562285551, "lat": 51.5644213, "lon": -0.4443427, "tags": {"amenity": "bicycle_parking", "bicycle_parking": "stands", "capacity": "6", "covered": "no"}}, {"type": "node", "id": 8568220396, "lat": 51.4887267, "lon": -0.4786114, "tags": {"amenity": "bicycle_parking", "bicycle_parking": "stands", "capacity": "4", "covered": "no"}}, {"type": "node", "id": 8569337080, "lat": 51.5050449, "lon": -0.4751372, "tags": {"amenity": "bicycle_parking", "bicycle_parking": "stands", "capacity": "4", "covered": "no"}}, {"type": "node", "id": 8638472974, "lat": 51.5333714, "lon": -0.3828071, "tags": {"amenity": "bicycle_parking", "bicycle_parking": "stands", "covered": "no"}}, {"type": "node", "id": 8917586956, "lat": 51.5052668, "lon": -0.459613, "tags": {"amenity": "bicycle_parking"}}, {"type": "node", "id": 8917586957, "lat": 51.5055225, "lon": -0.4597956, "tags": {"amenity": "bicycle_parking"}}, {"type": "node", "id": 8971895189, "lat": 51.572392, "lon": -0.4227316, "tags": {"amenity": "bicycle_parking", "bicycle_parking": "stands", "capacity": "6", "covered": "no"}}, {"type": "node", "id": 8979804982, "lat": 51.5441207, "lon": -0.4757299, "tags": {"amenity": "bicycle_parking"}}, {"type": "node", "id": 8980958558, "lat": 51.4809729, "lon": -0.4710262, "tags": {"amenity": "bicycle_parking", "bicycle_parking": "shed"}}, {"type": "node", "id": 8995541069, "lat": 51.5451084, "lon": -0.477438, "tags": {"amenity": "bicycle_parking", "bicycle_parking": "stands", "capacity": "4", "covered": "no"}}, {"type": "node", "id": 9044480162, "lat": 51.5011258, "lon": -0.4237817, "tags": {"amenity": "bicycle_parking", "bicycle_parking": "stands", "capacity": "10", "covered": "no"}}, {"type": "node", "id": 9198568715, "lat": 51.5128932, "lon": -0.3884818, "tags": {"access": "yes", "amenity": "bicycle_parking", "bicycle_parking": "stands", "capacity": "2", "covered": "no"}}, {"type": "node", "id": 9198568716, "lat": 51.5128214, "lon": -0.3880915, "tags": {"access": "yes", "amenity": "bicycle_parking", "bicycle_parking": "stands", "capacity": "2", "covered": "no"}}, {"type": "node", "id": 9198585317, "lat": 51.5127847, "lon": -0.3878944, "tags": {"access": "yes", "amenity": "bicycle_parking", "bicycle_parking": "stands", "capacity": "2", "covered": "no"}}, {"type": "node", "id": 9198585318, "lat": 51.512723, "lon": -0.3874639, "tags": {"access": "yes", "amenity": "bicycle_parking", "bicycle_parking": "stands", "capacity": "2", "covered": "no"}}, {"type": "node", "id": 9198585320, "lat": 51.512672, "lon": -0.3871943, "tags": {"access": "yes", "amenity": "bicycle_parking", "bicycle_parking": "stands", "capacity": "4", "covered": "no"}}, {"type": "node", "id": 9198585321, "lat": 51.5125919, "lon": -0.3866968, "tags": {"access": "yes", "amenity": "bicycle_parking", "bicycle_parking": "stands", "capacity": "2", "covered": "no"}}, {"type": "node", "id": 9198585322, "lat": 51.5124242, "lon": -0.3852859, "tags": {"access": "yes", "amenity": "bicycle_parking", "bicycle_parking": "stands", "capacity": "2", "covered": "no"}}, {"type": "node", "id": 9198585323, "lat": 51.5123674, "lon": -0.3848527, "tags": {"access": "yes", "amenity": "bicycle_parking", "bicycle_parking": "stands", "capacity": "6", "covered": "no"}}, {"type": "node", "id": 9198585325, "lat": 51.5123365, "lon": -0.3846395, "tags": {"access": "yes", "amenity": "bicycle_parking", "bicycle_parking": "stands", "capacity": "4", "covered": "no"}}, {"type": "node", "id": 9198585326, "lat": 51.5122748, "lon": -0.3842144, "tags": {"access": "yes", "amenity": "bicycle_parking", "bicycle_parking": "stands", "capacity": "2", "covered": "no"}}, {"type": "node", "id": 9198585327, "lat": 51.5122213, "lon": -0.3838912, "tags": {"access": "yes", "amenity": "bicycle_parking", "bicycle_parking": "stands", "capacity": "2", "covered": "no"}}, {"type": "node", "id": 9198585328, "lat": 51.512127, "lon": -0.3834379, "tags": {"access": "yes", "amenity": "bicycle_parking", "bicycle_parking": "stands", "capacity": "4", "covered": "no"}}, {"type": "node", "id": 9198585330, "lat": 51.5120052, "lon": -0.3828612, "tags": {"access": "yes", "amenity": "bicycle_parking", "bicycle_parking": "stands", "capacity": "8", "covered": "no"}}, {"type": "node", "id": 9198585331, "lat": 51.5117681, "lon": -0.3819305, "tags": {"access": "yes", "amenity": "bicycle_parking", "bicycle_parking": "stands", "capacity": "12", "covered": "no"}}, {"type": "node", "id": 9198585333, "lat": 51.5115753, "lon": -0.3810588, "tags": {"access": "yes", "amenity": "bicycle_parking", "bicycle_parking": "stands", "capacity": "4", "covered": "no"}}, {"type": "node", "id": 9198585334, "lat": 51.5113817, "lon": -0.3798974, "tags": {"access": "yes", "amenity": "bicycle_parking", "bicycle_parking": "stands", "capacity": "4", "covered": "no"}}, {"type": "node", "id": 9198585336, "lat": 51.5113082, "lon": -0.3792965, "tags": {"access": "yes", "amenity": "bicycle_parking", "bicycle_parking": "stands", "capacity": "4", "covered": "no"}}, {"type": "node", "id": 9198585338, "lat": 51.511284, "lon": -0.377073, "tags": {"access": "yes", "amenity": "bicycle_parking", "bicycle_parking": "stands", "capacity": "6", "covered": "no"}}, {"type": "node", "id": 9206489790, "lat": 51.5114443, "lon": -0.3791973, "tags": {"access": "yes", "amenity": "bicycle_parking", "bicycle_parking": "stands", "capacity": "4", "covered": "no"}}, {"type": "node", "id": 9206489791, "lat": 51.511678, "lon": -0.3809555, "tags": {"access": "yes", "amenity": "bicycle_parking", "bicycle_parking": "stands", "capacity": "4", "covered": "no"}}, {"type": "node", "id": 9206489793, "lat": 51.5118708, "lon": -0.381791, "tags": {"access": "yes", "amenity": "bicycle_parking", "bicycle_parking": "stands", "capacity": "2", "covered": "no"}}, {"type": "node", "id": 9206489794, "lat": 51.512112, "lon": -0.3827794, "tags": {"access": "yes", "amenity": "bicycle_parking", "bicycle_parking": "stands", "capacity": "2", "covered": "no"}}, {"type": "node", "id": 9206489795, "lat": 51.512188, "lon": -0.3830959, "tags": {"access": "yes", "amenity": "bicycle_parking", "bicycle_parking": "stands", "capacity": "4", "covered": "no"}}, {"type": "node", "id": 9206489797, "lat": 51.5122781, "lon": -0.3835814, "tags": {"access": "yes", "amenity": "bicycle_parking", "bicycle_parking": "stands", "capacity": "2", "covered": "no"}}, {"type": "node", "id": 9206489798, "lat": 51.5124066, "lon": -0.3842586, "tags": {"access": "yes", "amenity": "bicycle_parking", "bicycle_parking": "stands", "capacity": "4", "covered": "no"}}, {"type": "node", "id": 9206489799, "lat": 51.5125435, "lon": -0.3852162, "tags": {"access": "yes", "amenity": "bicycle_parking", "bicycle_parking": "stands", "capacity": "2", "covered": "no"}}, {"type": "node", "id": 9206489800, "lat": 51.5125185, "lon": -0.3850485, "tags": {"access": "yes", "amenity": "bicycle_parking", "bicycle_parking": "stands", "capacity": "2", "covered": "no"}}, {"type": "node", "id": 9246469497, "lat": 51.6307974, "lon": -0.502836, "tags": {"amenity": "bicycle_parking"}}, {"type": "node", "id": 9405480603, "lat": 51.5214965, "lon": -0.4759379, "tags": {"amenity": "bicycle_parking", "capacity": "3"}}, {"type": "node", "id": 9423467543, "lat": 51.5123387, "lon": -0.4723708, "tags": {"amenity": "bicycle_parking", "bicycle_parking": "stands", "capacity": "6", "covered": "no"}}, {"type": "node", "id": 9423467547, "lat": 51.5127828, "lon": -0.4724872, "tags": {"amenity": "bicycle_parking", "bicycle_parking": "stands", "capacity": "6", "covered": "no"}}, {"type": "node", "id": 9730305068, "lat": 51.5954543, "lon": -0.3849895, "tags": {"amenity": "bicycle_parking"}}, {"type": "node", "id": 9730338942, "lat": 51.5954125, "lon": -0.3846882, "tags": {"amenity": "bicycle_parking", "covered": "no"}}, {"type": "node", "id": 9730346945, "lat": 51.5945084, "lon": -0.3831308, "tags": {"amenity": "bicycle_parking", "covered": "no"}}, {"type": "node", "id": 9730350413, "lat": 51.5953008, "lon": -0.3845379, "tags": {"amenity": "bicycle_parking", "covered": "no"}}, {"type": "node", "id": 9730370637, "lat": 51.5945915, "lon": -0.3832827, "tags": {"amenity": "bicycle_parking"}}, {"type": "node", "id": 9730372527, "lat": 51.5949718, "lon": -0.3839551, "tags": {"amenity": "bicycle_parking", "covered": "no"}}, {"type": "node", "id": 9730376920, "lat": 51.5931341, "lon": -0.3853287, "tags": {"amenity": "bicycle_parking", "bicycle_parking": "stands", "covered": "no"}}, {"type": "node", "id": 9730376921, "lat": 51.5947683, "lon": -0.3835837, "tags": {"amenity": "bicycle_parking", "covered": "no"}}, {"type": "node", "id": 9730377627, "lat": 51.5950875, "lon": -0.384148, "tags": {"amenity": "bicycle_parking", "covered": "no"}}, {"type": "node", "id": 9785539764, "lat": 51.568708, "lon": -0.4320036, "tags": {"access": "yes", "amenity": "bicycle_parking", "bicycle_parking": "rack", "capacity": "4", "covered": "no", "fee": "no"}}, {"type": "node", "id": 9943840093, "lat": 51.5415751, "lon": -0.3842264, "tags": {"access": "private", "amenity": "bicycle_parking", "bicycle_parking": "shed", "capacity": "6", "covered": "yes", "operator": "cyclehoop", "ref": "Bikehangar 1266"}}, {"type": "node", "id": 9966110575, "lat": 51.5371276, "lon": -0.3896527, "tags": {"amenity": "bicycle_parking", "bicycle_parking": "stands", "capacity": "4", "covered": "no"}}, {"type": "node", "id": 9966320691, "lat": 51.5375115, "lon": -0.3890916, "tags": {"amenity": "bicycle_parking", "bicycle_parking": "stands", "capacity": "6", "covered": "no"}}, {"type": "node", "id": 10273109215, "lat": 51.4671466, "lon": -0.3865658, "tags": {"amenity": "bicycle_parking", "bicycle_parking": "stands", "capacity": "2", "ref:GB:tflcid": "RWG232722"}}, {"type": "node", "id": 10273109216, "lat": 51.4640141, "lon": -0.3840235, "tags": {"amenity": "bicycle_parking", "bicycle_parking": "stands", "capacity": "4", "ref:GB:tflcid": "RWG232737"}}, {"type": "node", "id": 10273109217, "lat": 51.4635014, "lon": -0.3858328, "tags": {"amenity": "bicycle_parking", "bicycle_parking": "stands", "capacity": "6", "ref:GB:tflcid": "RWG232745"}}, {"type": "node", "id": 10273109218, "lat": 51.4655343, "lon": -0.3786895, "tags": {"amenity": "bicycle_parking", "bicycle_parking": "stands", "capacity": "6", "covered": "no", "ref:GB:tflcid": "RWG232432"}}, {"type": "node", "id": 10273109320, "lat": 51.4633962, "lon": -0.3862854, "tags": {"amenity": "bicycle_parking", "bicycle_parking": "stands", "capacity": "6", "ref:GB:tflcid": "RWG232746"}}, {"type": "node", "id": 10273109321, "lat": 51.4650305, "lon": -0.3783151, "tags": {"amenity": "bicycle_parking", "bicycle_parking": "stands", "capacity": "4", "covered": "no", "ref:GB:tflcid": "RWG232741"}}, {"type": "node", "id": 10273109322, "lat": 51.467312, "lon": -0.3778752, "tags": {"amenity": "bicycle_parking", "bicycle_parking": "wall_loops", "capacity": "4", "covered": "yes", "ref:GB:tflcid": "RWG232486"}}, {"type": "node", "id": 10273109323, "lat": 51.4654972, "lon": -0.3776035, "tags": {"amenity": "bicycle_parking", "bicycle_parking": "stands", "capacity": "4", "ref:GB:tflcid": "RWG232435"}}, {"type": "node", "id": 10273109324, "lat": 51.467325, "lon": -0.3767819, "tags": {"amenity": "bicycle_parking", "bicycle_parking": "upright_stands", "capacity": "8", "ref:GB:tflcid": "RWG232441"}}, {"type": "node", "id": 10273109326, "lat": 51.4660525, "lon": -0.3765786, "tags": {"amenity": "bicycle_parking", "bicycle_parking": "stands", "capacity": "10", "ref:GB:tflcid": "RWG232436"}}, {"type": "node", "id": 10273109521, "lat": 51.4647978, "lon": -0.3887116, "tags": {"amenity": "bicycle_parking", "bicycle_parking": "stands", "capacity": "2", "ref:GB:tflcid": "RWG232797"}}, {"type": "node", "id": 10273109522, "lat": 51.4632605, "lon": -0.387253, "tags": {"amenity": "bicycle_parking", "bicycle_parking": "stands", "capacity": "4", "ref:GB:tflcid": "RWG232777"}}, {"type": "node", "id": 10273109523, "lat": 51.4650117, "lon": -0.3825243, "tags": {"amenity": "bicycle_parking", "bicycle_lock": "provided", "bicycle_parking": "stands", "capacity": "10", "ref:GB:tflcid": "RWG232738"}}, {"type": "node", "id": 10273109524, "lat": 51.4643101, "lon": -0.3821735, "tags": {"amenity": "bicycle_parking", "bicycle_parking": "stands", "capacity": "2", "ref:GB:tflcid": "RWG232740"}}, {"type": "node", "id": 10273109526, "lat": 51.4671009, "lon": -0.3766429, "tags": {"amenity": "bicycle_parking", "capacity": "12", "covered": "yes", "ref:GB:tflcid": "RWG232440"}}, {"type": "node", "id": 10273110812, "lat": 51.4646709, "lon": -0.382164, "tags": {"amenity": "bicycle_parking", "bicycle_lock": "bring_own", "bicycle_parking": "upright_stands", "capacity": "20", "covered": "yes", "ref:GB:tflcid": "RWG232739"}}, {"type": "node", "id": 10273111010, "lat": 51.4650037, "lon": -0.3782559, "tags": {"amenity": "bicycle_parking", "bicycle_parking": "stands", "capacity": "4", "covered": "no", "ref:GB:tflcid": "RWG232742"}}, {"type": "node", "id": 10273114212, "lat": 51.4638377, "lon": -0.3848582, "tags": {"amenity": "bicycle_parking", "bicycle_parking": "stands", "capacity": "4", "ref:GB:tflcid": "RWG232734"}}, {"type": "node", "id": 10273132349, "lat": 51.4817937, "lon": -0.4758892, "tags": {"amenity": "bicycle_parking", "bicycle_parking": "stands", "capacity": "4", "ref:GB:tflcid": "RWG233009"}}, {"type": "node", "id": 10273132350, "lat": 51.4873416, "lon": -0.4358346, "tags": {"amenity": "bicycle_parking", "bicycle_parking": "stands", "capacity": "4", "covered": "no", "ref:GB:tflcid": "RWG233063"}}, {"type": "node", "id": 10273132351, "lat": 51.4807791, "lon": -0.4340024, "tags": {"amenity": "bicycle_parking", "bicycle_parking": "stands", "capacity": "16", "covered": "no", "ref:GB:tflcid": "RWG233277"}}, {"type": "node", "id": 10273132815, "lat": 51.4815183, "lon": -0.4827619, "tags": {"amenity": "bicycle_parking", "bicycle_parking": "stands", "capacity": "12", "ref:GB:tflcid": "RWG232997"}}, {"type": "node", "id": 10273132922, "lat": 51.4817986, "lon": -0.4743685, "tags": {"amenity": "bicycle_parking", "bicycle_parking": "stands", "capacity": "4", "ref:GB:tflcid": "RWG233006"}}, {"type": "node", "id": 10273132923, "lat": 51.490097, "lon": -0.4606181, "tags": {"amenity": "bicycle_parking", "bicycle_parking": "upright_stands", "capacity": "26", "ref:GB:tflcid": "RWG232272"}}, {"type": "node", "id": 10273132924, "lat": 51.4894878, "lon": -0.4565059, "tags": {"amenity": "bicycle_parking", "bicycle_parking": "stands", "capacity": "4", "ref:GB:tflcid": "RWG233423"}}, {"type": "node", "id": 10273132925, "lat": 51.4801709, "lon": -0.4406937, "tags": {"amenity": "bicycle_parking", "bicycle_parking": "stands", "capacity": "6", "ref:GB:tflcid": "RWG233317"}}, {"type": "node", "id": 10273132926, "lat": 51.4599458, "lon": -0.4402237, "tags": {"amenity": "bicycle_parking", "bicycle_parking": "stands", "capacity": "10", "covered": "no", "ref:GB:tflcid": "RWG233088"}}, {"type": "node", "id": 10273135212, "lat": 51.4803276, "lon": -0.4425519, "tags": {"amenity": "bicycle_parking", "bicycle_parking": "stands", "capacity": "10", "ref:GB:tflcid": "RWG233303"}}, {"type": "node", "id": 10273135724, "lat": 51.4971959, "lon": -0.4666924, "tags": {"amenity": "bicycle_parking", "bicycle_parking": "stands", "capacity": "6", "ref:GB:tflcid": "RWG232482"}}, {"type": "node", "id": 10273135725, "lat": 51.4971439, "lon": -0.4665585, "tags": {"amenity": "bicycle_parking", "bicycle_parking": "stands", "capacity": "4", "ref:GB:tflcid": "RWG232483"}}, {"type": "node", "id": 10273135727, "lat": 51.4809385, "lon": -0.4657767, "tags": {"amenity": "bicycle_parking", "bicycle_parking": "stands", "capacity": "20", "covered": "yes", "ref:GB:tflcid": "RWG233346"}}, {"type": "node", "id": 10273135728, "lat": 51.4899782, "lon": -0.4478729, "tags": {"amenity": "bicycle_parking", "bicycle_parking": "stands", "capacity": "1", "ref:GB:tflcid": "RWG232528"}}, {"type": "node", "id": 10273135729, "lat": 51.4801709, "lon": -0.4407999, "tags": {"amenity": "bicycle_parking", "bicycle_parking": "stands", "capacity": "4", "ref:GB:tflcid": "RWG233316"}}, {"type": "node", "id": 10273135730, "lat": 51.4801646, "lon": -0.4409115, "tags": {"amenity": "bicycle_parking", "bicycle_parking": "stands", "capacity": "10", "covered": "yes", "ref:GB:tflcid": "RWG233314"}}, {"type": "node", "id": 10273135731, "lat": 51.4801541, "lon": -0.4407408, "tags": {"amenity": "bicycle_parking", "capacity": "10", "covered": "yes", "ref:GB:tflcid": "RWG233315"}}, {"type": "node", "id": 10273135732, "lat": 51.480257, "lon": -0.4397472, "tags": {"amenity": "bicycle_parking", "bicycle_parking": "stands", "capacity": "12", "covered": "yes", "ref:GB:tflcid": "RWG233281"}}, {"type": "node", "id": 10273135733, "lat": 51.480132, "lon": -0.4419973, "tags": {"amenity": "bicycle_parking", "bicycle_parking": "stands", "capacity": "10", "covered": "yes", "ref:GB:tflcid": "RWG233311"}}, {"type": "node", "id": 10273135734, "lat": 51.4599399, "lon": -0.4403035, "tags": {"amenity": "bicycle_parking", "bicycle_parking": "stands", "capacity": "10", "covered": "no", "ref:GB:tflcid": "RWG233089"}}, {"type": "node", "id": 10273135735, "lat": 51.4805477, "lon": -0.433583, "tags": {"amenity": "bicycle_parking", "bicycle_parking": "stands", "capacity": "12", "ref:GB:tflcid": "RWG233253"}}, {"type": "node", "id": 10273135736, "lat": 51.480543, "lon": -0.433415, "tags": {"amenity": "bicycle_parking", "bicycle_parking": "stands", "capacity": "18", "ref:GB:tflcid": "RWG233252"}}, {"type": "node", "id": 10273135737, "lat": 51.4807944, "lon": -0.4187429, "tags": {"amenity": "bicycle_parking", "bicycle_parking": "stands", "capacity": "16", "ref:GB:tflcid": "RWG233182"}}, {"type": "node", "id": 10275588410, "lat": 51.5014628, "lon": -0.38261, "tags": {"amenity": "bicycle_parking", "bicycle_parking": "stands", "capacity": "2", "ref:GB:tflcid": "RWG238294"}}, {"type": "node", "id": 10275588411, "lat": 51.5011481, "lon": -0.3825978, "tags": {"amenity": "bicycle_parking", "bicycle_parking": "stands", "capacity": "2", "ref:GB:tflcid": "RWG238292"}}, {"type": "node", "id": 10275588412, "lat": 51.5003082, "lon": -0.3830074, "tags": {"amenity": "bicycle_parking", "bicycle_parking": "stands", "capacity": "2", "ref:GB:tflcid": "RWG238275"}}, {"type": "node", "id": 10275588413, "lat": 51.5001086, "lon": -0.3831025, "tags": {"amenity": "bicycle_parking", "bicycle_parking": "stands", "capacity": "2", "ref:GB:tflcid": "RWG238276"}}, {"type": "node", "id": 10275588414, "lat": 51.5007467, "lon": -0.3829306, "tags": {"amenity": "bicycle_parking", "bicycle_parking": "post_hoop", "capacity": "2", "ref:GB:tflcid": "RWG238271"}}, {"type": "node", "id": 10275588415, "lat": 51.5005092, "lon": -0.3830421, "tags": {"amenity": "bicycle_parking", "bicycle_parking": "stands", "capacity": "2", "ref:GB:tflcid": "RWG238274"}}, {"type": "node", "id": 10275588416, "lat": 51.5008973, "lon": -0.3828632, "tags": {"amenity": "bicycle_parking", "bicycle_parking": "stands", "capacity": "2", "ref:GB:tflcid": "RWG238269"}}, {"type": "node", "id": 10275588417, "lat": 51.501832, "lon": -0.3822465, "tags": {"amenity": "bicycle_parking", "bicycle_parking": "stands", "capacity": "2", "ref:GB:tflcid": "RWG238295"}}, {"type": "node", "id": 10275588510, "lat": 51.5026937, "lon": -0.3824982, "tags": {"amenity": "bicycle_parking", "bicycle_parking": "stands", "capacity": "10", "ref:GB:tflcid": "RWG238299"}}, {"type": "node", "id": 10275588615, "lat": 51.5007224, "lon": -0.3852578, "tags": {"amenity": "bicycle_parking", "bicycle_parking": "stands", "capacity": "6", "on_carriageway": "yes", "ref:GB:tflcid": "RWG238225"}}, {"type": "node", "id": 10275588616, "lat": 51.5025318, "lon": -0.381457, "tags": {"amenity": "bicycle_parking", "bicycle_parking": "stands", "capacity": "4", "ref:GB:tflcid": "RWG238311"}}, {"type": "node", "id": 10275588717, "lat": 51.5005867, "lon": -0.3828638, "tags": {"amenity": "bicycle_parking", "bicycle_parking": "stands", "capacity": "2", "ref:GB:tflcid": "RWG238272"}}, {"type": "node", "id": 10275588718, "lat": 51.5006821, "lon": -0.3855266, "tags": {"amenity": "bicycle_parking", "bicycle_parking": "stands", "capacity": "2", "ref:GB:tflcid": "RWG238226"}}, {"type": "node", "id": 10275588719, "lat": 51.4995698, "lon": -0.3832061, "tags": {"amenity": "bicycle_parking", "bicycle_parking": "stands", "capacity": "2", "ref:GB:tflcid": "RWG238277"}}, {"type": "node", "id": 10275588720, "lat": 51.499284, "lon": -0.3838271, "tags": {"amenity": "bicycle_parking", "bicycle_parking": "stands", "capacity": "2", "ref:GB:tflcid": "RWG238281"}}, {"type": "node", "id": 10275588865, "lat": 51.5033206, "lon": -0.4199947, "tags": {"amenity": "bicycle_parking", "bicycle_parking": "stands", "capacity": "8", "ref:GB:tflcid": "RWG238084"}}, {"type": "node", "id": 10275588866, "lat": 51.5034148, "lon": -0.419973, "tags": {"amenity": "bicycle_parking", "capacity": "8", "ref:GB:tflcid": "RWG238083"}}, {"type": "node", "id": 10275588867, "lat": 51.5055464, "lon": -0.4197982, "tags": {"amenity": "bicycle_parking", "bicycle_parking": "stands", "capacity": "2", "ref:GB:tflcid": "RWG238141"}}, {"type": "node", "id": 10275588877, "lat": 51.5193263, "lon": -0.4118389, "tags": {"amenity": "bicycle_parking", "bicycle_parking": "stands", "capacity": "6", "ref:GB:tflcid": "RWG238199"}}, {"type": "node", "id": 10275588912, "lat": 51.5007246, "lon": -0.3828031, "tags": {"amenity": "bicycle_parking", "bicycle_parking": "stands", "capacity": "2", "ref:GB:tflcid": "RWG238270"}}, {"type": "node", "id": 10275589309, "lat": 51.499055, "lon": -0.3841598, "tags": {"amenity": "bicycle_parking", "bicycle_parking": "stands", "capacity": "2", "ref:GB:tflcid": "RWG238229"}}, {"type": "node", "id": 10275589310, "lat": 51.5017769, "lon": -0.3824517, "tags": {"amenity": "bicycle_parking", "bicycle_parking": "post_hoop", "capacity": "2", "ref:GB:tflcid": "RWG238297"}}, {"type": "node", "id": 10275589348, "lat": 51.5192166, "lon": -0.4239235, "tags": {"amenity": "bicycle_parking", "bicycle_parking": "stands", "capacity": "2", "ref:GB:tflcid": "RWG238224"}}, {"type": "node", "id": 10275589349, "lat": 51.508606, "lon": -0.4204212, "tags": {"access": "private", "amenity": "bicycle_parking", "bicycle_parking": "shed", "capacity": "9", "covered": "yes", "operator": "Cyclehoop Rentals", "ref:GB:tflcid": "RWG238167"}}, {"type": "node", "id": 10275589350, "lat": 51.5067301, "lon": -0.4159112, "tags": {"amenity": "bicycle_parking", "bicycle_parking": "stands", "capacity": "10", "ref:GB:tflcid": "RWG238129"}}, {"type": "node", "id": 10275589351, "lat": 51.503841, "lon": -0.4127991, "tags": {"amenity": "bicycle_parking", "bicycle_parking": "stands", "capacity": "10", "covered": "yes", "ref:GB:tflcid": "RWG238089"}}, {"type": "node", "id": 10275589363, "lat": 51.5205671, "lon": -0.415181, "tags": {"amenity": "bicycle_parking", "bicycle_parking": "stands", "capacity": "4", "ref:GB:tflcid": "RWG238257"}}, {"type": "node", "id": 10275589364, "lat": 51.5205992, "lon": -0.4155655, "tags": {"amenity": "bicycle_parking", "bicycle_parking": "stands", "capacity": "4", "ref:GB:tflcid": "RWG238291"}}, {"type": "node", "id": 10275589365, "lat": 51.5203449, "lon": -0.4146537, "tags": {"amenity": "bicycle_parking", "bicycle_parking": "stands", "capacity": "4", "ref:GB:tflcid": "RWG238315"}}, {"type": "node", "id": 10275589366, "lat": 51.5201326, "lon": -0.4141476, "tags": {"amenity": "bicycle_parking", "bicycle_parking": "stands", "capacity": "4", "ref:GB:tflcid": "RWG238312"}}, {"type": "node", "id": 10275589367, "lat": 51.5211253, "lon": -0.416856, "tags": {"amenity": "bicycle_parking", "bicycle_parking": "stands", "capacity": "4", "ref:GB:tflcid": "RWG238322"}}, {"type": "node", "id": 10275589368, "lat": 51.5187635, "lon": -0.4101769, "tags": {"amenity": "bicycle_parking", "bicycle_parking": "stands", "capacity": "20", "ref:GB:tflcid": "RWG238278"}}, {"type": "node", "id": 10275589409, "lat": 51.5024793, "lon": -0.3859804, "tags": {"amenity": "bicycle_parking", "bicycle_parking": "stands", "capacity": "8", "ref:GB:tflcid": "RWG238302"}}, {"type": "node", "id": 10275589410, "lat": 51.5013265, "lon": -0.382496, "tags": {"amenity": "bicycle_parking", "bicycle_parking": "post_hoop", "capacity": "2", "ref:GB:tflcid": "RWG238293"}}, {"type": "node", "id": 10275589411, "lat": 51.5024839, "lon": -0.3815404, "tags": {"amenity": "bicycle_parking", "bicycle_parking": "stands", "capacity": "4", "ref:GB:tflcid": "RWG238310"}}, {"type": "node", "id": 10275589732, "lat": 51.5085902, "lon": -0.4204362, "tags": {"amenity": "bicycle_parking", "bicycle_parking": "stands", "capacity": "10", "ref:GB:tflcid": "RWG238153"}}, {"type": "node", "id": 10275589735, "lat": 51.5196683, "lon": -0.4030235, "tags": {"amenity": "bicycle_parking", "bicycle_parking": "stands", "capacity": "2", "ref:GB:tflcid": "RWG238401"}}, {"type": "node", "id": 10275612716, "lat": 51.5201909, "lon": -0.4142957, "tags": {"amenity": "bicycle_parking", "bicycle_parking": "stands", "capacity": "6", "ref:GB:tflcid": "RWG238314"}}, {"type": "node", "id": 10275615835, "lat": 51.5225042, "lon": -0.4255377, "tags": {"amenity": "bicycle_parking", "bicycle_parking": "stands", "capacity": "10", "ref:GB:tflcid": "RWG292083"}}, {"type": "node", "id": 10275615836, "lat": 51.5082237, "lon": -0.4182227, "tags": {"amenity": "bicycle_parking", "capacity": "10", "covered": "yes", "on_carriageway": "yes", "ref:GB:tflcid": "RWG238171"}}, {"type": "node", "id": 10275615837, "lat": 51.5083896, "lon": -0.4187347, "tags": {"amenity": "bicycle_parking", "capacity": "5", "covered": "yes", "on_carriageway": "yes", "ref:GB:tflcid": "RWG238172"}}, {"type": "node", "id": 10275615838, "lat": 51.5035012, "lon": -0.419959, "tags": {"amenity": "bicycle_parking", "capacity": "8", "ref:GB:tflcid": "RWG238085"}}, {"type": "node", "id": 10275615839, "lat": 51.5036235, "lon": -0.4199421, "tags": {"amenity": "bicycle_parking", "capacity": "8", "ref:GB:tflcid": "RWG238086"}}, {"type": "node", "id": 10275615840, "lat": 51.5037617, "lon": -0.4199201, "tags": {"amenity": "bicycle_parking", "capacity": "8", "ref:GB:tflcid": "RWG238087"}}, {"type": "node", "id": 10275615841, "lat": 51.5033392, "lon": -0.4144798, "tags": {"amenity": "bicycle_parking", "bicycle_parking": "stands", "capacity": "6", "covered": "yes", "ref:GB:tflcid": "RWG238088"}}, {"type": "node", "id": 10275615871, "lat": 51.518575, "lon": -0.4215619, "tags": {"amenity": "bicycle_parking", "bicycle_parking": "stands", "capacity": "2", "ref:GB:tflcid": "RWG238222"}}, {"type": "node", "id": 10275615872, "lat": 51.5196324, "lon": -0.4127791, "tags": {"amenity": "bicycle_parking", "bicycle_parking": "stands", "capacity": "6", "covered": "no", "ref:GB:tflcid": "RWG238307"}}, {"type": "node", "id": 10275615873, "lat": 51.5196981, "lon": -0.412966, "tags": {"amenity": "bicycle_parking", "bicycle_parking": "stands", "capacity": "6", "covered": "no", "ref:GB:tflcid": "RWG238308"}}, {"type": "node", "id": 10275615874, "lat": 51.51992, "lon": -0.4135865, "tags": {"amenity": "bicycle_parking", "bicycle_parking": "stands", "capacity": "4", "ref:GB:tflcid": "RWG238309"}}, {"type": "node", "id": 10275615875, "lat": 51.5190495, "lon": -0.4112952, "tags": {"amenity": "bicycle_parking", "bicycle_parking": "stands", "capacity": "4", "ref:GB:tflcid": "RWG238284"}}, {"type": "node", "id": 10277991358, "lat": 51.4709899, "lon": -0.3802907, "tags": {"amenity": "bicycle_parking", "bicycle_parking": "stands", "capacity": "4", "ref:GB:tflcid": "RWG232503"}}, {"type": "node", "id": 10277991457, "lat": 51.4711287, "lon": -0.3807124, "tags": {"amenity": "bicycle_parking", "bicycle_parking": "stands", "capacity": "2", "ref:GB:tflcid": "RWG232506"}}, {"type": "node", "id": 10277991458, "lat": 51.4711455, "lon": -0.380757, "tags": {"amenity": "bicycle_parking", "bicycle_parking": "stands", "capacity": "2", "ref:GB:tflcid": "RWG232505"}}, {"type": "node", "id": 10277991459, "lat": 51.4731995, "lon": -0.3865205, "tags": {"amenity": "bicycle_parking", "bicycle_parking": "stands", "capacity": "2", "ref:GB:tflcid": "RWG232106"}}, {"type": "node", "id": 10277991460, "lat": 51.4731893, "lon": -0.3864781, "tags": {"amenity": "bicycle_parking", "bicycle_parking": "two-tier", "capacity": "20", "covered": "yes", "ref:GB:tflcid": "RWG232107"}}, {"type": "node", "id": 10277991950, "lat": 51.4978881, "lon": -0.4727215, "tags": {"amenity": "bicycle_parking", "bicycle_parking": "stands", "capacity": "8", "ref:GB:tflcid": "RWG238119"}}, {"type": "node", "id": 10277992113, "lat": 51.4776229, "lon": -0.3836449, "tags": {"amenity": "bicycle_parking", "bicycle_parking": "post_hoop", "capacity": "2", "ref:GB:tflcid": "RWG232512"}}, {"type": "node", "id": 10277992227, "lat": 51.5043885, "lon": -0.4583486, "tags": {"amenity": "bicycle_parking", "bicycle_parking": "stands", "capacity": "4", "ref:GB:tflcid": "RWG238238"}}, {"type": "node", "id": 10277993010, "lat": 51.5043753, "lon": -0.4582513, "tags": {"amenity": "bicycle_parking", "bicycle_parking": "stands", "capacity": "4", "ref:GB:tflcid": "RWG238237"}}, {"type": "node", "id": 10277993416, "lat": 51.472739, "lon": -0.3852219, "tags": {"amenity": "bicycle_parking", "bicycle_parking": "stands", "capacity": "4", "ref:GB:tflcid": "RWG232120"}}, {"type": "node", "id": 10277993417, "lat": 51.4727945, "lon": -0.3854062, "tags": {"amenity": "bicycle_parking", "bicycle_parking": "stands", "capacity": "10", "ref:GB:tflcid": "RWG232116"}}, {"type": "node", "id": 10277993418, "lat": 51.4766434, "lon": -0.3840132, "tags": {"amenity": "bicycle_parking", "bicycle_parking": "stands", "capacity": "2", "ref:GB:tflcid": "RWG232410"}}, {"type": "node", "id": 10277993419, "lat": 51.4767252, "lon": -0.3841272, "tags": {"amenity": "bicycle_parking", "bicycle_parking": "stands", "capacity": "4", "ref:GB:tflcid": "RWG232411"}}, {"type": "node", "id": 10277993420, "lat": 51.4731667, "lon": -0.387168, "tags": {"amenity": "bicycle_parking", "bicycle_parking": "stands", "capacity": "8", "ref:GB:tflcid": "RWG232098"}}, {"type": "node", "id": 10277993421, "lat": 51.4722073, "lon": -0.3841186, "tags": {"amenity": "bicycle_parking", "bicycle_parking": "stands", "capacity": "8", "ref:GB:tflcid": "RWG232080"}}, {"type": "node", "id": 10277993507, "lat": 51.5043264, "lon": -0.4579371, "tags": {"amenity": "bicycle_parking", "bicycle_parking": "stands", "capacity": "6", "ref:GB:tflcid": "RWG238235"}}, {"type": "node", "id": 10277993508, "lat": 51.5043562, "lon": -0.4581429, "tags": {"amenity": "bicycle_parking", "bicycle_parking": "stands", "capacity": "4", "ref:GB:tflcid": "RWG238236"}}, {"type": "node", "id": 10277995432, "lat": 51.5049954, "lon": -0.4594065, "tags": {"amenity": "bicycle_parking", "bicycle_parking": "stands", "capacity": "12", "ref:GB:tflcid": "RWG238240"}}, {"type": "node", "id": 10277995613, "lat": 51.5029144, "lon": -0.4665613, "tags": {"amenity": "bicycle_parking", "bicycle_parking": "stands", "capacity": "6", "covered": "yes", "ref:GB:tflcid": "RWG238253"}}, {"type": "node", "id": 10277995614, "lat": 51.5049687, "lon": -0.4595804, "tags": {"amenity": "bicycle_parking", "bicycle_parking": "stands", "capacity": "12", "ref:GB:tflcid": "RWG238241"}}, {"type": "node", "id": 10277995615, "lat": 51.5043852, "lon": -0.4578764, "tags": {"amenity": "bicycle_parking", "bicycle_parking": "stands", "capacity": "4", "ref:GB:tflcid": "RWG238234"}}, {"type": "node", "id": 10277995675, "lat": 51.4850038, "lon": -0.4003756, "tags": {"amenity": "bicycle_parking", "bicycle_lock": "provided", "bicycle_parking": "stands", "capacity": "10", "covered": "yes", "ref:GB:tflcid": "RWG233126"}}, {"type": "node", "id": 10277995676, "lat": 51.4847941, "lon": -0.3963239, "tags": {"amenity": "bicycle_parking", "bicycle_parking": "stands", "capacity": "2", "ref:GB:tflcid": "RWG233107"}}, {"type": "node", "id": 10277995677, "lat": 51.4848161, "lon": -0.3964291, "tags": {"amenity": "bicycle_parking", "bicycle_parking": "stands", "capacity": "2", "ref:GB:tflcid": "RWG233106"}}, {"type": "node", "id": 10277996509, "lat": 51.5046936, "lon": -0.4577427, "tags": {"amenity": "bicycle_parking", "bicycle_parking": "stands", "capacity": "4", "ref:GB:tflcid": "RWG238233"}}, {"type": "node", "id": 10277996602, "lat": 51.4973515, "lon": -0.4047961, "tags": {"amenity": "bicycle_parking", "bicycle_parking": "stands", "capacity": "10", "covered": "yes", "ref:GB:tflcid": "RWG232663"}}, {"type": "node", "id": 10277996603, "lat": 51.4921864, "lon": -0.399085, "tags": {"amenity": "bicycle_parking", "bicycle_parking": "upright_stands", "capacity": "6", "covered": "yes", "ref:GB:tflcid": "RWG232863"}}, {"type": "node", "id": 10277996604, "lat": 51.4850076, "lon": -0.4002102, "tags": {"amenity": "bicycle_parking", "bicycle_lock": "provided", "bicycle_parking": "stands", "capacity": "10", "covered": "yes", "ref:GB:tflcid": "RWG233124"}}, {"type": "node", "id": 10277996605, "lat": 51.4850048, "lon": -0.4003175, "tags": {"amenity": "bicycle_parking", "bicycle_lock": "provided", "bicycle_parking": "stands", "capacity": "10", "covered": "yes", "ref:GB:tflcid": "RWG233125"}}, {"type": "node", "id": 10277996606, "lat": 51.4848, "lon": -0.3963552, "tags": {"amenity": "bicycle_parking", "bicycle_parking": "stands", "capacity": "2", "ref:GB:tflcid": "RWG233108"}}, {"type": "node", "id": 10277996607, "lat": 51.4858713, "lon": -0.3962211, "tags": {"amenity": "bicycle_parking", "bicycle_lock": "provided", "bicycle_parking": "stands", "capacity": "12", "covered": "yes", "ref:GB:tflcid": "RWG233104"}}, {"type": "node", "id": 10277996608, "lat": 51.48676, "lon": -0.3934052, "tags": {"amenity": "bicycle_parking", "bicycle_lock": "provided", "bicycle_parking": "stands", "capacity": "10", "covered": "yes", "ref:GB:tflcid": "RWG233090"}}, {"type": "node", "id": 10278000909, "lat": 51.4842655, "lon": -0.3905133, "tags": {"amenity": "bicycle_parking", "bicycle_parking": "stands", "capacity": "2", "ref:GB:tflcid": "RWG233085"}}, {"type": "node", "id": 10280248279, "lat": 51.5427982, "lon": -0.4729159, "tags": {"amenity": "bicycle_parking", "bicycle_parking": "stands", "capacity": "2", "ref:GB:tflcid": "RWG238244"}}, {"type": "node", "id": 10280252463, "lat": 51.45373, "lon": -0.4279089, "tags": {"amenity": "bicycle_parking", "bicycle_parking": "stands", "capacity": "6", "ref:GB:tflcid": "RWG233115"}}, {"type": "node", "id": 10280252470, "lat": 51.544951, "lon": -0.4767315, "tags": {"amenity": "bicycle_parking", "bicycle_parking": "stands", "capacity": "8", "ref:GB:tflcid": "RWG238248"}}, {"type": "node", "id": 10280252471, "lat": 51.5442569, "lon": -0.4747747, "tags": {"amenity": "bicycle_parking", "bicycle_parking": "stands", "capacity": "6", "ref:GB:tflcid": "RWG238232"}}, {"type": "node", "id": 10280258478, "lat": 51.4555833, "lon": -0.4428891, "tags": {"amenity": "bicycle_parking", "bicycle_parking": "two-tier", "capacity": "28", "covered": "yes", "ref:GB:tflcid": "RWG233424"}}, {"type": "node", "id": 10280258479, "lat": 51.4538789, "lon": -0.4330937, "tags": {"access": "private", "amenity": "bicycle_parking", "bicycle_parking": "shed", "capacity": "6", "covered": "yes", "operator": "Cyclehoop Rentals", "ref:GB:tflcid": "RWG233264"}}, {"type": "node", "id": 10280258480, "lat": 51.453824, "lon": -0.4330691, "tags": {"access": "private", "amenity": "bicycle_parking", "bicycle_parking": "shed", "capacity": "6", "covered": "yes", "operator": "Cyclehoop Rentals", "ref:GB:tflcid": "RWG233265"}}, {"type": "node", "id": 10280259077, "lat": 51.4539074, "lon": -0.4329754, "tags": {"access": "private", "amenity": "bicycle_parking", "bicycle_parking": "shed", "capacity": "6", "covered": "yes", "operator": "Cyclehoop Rentals", "ref:GB:tflcid": "RWG233258"}}, {"type": "node", "id": 10280259078, "lat": 51.4539327, "lon": -0.4329901, "tags": {"access": "private", "amenity": "bicycle_parking", "bicycle_parking": "shed", "capacity": "6", "covered": "yes", "operator": "Cyclehoop Rentals", "ref:GB:tflcid": "RWG233260"}}, {"type": "node", "id": 10280259079, "lat": 51.4538522, "lon": -0.4329443, "tags": {"access": "private", "amenity": "bicycle_parking", "bicycle_parking": "shed", "capacity": "6", "covered": "yes", "operator": "Cyclehoop Rentals", "ref:GB:tflcid": "RWG233261"}}, {"type": "node", "id": 10280259080, "lat": 51.4537992, "lon": -0.4330505, "tags": {"access": "private", "amenity": "bicycle_parking", "bicycle_parking": "shed", "capacity": "6", "covered": "yes", "operator": "Cyclehoop Rentals", "ref:GB:tflcid": "RWG233266"}}, {"type": "node", "id": 10280259151, "lat": 51.5235049, "lon": -0.4554133, "tags": {"amenity": "bicycle_parking", "bicycle_parking": "stands", "capacity": "6", "ref:GB:tflcid": "RWG238458"}}, {"type": "node", "id": 10280259174, "lat": 51.5935643, "lon": -0.3819305, "tags": {"amenity": "bicycle_parking", "bicycle_parking": "stands", "capacity": "4", "covered": "no", "ref:GB:tflcid": "RWG260370"}}, {"type": "node", "id": 10280259364, "lat": 51.515355, "lon": -0.4743069, "tags": {"amenity": "bicycle_parking", "bicycle_parking": "stands", "capacity": "6", "ref:GB:tflcid": "RWG238459"}}, {"type": "node", "id": 10280259366, "lat": 51.5250487, "lon": -0.4644679, "tags": {"amenity": "bicycle_parking", "bicycle_parking": "stands", "capacity": "10", "ref:GB:tflcid": "RWG238392"}}, {"type": "node", "id": 10280259367, "lat": 51.5256343, "lon": -0.4640668, "tags": {"amenity": "bicycle_parking", "bicycle_parking": "stands", "capacity": "1", "ref:GB:tflcid": "RWG238391"}}, {"type": "node", "id": 10280259385, "lat": 51.5956274, "lon": -0.3852902, "tags": {"amenity": "bicycle_parking", "bicycle_parking": "stands", "capacity": "4", "ref:GB:tflcid": "RWG260359"}}, {"type": "node", "id": 10280260122, "lat": 51.571396, "lon": -0.4118535, "tags": {"amenity": "bicycle_parking", "bicycle_parking": "stands", "capacity": "2", "ref:GB:tflcid": "RWG238371"}}, {"type": "node", "id": 10280260149, "lat": 51.4701491, "lon": -0.3965827, "tags": {"amenity": "bicycle_parking", "bicycle_parking": "stands", "capacity": "2", "ref:GB:tflcid": "RWG233070"}}, {"type": "node", "id": 10280260150, "lat": 51.4701766, "lon": -0.3965703, "tags": {"amenity": "bicycle_parking", "bicycle_parking": "stands", "capacity": "2", "ref:GB:tflcid": "RWG233068"}}, {"type": "node", "id": 10280260151, "lat": 51.4702972, "lon": -0.3965199, "tags": {"amenity": "bicycle_parking", "bicycle_parking": "stands", "capacity": "2", "ref:GB:tflcid": "RWG233067"}}, {"type": "node", "id": 10280260162, "lat": 51.4795089, "lon": -0.4110585, "tags": {"amenity": "bicycle_parking", "bicycle_parking": "stands", "capacity": "2", "ref:GB:tflcid": "RWG233134"}}, {"type": "node", "id": 10280260163, "lat": 51.479522, "lon": -0.4107145, "tags": {"amenity": "bicycle_parking", "bicycle_parking": "stands", "capacity": "6", "ref:GB:tflcid": "RWG233136"}}, {"type": "node", "id": 10280260204, "lat": 51.5455418, "lon": -0.4515773, "tags": {"amenity": "bicycle_parking", "bicycle_parking": "stands", "capacity": "4", "ref:GB:tflcid": "RWG238258"}}, {"type": "node", "id": 10280260205, "lat": 51.5304193, "lon": -0.4816365, "tags": {"amenity": "bicycle_parking", "bicycle_parking": "stands", "capacity": "2", "ref:GB:tflcid": "RWG238399"}}, {"type": "node", "id": 10280260206, "lat": 51.5280826, "lon": -0.4813718, "tags": {"amenity": "bicycle_parking", "bicycle_parking": "stands", "capacity": "6", "ref:GB:tflcid": "RWG238483"}}, {"type": "node", "id": 10280260218, "lat": 51.453902, "lon": -0.4331105, "tags": {"access": "private", "amenity": "bicycle_parking", "bicycle_parking": "shed", "capacity": "6", "covered": "yes", "operator": "Cyclehoop Rentals", "ref:GB:tflcid": "RWG233263"}}, {"type": "node", "id": 10280260219, "lat": 51.4538341, "lon": -0.4329324, "tags": {"access": "private", "amenity": "bicycle_parking", "bicycle_parking": "shed", "capacity": "6", "covered": "yes", "operator": "Cyclehoop Rentals", "ref:GB:tflcid": "RWG233262"}}, {"type": "node", "id": 10280260232, "lat": 51.5262782, "lon": -0.4620656, "tags": {"amenity": "bicycle_parking", "bicycle_parking": "upright_stands", "capacity": "12", "covered": "yes", "ref:GB:tflcid": "RWG238395"}}, {"type": "node", "id": 10280260254, "lat": 51.483839, "lon": -0.3809236, "tags": {"amenity": "bicycle_parking", "bicycle_parking": "post_hoop", "capacity": "2", "ref:GB:tflcid": "RWG233050"}}, {"type": "node", "id": 10280260278, "lat": 51.5096391, "lon": -0.3993982, "tags": {"amenity": "bicycle_parking", "bicycle_parking": "stands", "capacity": "10", "ref:GB:tflcid": "RWG238106"}}, {"type": "node", "id": 10280261033, "lat": 51.5228306, "lon": -0.4604356, "tags": {"amenity": "bicycle_parking", "bicycle_parking": "stands", "capacity": "6", "ref:GB:tflcid": "RWG238486"}}, {"type": "node", "id": 10280261034, "lat": 51.5259259, "lon": -0.4598004, "tags": {"amenity": "bicycle_parking", "bicycle_lock": "provided", "bicycle_parking": "shed", "capacity": "20", "covered": "yes", "ref:GB:tflcid": "RWG238396"}}, {"type": "node", "id": 10280261039, "lat": 51.5915843, "lon": -0.3811811, "tags": {"amenity": "bicycle_parking", "bicycle_parking": "stands", "capacity": "4", "ref:GB:tflcid": "RWG260434"}}, {"type": "node", "id": 10280261040, "lat": 51.591718, "lon": -0.3813398, "tags": {"amenity": "bicycle_parking", "bicycle_parking": "stands", "capacity": "4", "ref:GB:tflcid": "RWG260435"}}, {"type": "node", "id": 10280261041, "lat": 51.5945212, "lon": -0.3827412, "tags": {"amenity": "bicycle_parking", "bicycle_parking": "stands", "capacity": "4", "ref:GB:tflcid": "RWG260344"}}, {"type": "node", "id": 10280261042, "lat": 51.5942657, "lon": -0.3828793, "tags": {"amenity": "bicycle_parking", "bicycle_parking": "stands", "capacity": "4", "ref:GB:tflcid": "RWG260368"}}, {"type": "node", "id": 10280261687, "lat": 51.4535081, "lon": -0.4288192, "tags": {"amenity": "bicycle_parking", "bicycle_parking": "stands", "capacity": "4", "ref:GB:tflcid": "RWG233038"}}, {"type": "node", "id": 10280261688, "lat": 51.4536022, "lon": -0.4284239, "tags": {"amenity": "bicycle_parking", "bicycle_parking": "stands", "capacity": "6", "ref:GB:tflcid": "RWG233039"}}, {"type": "node", "id": 10280261708, "lat": 51.542928, "lon": -0.4814571, "tags": {"amenity": "bicycle_parking", "bicycle_parking": "stands", "capacity": "2", "ref:GB:tflcid": "RWG238356"}}, {"type": "node", "id": 10280261728, "lat": 51.4539036, "lon": -0.4325033, "tags": {"amenity": "bicycle_parking", "bicycle_parking": "stands", "capacity": "2", "ref:GB:tflcid": "RWG233267"}}, {"type": "node", "id": 10280261729, "lat": 51.4537819, "lon": -0.4324709, "tags": {"amenity": "bicycle_parking", "bicycle_parking": "stands", "capacity": "2", "ref:GB:tflcid": "RWG233269"}}, {"type": "node", "id": 10280261734, "lat": 51.5478542, "lon": -0.4811717, "tags": {"amenity": "bicycle_parking", "bicycle_parking": "stands", "capacity": "8", "ref:GB:tflcid": "RWG238283"}}, {"type": "node", "id": 10280261759, "lat": 51.6087775, "lon": -0.4154626, "tags": {"amenity": "bicycle_parking", "bicycle_parking": "stands", "capacity": "2", "ref:GB:tflcid": "RWG238427"}}, {"type": "node", "id": 10280261760, "lat": 51.5994501, "lon": -0.4100122, "tags": {"amenity": "bicycle_parking", "bicycle_parking": "stands", "capacity": "8", "ref:GB:tflcid": "RWG238264"}}, {"type": "node", "id": 10280261918, "lat": 51.548786, "lon": -0.4819176, "tags": {"amenity": "bicycle_parking", "bicycle_parking": "stands", "capacity": "12", "covered": "no", "ref:GB:tflcid": "RWG238286"}}, {"type": "node", "id": 10280261940, "lat": 51.6021155, "lon": -0.4191265, "tags": {"amenity": "bicycle_parking", "bicycle_parking": "wall_loops", "capacity": "5", "ref:GB:tflcid": "RWG238341"}}, {"type": "node", "id": 10280261941, "lat": 51.5990948, "lon": -0.4097027, "tags": {"amenity": "bicycle_parking", "bicycle_parking": "stands", "capacity": "6", "ref:GB:tflcid": "RWG238268"}}, {"type": "node", "id": 10280264510, "lat": 51.5450014, "lon": -0.476875, "tags": {"amenity": "bicycle_parking", "bicycle_parking": "stands", "capacity": "8", "ref:GB:tflcid": "RWG238250"}}, {"type": "node", "id": 10280264511, "lat": 51.6007343, "lon": -0.4094503, "tags": {"amenity": "bicycle_parking", "bicycle_parking": "stands", "capacity": "8", "covered": "no", "ref:GB:tflcid": "RWG238259"}}, {"type": "node", "id": 10280266209, "lat": 51.5447796, "lon": -0.4778818, "tags": {"amenity": "bicycle_parking", "bicycle_parking": "stands", "capacity": "6", "ref:GB:tflcid": "RWG238252"}}, {"type": "node", "id": 10280266210, "lat": 51.5449775, "lon": -0.476805, "tags": {"amenity": "bicycle_parking", "bicycle_parking": "stands", "capacity": "8", "ref:GB:tflcid": "RWG238249"}}, {"type": "node", "id": 10280269130, "lat": 51.6046281, "lon": -0.4164907, "tags": {"amenity": "bicycle_parking", "bicycle_parking": "wall_loops", "capacity": "12", "ref:GB:tflcid": "RWG238321"}}, {"type": "node", "id": 10280269131, "lat": 51.6061745, "lon": -0.4168533, "tags": {"amenity": "bicycle_parking", "bicycle_parking": "stands", "capacity": "6", "ref:GB:tflcid": "RWG238323"}}, {"type": "node", "id": 10280269132, "lat": 51.6017874, "lon": -0.4092581, "tags": {"amenity": "bicycle_parking", "bicycle_parking": "stands", "capacity": "8", "covered": "no", "ref:GB:tflcid": "RWG238263"}}, {"type": "node", "id": 10280269133, "lat": 51.6016407, "lon": -0.4095219, "tags": {"amenity": "bicycle_parking", "bicycle_parking": "stands", "capacity": "8", "covered": "no", "ref:GB:tflcid": "RWG238261"}}, {"type": "node", "id": 10280269942, "lat": 51.50925, "lon": -0.4152416, "tags": {"amenity": "bicycle_parking", "bicycle_parking": "stands", "capacity": "6", "covered": "no", "ref:GB:tflcid": "RWG238126"}}, {"type": "node", "id": 10280269943, "lat": 51.5078542, "lon": -0.4166019, "tags": {"amenity": "bicycle_parking", "bicycle_parking": "stands", "capacity": "8", "covered": "no", "ref:GB:tflcid": "RWG238128"}}, {"type": "node", "id": 10280269949, "lat": 51.5046224, "lon": -0.4272904, "tags": {"amenity": "bicycle_parking", "bicycle_parking": "stands", "capacity": "28", "ref:GB:tflcid": "RWG238099"}}, {"type": "node", "id": 10280269960, "lat": 51.5654345, "lon": -0.4469885, "tags": {"amenity": "bicycle_parking", "bicycle_parking": "stands", "capacity": "2", "ref:GB:tflcid": "RWG238304"}}, {"type": "node", "id": 10280269961, "lat": 51.5655647, "lon": -0.4472762, "tags": {"amenity": "bicycle_parking", "bicycle_parking": "stands", "capacity": "2", "ref:GB:tflcid": "RWG238305"}}, {"type": "node", "id": 10280269962, "lat": 51.5656187, "lon": -0.4474252, "tags": {"amenity": "bicycle_parking", "bicycle_parking": "stands", "capacity": "2", "ref:GB:tflcid": "RWG238306"}}, {"type": "node", "id": 10280269963, "lat": 51.5653679, "lon": -0.4468801, "tags": {"amenity": "bicycle_parking", "bicycle_parking": "stands", "capacity": "2", "ref:GB:tflcid": "RWG238303"}}, {"type": "node", "id": 10280269964, "lat": 51.5629517, "lon": -0.4435472, "tags": {"amenity": "bicycle_parking", "bicycle_parking": "stands", "capacity": "4", "ref:GB:tflcid": "RWG238265"}}, {"type": "node", "id": 10280269965, "lat": 51.5299129, "lon": -0.3770387, "tags": {"amenity": "bicycle_parking", "bicycle_lock": "bring_own", "bicycle_parking": "lockers", "capacity": "3", "ref:GB:tflcid": "RWG238342"}}, {"type": "node", "id": 10280269974, "lat": 51.4698364, "lon": -0.3967189, "tags": {"amenity": "bicycle_parking", "bicycle_parking": "stands", "capacity": "4", "ref:GB:tflcid": "RWG233065"}}, {"type": "node", "id": 10280270567, "lat": 51.5005492, "lon": -0.4248163, "tags": {"amenity": "bicycle_parking", "bicycle_parking": "stands", "capacity": "18", "ref:GB:tflcid": "RWG238508"}}, {"type": "node", "id": 10280270597, "lat": 51.5314353, "lon": -0.3762676, "tags": {"amenity": "bicycle_parking", "bicycle_parking": "stands", "capacity": "6", "ref:GB:tflcid": "RWG238465"}}, {"type": "node", "id": 10280270599, "lat": 51.5299188, "lon": -0.3771126, "tags": {"amenity": "bicycle_parking", "capacity": "2", "ref:GB:tflcid": "RWG238340"}}, {"type": "node", "id": 10280270607, "lat": 51.4727044, "lon": -0.3973177, "tags": {"amenity": "bicycle_parking", "bicycle_lock": "bring_own", "bicycle_parking": "lockers", "capacity": "7", "covered": "yes", "ref:GB:tflcid": "RWG232387"}}, {"type": "node", "id": 10280270624, "lat": 51.5642801, "lon": -0.4439583, "tags": {"amenity": "bicycle_parking", "bicycle_parking": "stands", "capacity": "6", "ref:GB:tflcid": "RWG238267"}}, {"type": "node", "id": 10280270625, "lat": 51.5299025, "lon": -0.3769887, "tags": {"amenity": "bicycle_parking", "capacity": "1", "ref:GB:tflcid": "RWG238343"}}, {"type": "node", "id": 10280270639, "lat": 51.4793134, "lon": -0.4107317, "tags": {"amenity": "bicycle_parking", "bicycle_parking": "stands", "capacity": "2", "ref:GB:tflcid": "RWG233127"}}, {"type": "node", "id": 10280270640, "lat": 51.4794412, "lon": -0.4110175, "tags": {"amenity": "bicycle_parking", "bicycle_parking": "stands", "capacity": "2", "ref:GB:tflcid": "RWG233133"}}, {"type": "node", "id": 10280270641, "lat": 51.4798271, "lon": -0.4118365, "tags": {"amenity": "bicycle_parking", "bicycle_parking": "stands", "capacity": "6", "ref:GB:tflcid": "RWG233174"}}, {"type": "node", "id": 10280270642, "lat": 51.4802817, "lon": -0.4107624, "tags": {"amenity": "bicycle_parking", "bicycle_parking": "stands", "capacity": "8", "ref:GB:tflcid": "RWG233247"}}, {"type": "node", "id": 10280270673, "lat": 51.5520765, "lon": -0.4490418, "tags": {"amenity": "bicycle_parking", "bicycle_parking": "stands", "capacity": "4", "covered": "no", "ref:GB:tflcid": "RWG238422"}}, {"type": "node", "id": 10280270674, "lat": 51.5521519, "lon": -0.4496579, "tags": {"amenity": "bicycle_parking", "bicycle_parking": "stands", "capacity": "4", "ref:GB:tflcid": "RWG238413"}}, {"type": "node", "id": 10280270675, "lat": 51.5410825, "lon": -0.4489641, "tags": {"amenity": "bicycle_parking", "bicycle_parking": "stands", "capacity": "4", "ref:GB:tflcid": "RWG238288"}}, {"type": "node", "id": 10280270679, "lat": 51.5429454, "lon": -0.4852963, "tags": {"amenity": "bicycle_parking", "bicycle_parking": "stands", "capacity": "2", "ref:GB:tflcid": "RWG238389"}}, {"type": "node", "id": 10280272713, "lat": 51.6053419, "lon": -0.4821314, "tags": {"amenity": "bicycle_parking", "bicycle_parking": "stands", "capacity": "8", "covered": "yes", "ref:GB:tflcid": "RWG238400"}}, {"type": "node", "id": 10280272714, "lat": 51.6036666, "lon": -0.479601, "tags": {"amenity": "bicycle_parking", "bicycle_parking": "stands", "capacity": "4", "covered": "no", "ref:GB:tflcid": "RWG238380"}}, {"type": "node", "id": 10280272740, "lat": 51.509798, "lon": -0.3765, "tags": {"amenity": "bicycle_parking", "bicycle_parking": "stands", "capacity": "2", "covered": "no", "ref:GB:tflcid": "RWG238438"}}, {"type": "node", "id": 10280272741, "lat": 51.5114404, "lon": -0.3763987, "tags": {"amenity": "bicycle_parking", "bicycle_parking": "stands", "capacity": "4", "ref:GB:tflcid": "RWG238472"}}, {"type": "node", "id": 10280272742, "lat": 51.5102411, "lon": -0.3762149, "tags": {"amenity": "bicycle_parking", "bicycle_parking": "stands", "capacity": "2", "ref:GB:tflcid": "RWG238439"}}, {"type": "node", "id": 10280272768, "lat": 51.5297918, "lon": -0.4462852, "tags": {"amenity": "bicycle_parking", "bicycle_parking": "stands", "capacity": "4", "ref:GB:tflcid": "RWG238158"}}, {"type": "node", "id": 10280272769, "lat": 51.5292017, "lon": -0.4457281, "tags": {"amenity": "bicycle_parking", "bicycle_parking": "stands", "capacity": "4", "ref:GB:tflcid": "RWG238154"}}, {"type": "node", "id": 10280272770, "lat": 51.5295434, "lon": -0.4458441, "tags": {"amenity": "bicycle_parking", "bicycle_parking": "stands", "capacity": "4", "ref:GB:tflcid": "RWG238162"}}, {"type": "node", "id": 10280272913, "lat": 51.5813648, "lon": -0.4700833, "tags": {"amenity": "bicycle_parking", "bicycle_parking": "stands", "capacity": "20", "ref:GB:tflcid": "RWG292089"}}, {"type": "node", "id": 10280272987, "lat": 51.6115444, "lon": -0.424574, "tags": {"amenity": "bicycle_parking", "bicycle_parking": "stands", "capacity": "1", "ref:GB:tflcid": "RWG238429"}}, {"type": "node", "id": 10280272988, "lat": 51.6115433, "lon": -0.4244971, "tags": {"amenity": "bicycle_parking", "bicycle_parking": "stands", "capacity": "1", "ref:GB:tflcid": "RWG238430"}}, {"type": "node", "id": 10280273717, "lat": 51.571305, "lon": -0.4117719, "tags": {"amenity": "bicycle_parking", "bicycle_parking": "stands", "capacity": "2", "ref:GB:tflcid": "RWG238372"}}, {"type": "node", "id": 10280273718, "lat": 51.5714017, "lon": -0.4116612, "tags": {"amenity": "bicycle_parking", "bicycle_parking": "stands", "capacity": "2", "ref:GB:tflcid": "RWG238376"}}, {"type": "node", "id": 10280275820, "lat": 51.5926592, "lon": -0.3803146, "tags": {"amenity": "bicycle_parking", "bicycle_parking": "stands", "capacity": "20", "covered": "yes", "ref:GB:tflcid": "RWG261268"}}, {"type": "node", "id": 10280275821, "lat": 51.5919831, "lon": -0.3816982, "tags": {"amenity": "bicycle_parking", "bicycle_parking": "stands", "capacity": "4", "ref:GB:tflcid": "RWG260436"}}, {"type": "node", "id": 10280277460, "lat": 51.4839558, "lon": -0.3810651, "tags": {"amenity": "bicycle_parking", "bicycle_parking": "stands", "capacity": "6", "ref:GB:tflcid": "RWG233046"}}, {"type": "node", "id": 10280277461, "lat": 51.4835781, "lon": -0.381051, "tags": {"amenity": "bicycle_parking", "bicycle_parking": "post_hoop", "capacity": "2", "ref:GB:tflcid": "RWG233048"}}, {"type": "node", "id": 10280277462, "lat": 51.4829126, "lon": -0.3815228, "tags": {"amenity": "bicycle_parking", "bicycle_parking": "stands", "capacity": "2", "ref:GB:tflcid": "RWG233043"}}, {"type": "node", "id": 10280277485, "lat": 51.5090533, "lon": -0.4154236, "tags": {"amenity": "bicycle_parking", "bicycle_parking": "stands", "capacity": "6", "covered": "no", "ref:GB:tflcid": "RWG238127"}}, {"type": "node", "id": 10280277486, "lat": 51.5077443, "lon": -0.4170484, "tags": {"amenity": "bicycle_parking", "bicycle_parking": "stands", "capacity": "8", "covered": "no", "ref:GB:tflcid": "RWG238123"}}, {"type": "node", "id": 10280277618, "lat": 51.4778071, "lon": -0.3835536, "tags": {"amenity": "bicycle_parking", "bicycle_parking": "post_hoop", "capacity": "2", "ref:GB:tflcid": "RWG232513"}}, {"type": "node", "id": 10280277619, "lat": 51.4833899, "lon": -0.3811601, "tags": {"amenity": "bicycle_parking", "bicycle_parking": "stands", "capacity": "4", "ref:GB:tflcid": "RWG233044"}}, {"type": "node", "id": 10280277620, "lat": 51.4836381, "lon": -0.3813612, "tags": {"amenity": "bicycle_parking", "bicycle_parking": "stands", "capacity": "10", "ref:GB:tflcid": "RWG233080"}}, {"type": "node", "id": 10280277621, "lat": 51.4840888, "lon": -0.3817935, "tags": {"amenity": "bicycle_parking", "bicycle_parking": "stands", "capacity": "22", "covered": "yes", "ref:GB:tflcid": "RWG233280"}}, {"type": "node", "id": 10280277682, "lat": 51.5102238, "lon": -0.4141508, "tags": {"amenity": "bicycle_parking", "bicycle_parking": "stands", "capacity": "6", "ref:GB:tflcid": "RWG238124"}}, {"type": "node", "id": 10280277683, "lat": 51.5096096, "lon": -0.4148945, "tags": {"amenity": "bicycle_parking", "bicycle_parking": "stands", "capacity": "6", "covered": "no", "ref:GB:tflcid": "RWG238125"}}, {"type": "node", "id": 10280277697, "lat": 51.5027477, "lon": -0.4418785, "tags": {"amenity": "bicycle_parking", "bicycle_parking": "stands", "capacity": "6", "ref:GB:tflcid": "RWG238210"}}, {"type": "node", "id": 10280277698, "lat": 51.5040932, "lon": -0.4280065, "tags": {"amenity": "bicycle_parking", "bicycle_parking": "stands", "capacity": "12", "ref:GB:tflcid": "RWG238100"}}, {"type": "node", "id": 10280277699, "lat": 51.5038457, "lon": -0.428751, "tags": {"amenity": "bicycle_parking", "bicycle_lock": "provided", "bicycle_parking": "upright_stands", "capacity": "28", "covered": "yes", "ref:GB:tflcid": "RWG238101"}}, {"type": "node", "id": 10280277700, "lat": 51.5039096, "lon": -0.4238651, "tags": {"amenity": "bicycle_parking", "bicycle_parking": "stands", "capacity": "32", "ref:GB:tflcid": "RWG238510"}}, {"type": "node", "id": 10280281628, "lat": 51.5002837, "lon": -0.4267866, "tags": {"amenity": "bicycle_parking", "bicycle_parking": "stands", "capacity": "10", "covered": "yes", "ref:GB:tflcid": "RWG238096"}}, {"type": "node", "id": 10280281655, "lat": 51.5636516, "lon": -0.4122078, "tags": {"amenity": "bicycle_parking", "bicycle_parking": "stands", "capacity": "8", "ref:GB:tflcid": "RWG292088"}}, {"type": "node", "id": 10280281664, "lat": 51.5800871, "lon": -0.409639, "tags": {"amenity": "bicycle_parking", "bicycle_parking": "stands", "capacity": "10", "ref:GB:tflcid": "RWG238394"}}, {"type": "node", "id": 10280282742, "lat": 51.5724478, "lon": -0.4113373, "tags": {"amenity": "bicycle_parking", "bicycle_parking": "stands", "capacity": "12", "ref:GB:tflcid": "RWG238363"}}, {"type": "node", "id": 10280282743, "lat": 51.5724386, "lon": -0.4115517, "tags": {"amenity": "bicycle_parking", "bicycle_parking": "stands", "capacity": "4", "ref:GB:tflcid": "RWG238366"}}, {"type": "node", "id": 10280282744, "lat": 51.5703315, "lon": -0.4104096, "tags": {"amenity": "bicycle_parking", "bicycle_lock": "bring_own", "bicycle_parking": "lockers", "capacity": "4", "ref:GB:tflcid": "RWG238377"}}, {"type": "node", "id": 10280282764, "lat": 51.5734364, "lon": -0.4130462, "tags": {"amenity": "bicycle_parking", "bicycle_parking": "stands", "capacity": "6", "covered": "no", "ref:GB:tflcid": "RWG238367"}}, {"type": "node", "id": 10280282765, "lat": 51.5742965, "lon": -0.4148563, "tags": {"amenity": "bicycle_parking", "bicycle_parking": "stands", "capacity": "6", "ref:GB:tflcid": "RWG238388"}}, {"type": "node", "id": 10280282766, "lat": 51.5742516, "lon": -0.4135662, "tags": {"amenity": "bicycle_parking", "bicycle_parking": "stands", "capacity": "16", "covered": "no", "ref:GB:tflcid": "RWG238386"}}, {"type": "node", "id": 10280284118, "lat": 51.5732901, "lon": -0.4129628, "tags": {"amenity": "bicycle_parking", "bicycle_parking": "stands", "capacity": "6", "covered": "no", "ref:GB:tflcid": "RWG238361"}}, {"type": "node", "id": 10280284119, "lat": 51.5732051, "lon": -0.4128475, "tags": {"amenity": "bicycle_parking", "bicycle_parking": "stands", "capacity": "4", "covered": "no", "ref:GB:tflcid": "RWG238359"}}, {"type": "node", "id": 10280284120, "lat": 51.580115, "lon": -0.4093585, "tags": {"amenity": "bicycle_parking", "bicycle_parking": "stands", "capacity": "18", "ref:GB:tflcid": "RWG238393"}}, {"type": "node", "id": 10280285410, "lat": 51.6042113, "lon": -0.482033, "tags": {"amenity": "bicycle_parking", "bicycle_parking": "stands", "capacity": "4", "covered": "no", "ref:GB:tflcid": "RWG238355"}}, {"type": "node", "id": 10280285423, "lat": 51.5277495, "lon": -0.4438128, "tags": {"amenity": "bicycle_parking", "bicycle_parking": "stands", "capacity": "6", "ref:GB:tflcid": "RWG238186"}}, {"type": "node", "id": 10280285445, "lat": 51.5004788, "lon": -0.3887136, "tags": {"amenity": "bicycle_parking", "bicycle_parking": "stands", "capacity": "6", "ref:GB:tflcid": "RWG238111"}}, {"type": "node", "id": 10280285446, "lat": 51.4987952, "lon": -0.3920934, "tags": {"amenity": "bicycle_parking", "bicycle_parking": "stands", "capacity": "2", "ref:GB:tflcid": "RWG238109"}}, {"type": "node", "id": 10280285470, "lat": 51.6114193, "lon": -0.422496, "tags": {"amenity": "bicycle_parking", "bicycle_parking": "stands", "capacity": "8", "ref:GB:tflcid": "RWG238425"}}, {"type": "node", "id": 10280285510, "lat": 51.6029243, "lon": -0.4829327, "tags": {"amenity": "bicycle_parking", "bicycle_parking": "stands", "capacity": "4", "covered": "no", "ref:GB:tflcid": "RWG238364"}}, {"type": "node", "id": 10280285511, "lat": 51.6034964, "lon": -0.4822875, "tags": {"amenity": "bicycle_parking", "bicycle_parking": "stands", "capacity": "2", "covered": "no", "ref:GB:tflcid": "RWG238360"}}, {"type": "node", "id": 10280285546, "lat": 51.5077681, "lon": -0.3779166, "tags": {"amenity": "bicycle_parking", "bicycle_parking": "post_hoop", "capacity": "2", "covered": "no", "ref:GB:tflcid": "RWG238435"}}, {"type": "node", "id": 10280285548, "lat": 51.5084257, "lon": -0.3774634, "tags": {"amenity": "bicycle_parking", "bicycle_parking": "stands", "capacity": "2", "covered": "no", "ref:GB:tflcid": "RWG238436"}}, {"type": "node", "id": 10280285609, "lat": 51.6034947, "lon": -0.4822888, "tags": {"amenity": "bicycle_parking", "bicycle_parking": "stands", "capacity": "2", "covered": "no", "ref:GB:tflcid": "RWG238358"}}, {"type": "node", "id": 10280285615, "lat": 51.5317623, "lon": -0.4503259, "tags": {"amenity": "bicycle_parking", "capacity": "4", "ref:GB:tflcid": "RWG238156"}}, {"type": "node", "id": 10280285616, "lat": 51.5301671, "lon": -0.447858, "tags": {"amenity": "bicycle_parking", "bicycle_parking": "stands", "capacity": "4", "ref:GB:tflcid": "RWG238155"}}, {"type": "node", "id": 10280285822, "lat": 51.50054, "lon": -0.3883987, "tags": {"amenity": "bicycle_parking", "bicycle_parking": "stands", "capacity": "4", "ref:GB:tflcid": "RWG238112"}}, {"type": "node", "id": 10280287311, "lat": 51.5301619, "lon": -0.4473274, "tags": {"amenity": "bicycle_parking", "bicycle_parking": "stands", "capacity": "4", "ref:GB:tflcid": "RWG238157"}}, {"type": "node", "id": 10280288933, "lat": 51.5574145, "lon": -0.3952966, "tags": {"amenity": "bicycle_parking", "bicycle_parking": "stands", "capacity": "10", "covered": "yes", "ref:GB:tflcid": "RWG238348"}}, {"type": "node", "id": 10280288934, "lat": 51.5565793, "lon": -0.3938149, "tags": {"amenity": "bicycle_parking", "bicycle_parking": "stands", "capacity": "10", "covered": "yes", "ref:GB:tflcid": "RWG238463"}}, {"type": "node", "id": 10280288935, "lat": 51.5569715, "lon": -0.3966857, "tags": {"amenity": "bicycle_parking", "bicycle_parking": "stands", "capacity": "2", "covered": "yes", "ref:GB:tflcid": "RWG238378"}}, {"type": "node", "id": 10280288936, "lat": 51.556015, "lon": -0.3901544, "tags": {"amenity": "bicycle_parking", "bicycle_parking": "stands", "capacity": "10", "covered": "yes", "ref:GB:tflcid": "RWG238461"}}, {"type": "node", "id": 10280288937, "lat": 51.5579402, "lon": -0.383648, "tags": {"access": "private", "amenity": "bicycle_parking", "bicycle_parking": "shed", "capacity": "18", "covered": "yes", "operator": "Cyclehoop Rentals", "ref:GB:tflcid": "RWG238381"}}, {"type": "node", "id": 10280289916, "lat": 51.5580294, "lon": -0.3837256, "tags": {"amenity": "bicycle_parking", "bicycle_parking": "stands", "capacity": "30", "ref:GB:tflcid": "RWG238382"}}, {"type": "node", "id": 10280289925, "lat": 51.5002968, "lon": -0.3877165, "tags": {"amenity": "bicycle_parking", "bicycle_parking": "stands", "capacity": "2", "ref:GB:tflcid": "RWG238228"}}, {"type": "node", "id": 10280289926, "lat": 51.500414, "lon": -0.3876268, "tags": {"amenity": "bicycle_parking", "bicycle_parking": "stands", "capacity": "6", "ref:GB:tflcid": "RWG238227"}}, {"type": "node", "id": 10280289927, "lat": 51.4990797, "lon": -0.3915122, "tags": {"amenity": "bicycle_parking", "bicycle_parking": "stands", "capacity": "2", "ref:GB:tflcid": "RWG238110"}}, {"type": "node", "id": 10280289957, "lat": 51.6130231, "lon": -0.4418703, "tags": {"amenity": "bicycle_parking", "bicycle_parking": "stands", "capacity": "6", "ref:GB:tflcid": "RWG238460"}}, {"type": "node", "id": 10280289958, "lat": 51.6092912, "lon": -0.435178, "tags": {"amenity": "bicycle_parking", "bicycle_parking": "stands", "capacity": "2", "ref:GB:tflcid": "RWG238402"}}, {"type": "node", "id": 10280289959, "lat": 51.6119681, "lon": -0.4265622, "tags": {"amenity": "bicycle_parking", "bicycle_parking": "stands", "capacity": "6", "ref:GB:tflcid": "RWG238437"}}, {"type": "node", "id": 10280297153, "lat": 51.5416299, "lon": -0.4499309, "tags": {"amenity": "bicycle_parking", "bicycle_parking": "stands", "capacity": "4", "ref:GB:tflcid": "RWG238289"}}, {"type": "node", "id": 10280297156, "lat": 51.5392812, "lon": -0.4818255, "tags": {"amenity": "bicycle_parking", "bicycle_parking": "stands", "capacity": "4", "ref:GB:tflcid": "RWG238353"}}, {"type": "node", "id": 10280297157, "lat": 51.5380335, "lon": -0.4816619, "tags": {"amenity": "bicycle_parking", "bicycle_parking": "stands", "capacity": "2", "ref:GB:tflcid": "RWG238352"}}, {"type": "node", "id": 10281975251, "lat": 51.5595316, "lon": -0.3799822, "tags": {"amenity": "bicycle_parking", "bicycle_parking": "stands", "capacity": "4", "ref:GB:tflcid": "RWG260699"}}, {"type": "node", "id": 10281975252, "lat": 51.5596272, "lon": -0.3796012, "tags": {"amenity": "bicycle_parking", "bicycle_parking": "stands", "capacity": "4", "ref:GB:tflcid": "RWG260698"}}, {"type": "node", "id": 10281997729, "lat": 51.5609436, "lon": -0.3808811, "tags": {"amenity": "bicycle_parking", "bicycle_parking": "stands", "capacity": "2", "ref:GB:tflcid": "RWG238397"}}, {"type": "node", "id": 10281997817, "lat": 51.5587311, "lon": -0.3805355, "tags": {"amenity": "bicycle_parking", "bicycle_parking": "stands", "capacity": "11", "ref:GB:tflcid": "RWG238385"}}, {"type": "node", "id": 10281997871, "lat": 51.5817357, "lon": -0.4073302, "tags": {"amenity": "bicycle_parking", "bicycle_parking": "wall_loops", "capacity": "5", "ref:GB:tflcid": "RWG238405"}}, {"type": "node", "id": 10281998328, "lat": 51.5777445, "lon": -0.3985223, "tags": {"amenity": "bicycle_parking", "bicycle_parking": "stands", "capacity": "10", "ref:GB:tflcid": "RWG238424"}}, {"type": "node", "id": 10281998408, "lat": 51.560623, "lon": -0.4112664, "tags": {"amenity": "bicycle_parking", "bicycle_parking": "stands", "capacity": "6", "ref:GB:tflcid": "RWG238349"}}, {"type": "node", "id": 10281998519, "lat": 51.5612328, "lon": -0.3811585, "tags": {"amenity": "bicycle_parking", "bicycle_parking": "stands", "capacity": "2", "ref:GB:tflcid": "RWG238398"}}, {"type": "node", "id": 10281998552, "lat": 51.47359, "lon": -0.39793, "tags": {"amenity": "bicycle_parking", "capacity": "8", "ref:GB:tflcid": "RWG232385"}}, {"type": "node", "id": 10281998553, "lat": 51.4736427, "lon": -0.3984943, "tags": {"amenity": "bicycle_parking", "bicycle_parking": "stands", "capacity": "12", "ref:GB:tflcid": "RWG232386"}}, {"type": "node", "id": 10281998563, "lat": 51.5794315, "lon": -0.3993823, "tags": {"amenity": "bicycle_parking", "bicycle_parking": "stands", "capacity": "12", "ref:GB:tflcid": "RWG238414"}}, {"type": "node", "id": 10281998564, "lat": 51.5804817, "lon": -0.4003219, "tags": {"amenity": "bicycle_parking", "bicycle_parking": "stands", "capacity": "6", "ref:GB:tflcid": "RWG238415"}}, {"type": "node", "id": 10281998923, "lat": 51.5145114, "lon": -0.4304662, "tags": {"amenity": "bicycle_parking", "bicycle_parking": "stands", "capacity": "2", "ref:GB:tflcid": "RWG238493"}}, {"type": "node", "id": 10281998924, "lat": 51.5125881, "lon": -0.4318942, "tags": {"amenity": "bicycle_parking", "bicycle_parking": "stands", "capacity": "10", "ref:GB:tflcid": "RWG238185"}}, {"type": "node", "id": 10281998925, "lat": 51.5112628, "lon": -0.4320658, "tags": {"amenity": "bicycle_parking", "bicycle_parking": "stands", "capacity": "10", "ref:GB:tflcid": "RWG238132"}}, {"type": "node", "id": 10281998967, "lat": 51.5628834, "lon": -0.4128192, "tags": {"amenity": "bicycle_parking", "bicycle_parking": "stands", "capacity": "84", "covered": "yes", "ref:GB:tflcid": "RWG238445"}}, {"type": "node", "id": 10281998989, "lat": 51.5332883, "lon": -0.3858358, "tags": {"amenity": "bicycle_parking", "bicycle_parking": "stands", "capacity": "2", "ref:GB:tflcid": "RWG238452"}}, {"type": "node", "id": 10281998991, "lat": 51.527861, "lon": -0.3989357, "tags": {"amenity": "bicycle_parking", "bicycle_parking": "stands", "capacity": "4", "covered": "no", "ref:GB:tflcid": "RWG238488"}}, {"type": "node", "id": 10281999004, "lat": 51.4937749, "lon": -0.3997915, "tags": {"amenity": "bicycle_parking", "bicycle_parking": "stands", "capacity": "6", "ref:GB:tflcid": "RWG232865"}}, {"type": "node", "id": 10281999005, "lat": 51.493797, "lon": -0.3999033, "tags": {"amenity": "bicycle_parking", "bicycle_parking": "stands", "capacity": "8", "ref:GB:tflcid": "RWG232866"}}, {"type": "node", "id": 10281999054, "lat": 51.5150168, "lon": -0.4376739, "tags": {"amenity": "bicycle_parking", "bicycle_parking": "stands", "capacity": "4", "ref:GB:tflcid": "RWG238136"}}, {"type": "node", "id": 10282005161, "lat": 51.5288069, "lon": -0.3985598, "tags": {"amenity": "bicycle_parking", "bicycle_parking": "stands", "capacity": "2", "covered": "no", "ref:GB:tflcid": "RWG238503"}}, {"type": "node", "id": 10282005162, "lat": 51.5308377, "lon": -0.3974499, "tags": {"amenity": "bicycle_parking", "bicycle_parking": "stands", "capacity": "2", "ref:GB:tflcid": "RWG238500"}}, {"type": "node", "id": 10282005173, "lat": 51.495267, "lon": -0.3957443, "tags": {"amenity": "bicycle_parking", "bicycle_parking": "stands", "capacity": "4", "ref:GB:tflcid": "RWG232878"}}, {"type": "node", "id": 10282005818, "lat": 51.4833552, "lon": -0.4117391, "tags": {"amenity": "bicycle_parking", "bicycle_parking": "stands", "capacity": "2", "ref:GB:tflcid": "RWG233024"}}, {"type": "node", "id": 10282005819, "lat": 51.4833176, "lon": -0.4117733, "tags": {"amenity": "bicycle_parking", "bicycle_parking": "stands", "capacity": "2", "ref:GB:tflcid": "RWG233025"}}, {"type": "node", "id": 10282005820, "lat": 51.4832437, "lon": -0.4118205, "tags": {"amenity": "bicycle_parking", "bicycle_parking": "stands", "capacity": "2", "ref:GB:tflcid": "RWG233026"}}, {"type": "node", "id": 10282005841, "lat": 51.581577, "lon": -0.4073148, "tags": {"amenity": "bicycle_parking", "bicycle_parking": "upright_stands", "capacity": "10", "ref:GB:tflcid": "RWG238404"}}, {"type": "node", "id": 10282006032, "lat": 51.4536728, "lon": -0.3766351, "tags": {"amenity": "bicycle_parking", "bicycle_parking": "stands", "capacity": "4", "ref:GB:tflcid": "RWG233294"}}, {"type": "node", "id": 10282006116, "lat": 51.539628, "lon": -0.3851125, "tags": {"amenity": "bicycle_parking", "bicycle_parking": "stands", "capacity": "12", "ref:GB:tflcid": "RWG238403"}}, {"type": "node", "id": 10282006118, "lat": 51.5020955, "lon": -0.4664035, "tags": {"amenity": "bicycle_parking", "bicycle_parking": "stands", "capacity": "2", "ref:GB:tflcid": "RWG232460"}}, {"type": "node", "id": 10282006219, "lat": 51.5255866, "lon": -0.3817071, "tags": {"amenity": "bicycle_parking", "bicycle_parking": "stands", "capacity": "10", "ref:GB:tflcid": "RWG238523"}}, {"type": "node", "id": 10282006222, "lat": 51.4927685, "lon": -0.3832763, "tags": {"amenity": "bicycle_parking", "bicycle_parking": "stands", "capacity": "8", "covered": "yes", "ref:GB:tflcid": "RWG232772"}}, {"type": "node", "id": 10282006235, "lat": 51.4653917, "lon": -0.3983901, "tags": {"amenity": "bicycle_parking", "bicycle_parking": "stands", "capacity": "20", "covered": "yes", "ref:GB:tflcid": "RWG233081"}}, {"type": "node", "id": 10282006245, "lat": 51.4913141, "lon": -0.4146503, "tags": {"amenity": "bicycle_parking", "bicycle_parking": "stands", "capacity": "10", "ref:GB:tflcid": "RWG232599"}}, {"type": "node", "id": 10282006314, "lat": 51.5243252, "lon": -0.4268066, "tags": {"amenity": "bicycle_parking", "bicycle_parking": "stands", "capacity": "6", "ref:GB:tflcid": "RWG238496"}}, {"type": "node", "id": 10282006418, "lat": 51.495194, "lon": -0.3810422, "tags": {"amenity": "bicycle_parking", "bicycle_parking": "stands", "capacity": "10", "ref:GB:tflcid": "RWG232812"}}, {"type": "node", "id": 10282006433, "lat": 51.5171442, "lon": -0.3801124, "tags": {"amenity": "bicycle_parking", "bicycle_parking": "stands", "capacity": "16", "ref:GB:tflcid": "RWG238524"}}, {"type": "node", "id": 10282006444, "lat": 51.4801565, "lon": -0.4130811, "tags": {"amenity": "bicycle_parking", "bicycle_parking": "stands", "capacity": "6", "ref:GB:tflcid": "RWG233173"}}, {"type": "node", "id": 10282006446, "lat": 51.5301716, "lon": -0.4083085, "tags": {"amenity": "bicycle_parking", "bicycle_parking": "stands", "capacity": "8", "ref:GB:tflcid": "RWG292084"}}, {"type": "node", "id": 10282006457, "lat": 51.567914, "lon": -0.3955447, "tags": {"amenity": "bicycle_parking", "bicycle_parking": "stands", "capacity": "6", "ref:GB:tflcid": "RWG238266"}}, {"type": "node", "id": 10282006476, "lat": 51.5231205, "lon": -0.4223848, "tags": {"amenity": "bicycle_parking", "bicycle_parking": "stands", "capacity": "4", "ref:GB:tflcid": "RWG999283"}}, {"type": "node", "id": 10282006486, "lat": 51.45473, "lon": -0.4232752, "tags": {"amenity": "bicycle_parking", "bicycle_parking": "stands", "capacity": "4", "ref:GB:tflcid": "RWG233422"}}, {"type": "node", "id": 10282006511, "lat": 51.5526658, "lon": -0.3980214, "tags": {"amenity": "bicycle_parking", "bicycle_parking": "stands", "capacity": "2", "ref:GB:tflcid": "RWG238417"}}, {"type": "node", "id": 10282006517, "lat": 51.5526061, "lon": -0.3957806, "tags": {"amenity": "bicycle_parking", "bicycle_parking": "stands", "capacity": "6", "ref:GB:tflcid": "RWG238416"}}, {"type": "node", "id": 10282006523, "lat": 51.5884746, "lon": -0.4576048, "tags": {"amenity": "bicycle_parking", "bicycle_parking": "stands", "capacity": "2", "ref:GB:tflcid": "RWG238511"}}, {"type": "node", "id": 10282007331, "lat": 51.5274771, "lon": -0.3985093, "tags": {"amenity": "bicycle_parking", "bicycle_parking": "stands", "capacity": "2", "ref:GB:tflcid": "RWG238504"}}, {"type": "node", "id": 10282007332, "lat": 51.5219621, "lon": -0.3925563, "tags": {"amenity": "bicycle_parking", "bicycle_parking": "stands", "capacity": "10", "covered": "yes", "ref:GB:tflcid": "RWG238501"}}, {"type": "node", "id": 10282007506, "lat": 51.4694682, "lon": -0.377129, "tags": {"amenity": "bicycle_parking", "bicycle_parking": "stands", "capacity": "6", "ref:GB:tflcid": "RWG232487"}}, {"type": "node", "id": 10282007507, "lat": 51.4596683, "lon": -0.4152419, "tags": {"amenity": "bicycle_parking", "bicycle_parking": "stands", "capacity": "12", "ref:GB:tflcid": "RWG233254"}}, {"type": "node", "id": 10282007510, "lat": 51.5252074, "lon": -0.4352843, "tags": {"amenity": "bicycle_parking", "bicycle_parking": "stands", "capacity": "4", "ref:GB:tflcid": "RWG238494"}}, {"type": "node", "id": 10282007511, "lat": 51.5249175, "lon": -0.4315472, "tags": {"amenity": "bicycle_parking", "bicycle_parking": "stands", "capacity": "4", "ref:GB:tflcid": "RWG238499"}}, {"type": "node", "id": 10282007575, "lat": 51.4732983, "lon": -0.3875992, "tags": {"amenity": "bicycle_parking", "bicycle_parking": "stands", "capacity": "4", "ref:GB:tflcid": "RWG232097"}}, {"type": "node", "id": 10282007576, "lat": 51.4734393, "lon": -0.3879758, "tags": {"amenity": "bicycle_parking", "bicycle_parking": "stands", "capacity": "2", "ref:GB:tflcid": "RWG232095"}}, {"type": "node", "id": 10282007577, "lat": 51.4543326, "lon": -0.4041431, "tags": {"amenity": "bicycle_parking", "bicycle_parking": "stands", "capacity": "2", "ref:GB:tflcid": "RWG233401"}}, {"type": "node", "id": 10282007612, "lat": 51.5275728, "lon": -0.3984977, "tags": {"amenity": "bicycle_parking", "bicycle_parking": "stands", "capacity": "2", "ref:GB:tflcid": "RWG238365"}}, {"type": "node", "id": 10282007649, "lat": 51.4733115, "lon": -0.3876322, "tags": {"amenity": "bicycle_parking", "bicycle_parking": "stands", "capacity": "4", "ref:GB:tflcid": "RWG232096"}}, {"type": "node", "id": 10282007650, "lat": 51.4607937, "lon": -0.4088108, "tags": {"amenity": "bicycle_parking", "bicycle_parking": "stands", "capacity": "8", "covered": "yes", "ref:GB:tflcid": "RWG233243"}}, {"type": "node", "id": 10282007651, "lat": 51.4571683, "lon": -0.4117338, "tags": {"amenity": "bicycle_parking", "bicycle_parking": "stands", "capacity": "2", "ref:GB:tflcid": "RWG233249"}}, {"type": "node", "id": 10282007713, "lat": 51.5252179, "lon": -0.4354198, "tags": {"amenity": "bicycle_parking", "bicycle_parking": "stands", "capacity": "4", "ref:GB:tflcid": "RWG238495"}}, {"type": "node", "id": 10282007714, "lat": 51.5253209, "lon": -0.4336451, "tags": {"amenity": "bicycle_parking", "bicycle_parking": "stands", "capacity": "4", "ref:GB:tflcid": "RWG238498"}}, {"type": "node", "id": 10282007722, "lat": 51.5227113, "lon": -0.399725, "tags": {"amenity": "bicycle_parking", "bicycle_parking": "stands", "capacity": "2", "ref:GB:tflcid": "RWG238479"}}, {"type": "node", "id": 10282007723, "lat": 51.5211626, "lon": -0.3972828, "tags": {"amenity": "bicycle_parking", "bicycle_parking": "stands", "capacity": "2", "ref:GB:tflcid": "RWG238448"}}, {"type": "node", "id": 10282007736, "lat": 51.5732409, "lon": -0.423339, "tags": {"amenity": "bicycle_parking", "bicycle_parking": "stands", "capacity": "4", "ref:GB:tflcid": "RWG238419"}}, {"type": "node", "id": 10282007737, "lat": 51.5743704, "lon": -0.4248783, "tags": {"amenity": "bicycle_parking", "bicycle_parking": "stands", "capacity": "6", "ref:GB:tflcid": "RWG238421"}}, {"type": "node", "id": 10282007738, "lat": 51.5756953, "lon": -0.4259897, "tags": {"amenity": "bicycle_parking", "bicycle_parking": "stands", "capacity": "8", "covered": "no", "ref:GB:tflcid": "RWG238428"}}, {"type": "node", "id": 10282007739, "lat": 51.5753612, "lon": -0.4259353, "tags": {"amenity": "bicycle_parking", "bicycle_parking": "stands", "capacity": "4", "covered": "no", "ref:GB:tflcid": "RWG238432"}}, {"type": "node", "id": 10282007809, "lat": 51.5255117, "lon": -0.4348635, "tags": {"amenity": "bicycle_parking", "bicycle_parking": "stands", "capacity": "4", "ref:GB:tflcid": "RWG238497"}}, {"type": "node", "id": 10282007833, "lat": 51.5350115, "lon": -0.4272988, "tags": {"amenity": "bicycle_parking", "bicycle_parking": "wall_loops", "capacity": "3", "covered": "yes", "ref:GB:tflcid": "RWG238195"}}, {"type": "node", "id": 10282007834, "lat": 51.5318128, "lon": -0.4217183, "tags": {"amenity": "bicycle_parking", "bicycle_parking": "stands", "capacity": "6", "ref:GB:tflcid": "RWG238192"}}, {"type": "node", "id": 10282007841, "lat": 51.5220954, "lon": -0.3910764, "tags": {"amenity": "bicycle_parking", "bicycle_parking": "stands", "capacity": "10", "covered": "yes", "ref:GB:tflcid": "RWG238502"}}, {"type": "node", "id": 10282007845, "lat": 51.5180177, "lon": -0.4642149, "tags": {"amenity": "bicycle_parking", "bicycle_parking": "stands", "capacity": "2", "ref:GB:tflcid": "RWG238471"}}, {"type": "node", "id": 10282007855, "lat": 51.4987343, "lon": -0.4279405, "tags": {"amenity": "bicycle_parking", "bicycle_parking": "stands", "capacity": "2", "ref:GB:tflcid": "RWG238095"}}, {"type": "node", "id": 10282007931, "lat": 51.4736985, "lon": -0.3889573, "tags": {"amenity": "bicycle_parking", "bicycle_parking": "stands", "capacity": "10", "ref:GB:tflcid": "RWG232094"}}, {"type": "node", "id": 10282007938, "lat": 51.4758571, "lon": -0.3952009, "tags": {"amenity": "bicycle_parking", "bicycle_parking": "stands", "capacity": "10", "ref:GB:tflcid": "RWG232409"}}, {"type": "node", "id": 10282007982, "lat": 51.5100514, "lon": -0.4742669, "tags": {"amenity": "bicycle_parking", "bicycle_parking": "stands", "capacity": "4", "covered": "no", "ref:GB:tflcid": "RWG238104"}}, {"type": "node", "id": 10282007983, "lat": 51.5084403, "lon": -0.4735079, "tags": {"amenity": "bicycle_parking", "bicycle_parking": "stands", "capacity": "4", "ref:GB:tflcid": "RWG238103"}}, {"type": "node", "id": 10282008004, "lat": 51.5174949, "lon": -0.4634726, "tags": {"access": "yes", "amenity": "bicycle_parking", "bicycle_parking": "stands", "capacity": "3", "covered": "no", "fee": "no", "ref:GB:tflcid": "RWG238467"}}, {"type": "node", "id": 10282008349, "lat": 51.5350454, "lon": -0.4272351, "tags": {"amenity": "bicycle_parking", "bicycle_parking": "stands", "capacity": "4", "ref:GB:tflcid": "RWG238194"}}, {"type": "node", "id": 10282008359, "lat": 51.5268628, "lon": -0.4821727, "tags": {"amenity": "bicycle_parking", "bicycle_parking": "stands", "capacity": "4", "ref:GB:tflcid": "RWG238487"}}, {"type": "node", "id": 10282008360, "lat": 51.5372903, "lon": -0.4742923, "tags": {"amenity": "bicycle_parking", "bicycle_parking": "stands", "capacity": "2", "ref:GB:tflcid": "RWG238256"}}, {"type": "node", "id": 10282008385, "lat": 51.5916904, "lon": -0.3853705, "tags": {"amenity": "bicycle_parking", "bicycle_parking": "stands", "capacity": "4", "covered": "no", "ref:GB:tflcid": "RWG261254"}}, {"type": "node", "id": 10282008386, "lat": 51.582747, "lon": -0.386287, "tags": {"amenity": "bicycle_parking", "bicycle_parking": "stands", "capacity": "4", "ref:GB:tflcid": "RWG260988"}}, {"type": "node", "id": 10282008389, "lat": 51.5021424, "lon": -0.4310049, "tags": {"amenity": "bicycle_parking", "bicycle_parking": "stands", "capacity": "2", "ref:GB:tflcid": "RWG238509"}}, {"type": "node", "id": 10282008400, "lat": 51.5568171, "lon": -0.3792102, "tags": {"amenity": "bicycle_parking", "bicycle_parking": "stands", "capacity": "16", "ref:GB:tflcid": "RWG238453"}}, {"type": "node", "id": 10282008831, "lat": 51.5290795, "lon": -0.4404535, "tags": {"amenity": "bicycle_parking", "bicycle_parking": "wall_loops", "capacity": "6", "ref:GB:tflcid": "RWG238166"}}, {"type": "node", "id": 10282008834, "lat": 51.5152295, "lon": -0.3975948, "tags": {"amenity": "bicycle_parking", "bicycle_parking": "stands", "capacity": "2", "ref:GB:tflcid": "RWG238505"}}, {"type": "node", "id": 10282008836, "lat": 51.5256187, "lon": -0.4507229, "tags": {"amenity": "bicycle_parking", "bicycle_parking": "stands", "capacity": "8", "covered": "yes", "ref:GB:tflcid": "RWG238145"}}, {"type": "node", "id": 10282008862, "lat": 51.498025, "lon": -0.4143518, "tags": {"amenity": "bicycle_parking", "bicycle_parking": "stands", "capacity": "4", "ref:GB:tflcid": "RWG999281"}}, {"type": "node", "id": 10282009616, "lat": 51.4765229, "lon": -0.3943891, "tags": {"amenity": "bicycle_parking", "bicycle_parking": "stands", "capacity": "2", "ref:GB:tflcid": "RWG232529"}}, {"type": "node", "id": 10282009617, "lat": 51.4755611, "lon": -0.3970092, "tags": {"amenity": "bicycle_parking", "bicycle_parking": "stands", "capacity": "12", "ref:GB:tflcid": "RWG232125"}}, {"type": "node", "id": 10282009693, "lat": 51.535109, "lon": -0.4722037, "tags": {"amenity": "bicycle_parking", "bicycle_parking": "stands", "capacity": "4", "ref:GB:tflcid": "RWG238350"}}, {"type": "node", "id": 10282009694, "lat": 51.5353563, "lon": -0.4605268, "tags": {"amenity": "bicycle_parking", "bicycle_parking": "stands", "capacity": "4", "ref:GB:tflcid": "RWG238242"}}, {"type": "node", "id": 10282009703, "lat": 51.5329996, "lon": -0.4529728, "tags": {"amenity": "bicycle_parking", "bicycle_parking": "stands", "capacity": "2", "ref:GB:tflcid": "RWG238260"}}, {"type": "node", "id": 10282010061, "lat": 51.6100967, "lon": -0.3767802, "tags": {"amenity": "bicycle_parking", "bicycle_parking": "stands", "capacity": "4", "ref:GB:tflcid": "RWG260304"}}, {"type": "node", "id": 10282010422, "lat": 51.527156, "lon": -0.385237, "tags": {"amenity": "bicycle_parking", "bicycle_parking": "stands", "capacity": "2", "ref:GB:tflcid": "RWG238273"}}, {"type": "node", "id": 10282010435, "lat": 51.5350628, "lon": -0.4055188, "tags": {"amenity": "bicycle_parking", "bicycle_parking": "stands", "capacity": "2", "ref:GB:tflcid": "RWG238217"}}, {"type": "node", "id": 10282010459, "lat": 51.5319616, "lon": -0.4053402, "tags": {"amenity": "bicycle_parking", "bicycle_parking": "wall_loops", "capacity": "6", "ref:GB:tflcid": "RWG238221"}}, {"type": "node", "id": 10282010466, "lat": 51.5333142, "lon": -0.4537378, "tags": {"amenity": "bicycle_parking", "bicycle_parking": "stands", "capacity": "2", "ref:GB:tflcid": "RWG238262"}}, {"type": "node", "id": 10282010476, "lat": 51.522069, "lon": -0.4462649, "tags": {"amenity": "bicycle_parking", "bicycle_parking": "stands", "capacity": "4", "ref:GB:tflcid": "RWG238144"}}, {"type": "node", "id": 10282010506, "lat": 51.5125452, "lon": -0.3862152, "tags": {"amenity": "bicycle_parking", "bicycle_parking": "stands", "capacity": "2", "ref:GB:tflcid": "RWG238520"}}, {"type": "node", "id": 10282013826, "lat": 51.5571118, "lon": -0.3814975, "tags": {"amenity": "bicycle_parking", "bicycle_parking": "stands", "capacity": "12", "ref:GB:tflcid": "RWG238454"}}, {"type": "node", "id": 10282013828, "lat": 51.5354328, "lon": -0.4054101, "tags": {"amenity": "bicycle_parking", "bicycle_parking": "stands", "capacity": "8", "ref:GB:tflcid": "RWG238218"}}, {"type": "node", "id": 10282013844, "lat": 51.5282587, "lon": -0.4396672, "tags": {"amenity": "bicycle_parking", "bicycle_parking": "stands", "capacity": "26", "covered": "yes", "ref:GB:tflcid": "RWG238165"}}, {"type": "node", "id": 10282013864, "lat": 51.5865912, "lon": -0.3792349, "tags": {"amenity": "bicycle_parking", "bicycle_parking": "stands", "capacity": "4", "ref:GB:tflcid": "RWG260834"}}, {"type": "node", "id": 10282015713, "lat": 51.6043727, "lon": -0.411752, "tags": {"amenity": "bicycle_parking", "bicycle_parking": "stands", "capacity": "8", "covered": "yes", "ref:GB:tflcid": "RWG238285"}}, {"type": "node", "id": 10282015731, "lat": 51.6063435, "lon": -0.4022329, "tags": {"amenity": "bicycle_parking", "bicycle_parking": "stands", "capacity": "2", "covered": "no", "ref:GB:tflcid": "RWG238290"}}, {"type": "node", "id": 10282015738, "lat": 51.4985347, "lon": -0.4081087, "tags": {"amenity": "bicycle_parking", "bicycle_parking": "stands", "capacity": "6", "ref:GB:tflcid": "RWG232694"}}, {"type": "node", "id": 10282015749, "lat": 51.5444016, "lon": -0.4396734, "tags": {"amenity": "bicycle_parking", "bicycle_parking": "stands", "capacity": "6", "ref:GB:tflcid": "RWG292082"}}, {"type": "node", "id": 10282015755, "lat": 51.4709742, "lon": -0.3878095, "tags": {"amenity": "bicycle_parking", "bicycle_parking": "stands", "capacity": "6", "ref:GB:tflcid": "RWG232425"}}, {"type": "node", "id": 10282015817, "lat": 51.5045347, "lon": -0.3794539, "tags": {"amenity": "bicycle_parking", "bicycle_parking": "post_hoop", "capacity": "2", "ref:GB:tflcid": "RWG238320"}}, {"type": "node", "id": 10282015820, "lat": 51.5015218, "lon": -0.465978, "tags": {"amenity": "bicycle_parking", "bicycle_parking": "stands", "capacity": "1", "ref:GB:tflcid": "RWG232451"}}, {"type": "node", "id": 10282016909, "lat": 51.5607713, "lon": -0.4112204, "tags": {"amenity": "bicycle_parking", "bicycle_parking": "stands", "capacity": "10", "ref:GB:tflcid": "RWG238347"}}, {"type": "node", "id": 10282016945, "lat": 51.5487138, "lon": -0.3852678, "tags": {"amenity": "bicycle_parking", "bicycle_parking": "stands", "capacity": "8", "ref:GB:tflcid": "RWG238450"}}, {"type": "node", "id": 10282016946, "lat": 51.5490886, "lon": -0.3842431, "tags": {"amenity": "bicycle_parking", "bicycle_parking": "stands", "capacity": "12", "ref:GB:tflcid": "RWG238449"}}, {"type": "node", "id": 10282016947, "lat": 51.5504648, "lon": -0.3788952, "tags": {"amenity": "bicycle_parking", "bicycle_parking": "stands", "capacity": "16", "covered": "yes", "ref:GB:tflcid": "RWG238481"}}, {"type": "node", "id": 10282016951, "lat": 51.5350175, "lon": -0.3943854, "tags": {"amenity": "bicycle_parking", "bicycle_parking": "stands", "capacity": "4", "covered": "no", "ref:GB:tflcid": "RWG238223"}}, {"type": "node", "id": 10282016960, "lat": 51.5040885, "lon": -0.3798442, "tags": {"amenity": "bicycle_parking", "bicycle_parking": "stands", "capacity": "2", "ref:GB:tflcid": "RWG238316"}}, {"type": "node", "id": 10282016961, "lat": 51.5042356, "lon": -0.3797667, "tags": {"amenity": "bicycle_parking", "bicycle_parking": "stands", "capacity": "2", "ref:GB:tflcid": "RWG238318"}}, {"type": "node", "id": 10282018112, "lat": 51.5021484, "lon": -0.4664554, "tags": {"amenity": "bicycle_parking", "bicycle_parking": "stands", "capacity": "2", "ref:GB:tflcid": "RWG232462"}}, {"type": "node", "id": 10282020509, "lat": 51.5602969, "lon": -0.3995741, "tags": {"amenity": "bicycle_parking", "bicycle_parking": "stands", "capacity": "4", "ref:GB:tflcid": "RWG238296"}}, {"type": "node", "id": 10282020510, "lat": 51.5600285, "lon": -0.4012465, "tags": {"amenity": "bicycle_parking", "bicycle_parking": "stands", "capacity": "14", "ref:GB:tflcid": "RWG238298"}}, {"type": "node", "id": 10282021810, "lat": 51.5292447, "lon": -0.3780495, "tags": {"amenity": "bicycle_parking", "capacity": "2", "ref:GB:tflcid": "RWG238339"}}, {"type": "node", "id": 10282021811, "lat": 51.5294442, "lon": -0.377835, "tags": {"amenity": "bicycle_parking", "capacity": "2", "ref:GB:tflcid": "RWG238338"}}, {"type": "node", "id": 10282021818, "lat": 51.5335172, "lon": -0.4154288, "tags": {"amenity": "bicycle_parking", "bicycle_parking": "stands", "capacity": "16", "ref:GB:tflcid": "RWG238213"}}, {"type": "node", "id": 10282021819, "lat": 51.5333583, "lon": -0.4153485, "tags": {"amenity": "bicycle_parking", "bicycle_parking": "stands", "capacity": "10", "covered": "yes", "ref:GB:tflcid": "RWG238212"}}, {"type": "node", "id": 10282021836, "lat": 51.4924602, "lon": -0.3823923, "tags": {"amenity": "bicycle_parking", "bicycle_parking": "stands", "capacity": "30", "covered": "yes", "ref:GB:tflcid": "RWG232776"}}, {"type": "node", "id": 10282021837, "lat": 51.4914689, "lon": -0.3814864, "tags": {"amenity": "bicycle_parking", "bicycle_parking": "stands", "capacity": "4", "ref:GB:tflcid": "RWG232844"}}, {"type": "node", "id": 10282024110, "lat": 51.5905046, "lon": -0.4123536, "tags": {"amenity": "bicycle_parking", "bicycle_parking": "stands", "capacity": "6", "ref:GB:tflcid": "RWG238287"}}, {"type": "node", "id": 10282024111, "lat": 51.5869, "lon": -0.4032169, "tags": {"amenity": "bicycle_parking", "bicycle_parking": "stands", "capacity": "10", "covered": "no", "ref:GB:tflcid": "RWG238431"}}, {"type": "node", "id": 10282027011, "lat": 51.5695993, "lon": -0.4365046, "tags": {"amenity": "bicycle_parking", "bicycle_parking": "stands", "capacity": "6", "ref:GB:tflcid": "RWG238345"}}, {"type": "node", "id": 10282027012, "lat": 51.5150734, "lon": -0.3959265, "tags": {"amenity": "bicycle_parking", "bicycle_parking": "stands", "capacity": "4", "ref:GB:tflcid": "RWG238480"}}, {"type": "node", "id": 10282027026, "lat": 51.5528233, "lon": -0.4673685, "tags": {"amenity": "bicycle_parking", "bicycle_parking": "stands", "capacity": "64", "ref:GB:tflcid": "RWG292085"}}, {"type": "node", "id": 10282027031, "lat": 51.5223799, "lon": -0.4812212, "tags": {"amenity": "bicycle_parking", "bicycle_parking": "stands", "capacity": "6", "ref:GB:tflcid": "RWG238485"}}, {"type": "node", "id": 10282027040, "lat": 51.6011359, "lon": -0.3941931, "tags": {"amenity": "bicycle_parking", "bicycle_parking": "stands", "capacity": "4", "ref:GB:tflcid": "RWG260319"}}, {"type": "node", "id": 10282034410, "lat": 51.5488584, "lon": -0.4384409, "tags": {"amenity": "bicycle_parking", "bicycle_parking": "stands", "capacity": "6", "ref:GB:tflcid": "RWG238346"}}, {"type": "node", "id": 10830901843, "lat": 51.5095504, "lon": -0.3764158, "tags": {"amenity": "bicycle_parking", "bicycle_parking": "stands", "capacity": "12"}}, {"type": "node", "id": 11169984721, "lat": 51.5134296, "lon": -0.4723955, "tags": {"amenity": "bicycle_parking", "bicycle_parking": "stands", "capacity": "4", "covered": "no"}}, {"type": "node", "id": 11215198164, "lat": 51.4666014, "lon": -0.4239495, "tags": {"amenity": "bicycle_parking", "bicycle_parking": "shed"}}, {"type": "node", "id": 11229119672, "lat": 51.4736845, "lon": -0.3889068, "tags": {"amenity": "bicycle_parking", "bicycle_parking": "stands", "capacity": "10", "ref:GB:tflcid": "RWG232094"}}, {"type": "node", "id": 11365279140, "lat": 51.500646, "lon": -0.3826198, "tags": {"access": "private", "amenity": "bicycle_parking", "bicycle_parking": "shed", "capacity": "6", "covered": "yes", "operator": "cyclehoop", "ref": "Bikehangar 4534"}}, {"type": "node", "id": 11419068716, "lat": 51.6283886, "lon": -0.3835518, "tags": {"access": "yes", "amenity": "bicycle_parking", "bicycle_parking": "stands", "capacity": "4", "covered": "no"}}, {"type": "node", "id": 11419126056, "lat": 51.6280062, "lon": -0.3831953, "tags": {"access": "yes", "amenity": "bicycle_parking", "bicycle_parking": "stands", "capacity": "14", "covered": "no"}}, {"type": "node", "id": 11419135008, "lat": 51.6285354, "lon": -0.383324, "tags": {"access": "yes", "amenity": "bicycle_parking", "bicycle_parking": "stands", "capacity": "4", "covered": "no"}}, {"type": "node", "id": 11434865678, "lat": 51.5064718, "lon": -0.3892161, "tags": {"access": "yes", "amenity": "bicycle_parking", "bicycle_parking": "stands", "capacity": "8", "covered": "no"}}, {"type": "node", "id": 11434865679, "lat": 51.506189, "lon": -0.3893404, "tags": {"amenity": "bicycle_parking", "bicycle_parking": "stands", "capacity": "10"}}, {"type": "node", "id": 11436104863, "lat": 51.5074086, "lon": -0.3855112, "tags": {"access": "yes", "amenity": "bicycle_parking", "bicycle_parking": "stands", "capacity": "8", "covered": "no"}}, {"type": "node", "id": 11436104864, "lat": 51.507639, "lon": -0.3875282, "tags": {"access": "yes", "amenity": "bicycle_parking", "bicycle_parking": "stands", "capacity": "8", "covered": "no"}}, {"type": "node", "id": 11697582991, "lat": 51.5930424, "lon": -0.431091, "tags": {"access": "yes", "amenity": "bicycle_parking", "bicycle_parking": "stands", "capacity": "20", "covered": "no", "fee": "no"}}, {"type": "node", "id": 11816964010, "lat": 51.5414478, "lon": -0.4676745, "tags": {"amenity": "bicycle_parking"}}, {"type": "node", "id": 11870111500, "lat": 51.5043968, "lon": -0.4589342, "tags": {"access": "yes", "amenity": "bicycle_parking", "bicycle_parking": "stands", "covered": "no", "fee": "no"}}, {"type": "node", "id": 11880564420, "lat": 51.5089352, "lon": -0.4521368, "tags": {"access": "private", "amenity": "bicycle_parking", "bicycle_parking": "shed", "covered": "yes"}}, {"type": "node", "id": 11880564435, "lat": 51.5110818, "lon": -0.4506015, "tags": {"access": "private", "amenity": "bicycle_parking", "bicycle_parking": "shed", "covered": "yes"}}, {"type": "node", "id": 11881143177, "lat": 51.5883295, "lon": -0.4300752, "tags": {"amenity": "bicycle_parking", "capacity": "12", "covered": "no"}}, {"type": "node", "id": 12563515588, "lat": 51.5168544, "lon": -0.4776162, "tags": {"amenity": "bicycle_parking"}}, {"type": "node", "id": 12563515592, "lat": 51.5164171, "lon": -0.4773031, "tags": {"access": "yes", "amenity": "bicycle_parking", "bicycle_parking": "shed", "covered": "yes", "fee": "no"}}, {"type": "node", "id": 12770030006, "lat": 51.5054344, "lon": -0.3788655, "tags": {"access": "yes", "amenity": "bicycle_parking", "bicycle_parking": "stands", "capacity": "4", "covered": "no", "operator:type": "public"}}, {"type": "node", "id": 13073984143, "lat": 51.5076102, "lon": -0.3808913, "tags": {"access": "yes", "amenity": "bicycle_parking", "bicycle_parking": "stands", "capacity": "32", "covered": "no", "fee": "no"}}, {"type": "node", "id": 13115822254, "lat": 51.5125584, "lon": -0.3838642, "tags": {"access": "private", "amenity": "bicycle_parking", "bicycle_parking": "shed", "capacity": "6", "covered": "yes", "operator": "Falco", "operator:type": "private", "ref": "569"}}, {"type": "node", "id": 13176704638, "lat": 51.5512605, "lon": -0.3823193, "tags": {"access": "customers", "amenity": "bicycle_parking", "bicycle_parking": "stands", "capacity": "16", "covered": "no", "fee": "no"}}, {"type": "node", "id": 13249496798, "lat": 51.5405156, "lon": -0.3762083, "tags": {"access": "yes", "amenity": "bicycle_parking", "bicycle_parking": "stands", "capacity": "4", "covered": "no", "fee": "no"}}, {"type": "way", "id": 814745935, "center": {"lat": 51.4806568, "lon": -0.4428454}, "nodes": [7610306020, 7610306018, 7610306019, 7610306021, 7610306020], "tags": {"access": "yes", "amenity": "bicycle_parking", "capacity": "174", "covered": "yes", "name": "Heathrow Cycle Hub", "note": "Secure:120   Lockers: 20  Racks:34  Free bus to Terminals 1,2,3", "operator": "Heathrow Airport", "website": "https://www.heathrow.com/transport-and-directions/cycling"}}, {"type": "way", "id": 995000072, "center": {"lat": 51.5496998, "lon": -0.4735793}, "nodes": [9188128137, 9188128138, 9188128139, 9188128140, 9188128137], "tags": {"access": "permit", "amenity": "bicycle_parking", "bicycle_parking": "shed", "building": "yes", "covered": "yes"}}, {"type": "way", "id": 1049398914, "center": {"lat": 51.4804302, "lon": -0.4671863}, "nodes": [9643830391, 9643830388, 9643830392, 9643830393, 9643830391], "tags": {"access": "private", "amenity": "bicycle_parking", "bicycle_parking": "shed", "building": "yes"}}, {"type": "way", "id": 1095009814, "center": {"lat": 51.5565335, "lon": -0.4188897}, "nodes": [10028224585, 10028224586, 10028224587, 10028224588, 10028224585], "tags": {"access": "no", "amenity": "bicycle_parking", "bicycle_parking": "shed", "building": "yes"}}, {"type": "way", "id": 1095026759, "center": {"lat": 51.5561868, "lon": -0.4189311}, "nodes": [10028388009, 10028388010, 10028388011, 10028388012, 10028388009], "tags": {"access": "no", "amenity": "bicycle_parking", "bicycle_parking": "shed", "building": "yes"}}, {"type": "way", "id": 1095026760, "center": {"lat": 51.5566481, "lon": -0.4181128}, "nodes": [10028388013, 10028388014, 10028388015, 10028388016, 10028388013], "tags": {"access": "no", "amenity": "bicycle_parking", "bicycle_parking": "shed", "building": "yes"}}, {"type": "way", "id": 1095240874, "center": {"lat": 51.5579125, "lon": -0.4149908}, "nodes": [10030316674, 10030316675, 10030316676, 10030316677, 10030316674], "tags": {"access": "no", "amenity": "bicycle_parking", "bicycle_parking": "shed", "building": "yes"}}, {"type": "way", "id": 1095240875, "center": {"lat": 51.5579762, "lon": -0.4144261}, "nodes": [10030316678, 10030316679, 10030316680, 10030316681, 10030316678], "tags": {"access": "no", "amenity": "bicycle_parking", "bicycle_parking": "shed", "building": "yes"}}, {"type": "way", "id": 1095240876, "center": {"lat": 51.5581792, "lon": -0.4136167}, "nodes": [10030316682, 10030316683, 10030316684, 10030316685, 10030316682], "tags": {"access": "no", "amenity": "bicycle_parking", "bicycle_parking": "shed", "building": "yes"}}, {"type": "way", "id": 1095240877, "center": {"lat": 51.5581052, "lon": -0.4135395}, "nodes": [10030316686, 10030316687, 10030316688, 10030316689, 10030316686], "tags": {"access": "no", "amenity": "bicycle_parking", "bicycle_parking": "shed", "building": "yes"}}, {"type": "way", "id": 1095372659, "center": {"lat": 51.5579712, "lon": -0.4096348}, "nodes": [10031450119, 10031450120, 10031450123, 10031450121, 10031450122, 10031450124, 10031450119], "tags": {"access": "no", "amenity": "bicycle_parking", "bicycle_parking": "shed", "building": "yes"}}, {"type": "way", "id": 1095740564, "center": {"lat": 51.5571884, "lon": -0.4143134}, "nodes": [10035084911, 10035084912, 10035084913, 10035084914, 10035084911], "tags": {"access": "no", "amenity": "bicycle_parking", "bicycle_parking": "shed", "building": "yes"}}, {"type": "way", "id": 1095740565, "center": {"lat": 51.557147, "lon": -0.4142874}, "nodes": [10035084915, 10035084916, 10035084917, 10035084918, 10035084915], "tags": {"access": "no", "amenity": "bicycle_parking", "bicycle_parking": "shed", "building": "yes"}}, {"type": "way", "id": 1096096737, "center": {"lat": 51.5579265, "lon": -0.4121656}, "nodes": [10037842546, 10037842547, 10037842548, 10037842549, 10037842546], "tags": {"access": "no", "amenity": "bicycle_parking", "bicycle_parking": "shed", "building": "yes"}}, {"type": "way", "id": 1096141506, "center": {"lat": 51.5569309, "lon": -0.4096009}, "nodes": [10038132139, 10038132140, 10038132141, 10038132142, 10038132139], "tags": {"access": "no", "amenity": "bicycle_parking", "bicycle_parking": "shed", "building": "yes"}}, {"type": "way", "id": 1205191014, "center": {"lat": 51.4821137, "lon": -0.4672932}, "nodes": [11169428632, 11169428633, 11169428634, 11169428635, 11169428632], "tags": {"access": "private", "amenity": "bicycle_parking", "bicycle_parking": "shed", "building": "yes"}}, {"type": "way", "id": 1207905960, "center": {"lat": 51.4816955, "lon": -0.4668726}, "nodes": [11191893136, 11191893737, 11191893738, 11191893739, 11191893136], "tags": {"amenity": "bicycle_parking", "bicycle_parking": "shed", "building": "yes"}}, {"type": "way", "id": 1348515401, "center": {"lat": 51.6174051, "lon": -0.4090332}, "nodes": [12473808748, 12473808749, 12473808750, 12473808751, 12473808748], "tags": {"access": "no", "amenity": "bicycle_parking", "bicycle_parking": "shed", "building": "yes"}}, {"type": "way", "id": 1379257654, "center": {"lat": 51.5053129, "lon": -0.3787424}, "nodes": [3759551633, 443118917, 12791375079, 12771660347, 12771660348, 12771660349, 12771660350, 12771660351, 12771660352, 12771660354, 3759551633], "tags": {"access": "yes", "amenity": "bicycle_parking", "bicycle_parking": "stands", "capacity": "68", "covered": "yes", "operator:type": "public"}}, {"type": "way", "id": 1425242207, "center": {"lat": 51.476313, "lon": -0.4257336}, "nodes": [13100055184, 13100055185, 13100055186, 13100055187, 13100055184], "tags": {"access": "customers", "amenity": "bicycle_parking", "bicycle_parking": "shed", "building": "yes"}}, {"type": "way", "id": 1425242208, "center": {"lat": 51.4763642, "lon": -0.4257588}, "nodes": [13100055188, 13100055189, 13100055190, 13100055191, 13100055188], "tags": {"access": "customers", "amenity": "bicycle_parking", "bicycle_parking": "shed", "building": "yes"}}, {"type": "way", "id": 1425242209, "center": {"lat": 51.4763205, "lon": -0.4258251}, "nodes": [13100055192, 13100055193, 13100055194, 13100055195, 13100055192], "tags": {"access": "customers", "amenity": "bicycle_parking", "bicycle_parking": "shed", "building": "yes"}}, {"type": "way", "id": 1425242210, "center": {"lat": 51.4763241, "lon": -0.4258817}, "nodes": [13100055196, 13100055197, 13100055198, 13100055199, 13100055196], "tags": {"access": "customers", "amenity": "bicycle_parking", "bicycle_parking": "shed", "building": "yes"}}, {"type": "way", "id": 1471813585, "center": {"lat": 51.5807546, "lon": -0.387941}, "nodes": [13505367322, 13505367323, 13505367324, 13505367325, 13505367322], "tags": {"access": "private", "amenity": "bicycle_parking", "bicycle_parking": "shed", "building": "shed", "operator": "Cannon Lane Primary School", "operator:type": "school"}}, {"type": "way", "id": 1472411816, "center": {"lat": 51.5794677, "lon": -0.3874555}, "nodes": [13509888651, 13509888652, 13509888653, 13509888654, 13509888651], "tags": {"access": "private", "amenity": "bicycle_parking", "bicycle_parking": "shed", "building": "hut", "covered": "yes", "fee": "no", "operator": "Pinner High School", "operator:type": "school"}}, {"type": "way", "id": 1472834494, "center": {"lat": 51.5795351, "lon": -0.3876852}, "nodes": [13513281687, 13513281688, 13513281689, 13513281690, 13513281687], "tags": {"access": "private", "amenity": "bicycle_parking", "bicycle_parking": "stands", "capacity": "16", "covered": "no", "fee": "no", "operator": "Pinner High School", "operator:type": "school"}}]}