{"version": 0.6, "generator": "Overpass API 0.7.62.10 2d4cfc48", "osm3s": {"timestamp_osm_base": "2026-02-19T13:40:15Z", "copyright": "The data included in this document is from www.openstreetmap.org. The data is made available under ODbL."}, "elements": [{"type": "node", "id": 223659526, "lat": 51.4040574, "lon": -0.2570905, "tags": {"amenity": "bicycle_parking", "bicycle_parking": "stands", "capacity": "25", "covered": "no"}}, {"type": "node", "id": 258893205, "lat": 51.4096575, "lon": -0.3050996, "tags": {"amenity": "bicycle_parking", "capacity": "13"}}, {"type": "node", "id": 258893672, "lat": 51.4108961, "lon": -0.3053814, "tags": {"amenity": "bicycle_parking", "bicycle_parking": "stands", "capacity": "10", "covered": "no", "created_by": "Potlatch 0.8a", "mapillary": "158651662880836", "survey:date": "2021-04-03"}}, {"type": "node", "id": 258893908, "lat": 51.4109613, "lon": -0.3056608, "tags": {"amenity": "bicycle_parking", "bicycle_parking": "stands", "capacity": "10", "covered": "no", "mapillary": "942919889880069", "survey:date": "2021-04-03"}}, {"type": "node", "id": 258893966, "lat": 51.4110621, "lon": -0.3055874, "tags": {"amenity": "bicycle_parking", "bicycle_parking": "stands", "capacity": "8", "covered": "no", "created_by": "Potlatch 0.8a", "mapillary": "330631025310750", "survey:date": "2021-04-03"}}, {"type": "node", "id": 258894066, "lat": 51.4107625, "lon": -0.3056653, "tags": {"amenity": "bicycle_parking", "bicycle_parking": "stands", "capacity": "50", "covered": "no", "mapillary": "164435682299176", "survey:date": "2021-04-03"}}, {"type": "node", "id": 258894216, "lat": 51.4110307, "lon": -0.3072799, "tags": {"access": "yes", "amenity": "bicycle_parking", "bicycle_parking": "stands", "capacity": "60", "covered": "no", "mapillary": "749387055666558", "survey:date": "2021-04-03"}}, {"type": "node", "id": 258894570, "lat": 51.4111086, "lon": -0.3067567, "tags": {"amenity": "bicycle_parking", "bicycle_parking": "stands", "capacity": "35", "covered": "no", "mapillary": "502289691192116", "survey:date": "2021-04-03"}}, {"type": "node", "id": 266702756, "lat": 51.3633773, "lon": -0.2480174, "tags": {"amenity": "bicycle_parking", "created_by": "JOSM", "source": "photo"}}, {"type": "node", "id": 266703492, "lat": 51.3780841, "lon": -0.2416942, "tags": {"amenity": "bicycle_parking", "source": "local knowledge"}}, {"type": "node", "id": 266862240, "lat": 51.378395, "lon": -0.2407853, "tags": {"amenity": "bicycle_parking", "bicycle_parking": "stands", "capacity": "3", "covered": "no"}}, {"type": "node", "id": 266890501, "lat": 51.377348, "lon": -0.2389691, "tags": {"amenity": "bicycle_parking", "bicycle_parking": "stands", "capacity": "2", "covered": "no"}}, {"type": "node", "id": 266890506, "lat": 51.378599, "lon": -0.2415465, "tags": {"amenity": "bicycle_parking", "bicycle_parking": "stands", "capacity": "6", "covered": "no"}}, {"type": "node", "id": 266890507, "lat": 51.378435, "lon": -0.2393005, "tags": {"amenity": "bicycle_parking", "bicycle_parking": "stands", "capacity": "2", "covered": "no"}}, {"type": "node", "id": 291865373, "lat": 51.3849041, "lon": -0.2946044, "tags": {"amenity": "bicycle_parking", "bicycle_parking": "stands", "capacity": "6", "covered": "no"}}, {"type": "node", "id": 291865580, "lat": 51.3823375, "lon": -0.2860544, "tags": {"amenity": "bicycle_parking", "created_by": "Potlatch 0.10b"}}, {"type": "node", "id": 293702015, "lat": 51.3931246, "lon": -0.2950417, "tags": {"access": "yes", "amenity": "bicycle_parking", "bicycle_parking": "stands", "capacity": "12", "covered": "no", "fee": "no", "operator:type": "public"}}, {"type": "node", "id": 370093891, "lat": 51.3886718, "lon": -0.3267052, "tags": {"amenity": "bicycle_parking", "bicycle_parking": "stands", "capacity": "4", "covered": "no", "mapillary": "825681748040232", "survey:date": "2020-12-07"}}, {"type": "node", "id": 379422450, "lat": 51.3985755, "lon": -0.2800203, "tags": {"amenity": "bicycle_parking", "bicycle_parking": "stands", "capacity": "6", "covered": "no"}}, {"type": "node", "id": 379422464, "lat": 51.3990116, "lon": -0.2801984, "tags": {"access": "yes", "amenity": "bicycle_parking", "bicycle_parking": "stands", "capacity": "22", "covered": "no"}}, {"type": "node", "id": 379422481, "lat": 51.4070364, "lon": -0.3045211, "tags": {"amenity": "bicycle_parking", "bicycle_parking": "stands", "capacity": "46", "covered": "no"}}, {"type": "node", "id": 432693161, "lat": 51.427296, "lon": -0.3294074, "tags": {"amenity": "bicycle_parking", "capacity": "2"}}, {"type": "node", "id": 432693162, "lat": 51.427308, "lon": -0.3291103, "tags": {"amenity": "bicycle_parking", "bicycle_parking": "stands", "capacity": "4", "check_date": "2023-03-04", "covered": "no"}}, {"type": "node", "id": 432693163, "lat": 51.42732, "lon": -0.3289393, "tags": {"amenity": "bicycle_parking", "bicycle_parking": "stands", "capacity": "2", "check_date": "2023-03-04", "covered": "no"}}, {"type": "node", "id": 432693164, "lat": 51.4275009, "lon": -0.3270064, "tags": {"amenity": "bicycle_parking", "bicycle_parking": "stands", "capacity": "4", "covered": "no"}}, {"type": "node", "id": 506391471, "lat": 51.4113995, "lon": -0.3114144, "tags": {"amenity": "bicycle_parking", "bicycle_parking": "stands", "capacity": "4", "covered": "no"}}, {"type": "node", "id": 506391484, "lat": 51.4259032, "lon": -0.2757727, "tags": {"access": "yes", "amenity": "bicycle_parking", "capacity": "2", "covered": "no", "fee": "no", "indoor": "no", "note": "overgrown"}}, {"type": "node", "id": 589025966, "lat": 51.3625661, "lon": -0.2768396, "tags": {"amenity": "bicycle_parking", "bicycle_parking": "stands", "capacity": "8", "covered": "no"}}, {"type": "node", "id": 804478891, "lat": 51.4036613, "lon": -0.3029197, "tags": {"amenity": "bicycle_parking", "capacity": "10", "covered": "yes"}}, {"type": "node", "id": 804478986, "lat": 51.4037304, "lon": -0.3028609, "tags": {"amenity": "bicycle_parking", "capacity": "24"}}, {"type": "node", "id": 804479124, "lat": 51.4036899, "lon": -0.3028252, "tags": {"amenity": "bicycle_parking", "capacity": "48"}}, {"type": "node", "id": 804479202, "lat": 51.4037328, "lon": -0.3027901, "tags": {"amenity": "bicycle_parking", "capacity": "22"}}, {"type": "node", "id": 804479609, "lat": 51.4036848, "lon": -0.3028969, "tags": {"amenity": "bicycle_parking", "capacity": "24"}}, {"type": "node", "id": 1587217764, "lat": 51.341401, "lon": -0.2572246, "tags": {"amenity": "bicycle_parking", "check_date": "2024-12-06", "covered": "yes"}}, {"type": "node", "id": 2461466157, "lat": 51.3638928, "lon": -0.3006561, "tags": {"amenity": "bicycle_parking", "capacity": "3"}}, {"type": "node", "id": 2461466164, "lat": 51.3645765, "lon": -0.298368, "tags": {"amenity": "bicycle_parking", "capacity": "8", "covered": "no"}}, {"type": "node", "id": 2461466168, "lat": 51.3637794, "lon": -0.299221, "tags": {"amenity": "bicycle_parking"}}, {"type": "node", "id": 2461469311, "lat": 51.4045021, "lon": -0.3046307, "tags": {"access": "no", "amenity": "bicycle_parking", "capacity": "4"}}, {"type": "node", "id": 2461469312, "lat": 51.4017586, "lon": -0.3045956, "tags": {"amenity": "bicycle_parking"}}, {"type": "node", "id": 2461469313, "lat": 51.4044419, "lon": -0.3059611, "tags": {"amenity": "bicycle_parking", "capacity": "12"}}, {"type": "node", "id": 2461470658, "lat": 51.3678341, "lon": -0.3058511, "tags": {"amenity": "bicycle_parking", "capacity": "5", "covered": "no"}}, {"type": "node", "id": 2461470659, "lat": 51.3675561, "lon": -0.3058109, "tags": {"amenity": "bicycle_parking", "capacity": "4"}}, {"type": "node", "id": 2503123244, "lat": 51.4100266, "lon": -0.3068802, "tags": {"amenity": "bicycle_parking", "capacity": "8"}}, {"type": "node", "id": 2518357959, "lat": 51.332863, "lon": -0.2701571, "tags": {"amenity": "bicycle_parking", "bicycle_parking": "stands", "capacity": "12"}}, {"type": "node", "id": 2518792043, "lat": 51.3342391, "lon": -0.2627793, "tags": {"amenity": "bicycle_parking", "bicycle_parking": "stands", "capacity": "6"}}, {"type": "node", "id": 2518795492, "lat": 51.3331507, "lon": -0.2687776, "tags": {"amenity": "bicycle_parking", "bicycle_parking": "stands", "capacity": "12"}}, {"type": "node", "id": 2525230683, "lat": 51.3405343, "lon": -0.2579354, "tags": {"amenity": "bicycle_parking", "bicycle_parking": "stands", "capacity": "24"}}, {"type": "node", "id": 2525235720, "lat": 51.3342084, "lon": -0.2644591, "tags": {"amenity": "bicycle_parking", "bicycle_parking": "stands", "capacity": "4"}}, {"type": "node", "id": 2564341069, "lat": 51.3336141, "lon": -0.2671246, "tags": {"amenity": "bicycle_parking", "bicycle_parking": "stands", "capacity": "10"}}, {"type": "node", "id": 2583698907, "lat": 51.3341263, "lon": -0.2668317, "tags": {"amenity": "bicycle_parking", "bicycle_parking": "stands", "capacity": "18", "covered": "no"}}, {"type": "node", "id": 2587809893, "lat": 51.3341252, "lon": -0.2639169, "tags": {"amenity": "bicycle_parking", "bicycle_parking": "stands", "capacity": "10"}}, {"type": "node", "id": 2871492264, "lat": 51.3268647, "lon": -0.3273597, "tags": {"amenity": "bicycle_parking", "capacity": "8", "covered": "no"}}, {"type": "node", "id": 3027872824, "lat": 51.4272047, "lon": -0.3304859, "tags": {"amenity": "bicycle_parking", "bicycle_parking": "stands", "capacity": "4", "covered": "no"}}, {"type": "node", "id": 3027873173, "lat": 51.4272934, "lon": -0.329522, "tags": {"amenity": "bicycle_parking", "capacity": "2"}}, {"type": "node", "id": 3353955799, "lat": 51.3940168, "lon": -0.2395008, "tags": {"amenity": "bicycle_parking", "capacity": "12"}}, {"type": "node", "id": 3413159099, "lat": 51.4100105, "lon": -0.3066622, "tags": {"amenity": "bicycle_parking", "bicycle_parking": "stands", "capacity": "4", "covered": "no"}}, {"type": "node", "id": 3488367056, "lat": 51.4362078, "lon": -0.2531617, "tags": {"amenity": "bicycle_parking", "bicycle_parking": "stands", "capacity": "12", "covered": "no"}}, {"type": "node", "id": 3529029772, "lat": 51.3921545, "lon": -0.3039966, "tags": {"access": "yes", "amenity": "bicycle_parking", "bicycle_parking": "shed", "capacity": "120", "cargo_bike": "no", "covered": "yes", "fee": "no", "operator": "National Rail"}}, {"type": "node", "id": 3655639197, "lat": 51.4038311, "lon": -0.2568001, "tags": {"amenity": "bicycle_parking", "bicycle_parking": "stands", "capacity": "14", "covered": "yes"}}, {"type": "node", "id": 3656793296, "lat": 51.3324341, "lon": -0.2697983, "tags": {"amenity": "bicycle_parking", "bicycle_parking": "stands", "capacity": "8"}}, {"type": "node", "id": 3656793297, "lat": 51.332476, "lon": -0.26986, "tags": {"amenity": "bicycle_parking", "bicycle_parking": "stands", "capacity": "4", "covered": "no"}}, {"type": "node", "id": 3683521426, "lat": 51.4123343, "lon": -0.310707, "tags": {"amenity": "bicycle_parking", "bicycle_parking": "stands", "capacity": "2", "covered": "no"}}, {"type": "node", "id": 3707604401, "lat": 51.3920981, "lon": -0.3069641, "tags": {"amenity": "bicycle_parking", "bicycle_parking": "stands", "capacity": "4", "covered": "no"}}, {"type": "node", "id": 4099437029, "lat": 51.4304446, "lon": -0.3069411, "tags": {"amenity": "bicycle_parking"}}, {"type": "node", "id": 4109504781, "lat": 51.4359562, "lon": -0.3051433, "tags": {"amenity": "bicycle_parking", "bicycle_parking": "stands", "capacity": "8", "covered": "no"}}, {"type": "node", "id": 4136264247, "lat": 51.4362743, "lon": -0.3202358, "tags": {"amenity": "bicycle_parking", "bicycle_parking": "stands", "capacity": "8", "covered": "no"}}, {"type": "node", "id": 4313655012, "lat": 51.4108526, "lon": -0.3004913, "tags": {"access": "yes", "amenity": "bicycle_parking", "bicycle_parking": "stands", "capacity": "4", "covered": "no", "fee": "no", "operator:type": "public"}}, {"type": "node", "id": 4341394281, "lat": 51.3340845, "lon": -0.2697041, "tags": {"amenity": "bicycle_parking"}}, {"type": "node", "id": 4395356972, "lat": 51.3923311, "lon": -0.3064041, "tags": {"amenity": "bicycle_parking", "bicycle_parking": "stands", "capacity": "2", "covered": "no"}}, {"type": "node", "id": 4395356980, "lat": 51.3923989, "lon": -0.3062385, "tags": {"amenity": "bicycle_parking", "bicycle_parking": "stands", "capacity": "6", "covered": "no"}}, {"type": "node", "id": 4395357590, "lat": 51.3924634, "lon": -0.306089, "tags": {"amenity": "bicycle_parking", "bicycle_parking": "stands", "capacity": "4", "covered": "no"}}, {"type": "node", "id": 4395357626, "lat": 51.3927705, "lon": -0.3053187, "tags": {"amenity": "bicycle_parking", "bicycle_parking": "stands", "capacity": "4", "check_date:capacity": "2025-08-30", "covered": "no"}}, {"type": "node", "id": 4407531600, "lat": 51.3929713, "lon": -0.3048558, "tags": {"access": "yes", "amenity": "bicycle_parking", "bicycle_parking": "stands", "capacity": "6", "covered": "no", "fee": "no", "operator:type": "public"}}, {"type": "node", "id": 4407531601, "lat": 51.3929981, "lon": -0.3047646, "tags": {"access": "yes", "amenity": "bicycle_parking", "bicycle_parking": "stands", "capacity": "6", "check_date:capacity": "2021-02-12", "covered": "no", "fee": "no", "operator:type": "public"}}, {"type": "node", "id": 4424820887, "lat": 51.3974436, "lon": -0.2550619, "tags": {"amenity": "bicycle_parking", "bicycle_parking": "wall_loops"}}, {"type": "node", "id": 4428776730, "lat": 51.4162517, "lon": -0.2817637, "tags": {"amenity": "bicycle_parking", "capacity": "8", "covered": "yes"}}, {"type": "node", "id": 4443888023, "lat": 51.4146526, "lon": -0.2816406, "tags": {"amenity": "bicycle_parking", "bicycle_parking": "stands", "capacity": "10", "covered": "yes"}}, {"type": "node", "id": 4443888031, "lat": 51.4142478, "lon": -0.2811149, "tags": {"amenity": "bicycle_parking", "capacity": "8", "covered": "yes"}}, {"type": "node", "id": 4867874867, "lat": 51.4093555, "lon": -0.3080817, "tags": {"amenity": "bicycle_parking", "bicycle_parking": "wall_loops", "capacity": "11", "covered": "no"}}, {"type": "node", "id": 4867885529, "lat": 51.4093143, "lon": -0.3082007, "tags": {"amenity": "bicycle_parking", "bicycle_parking": "stands", "capacity": "11", "covered": "no"}}, {"type": "node", "id": 4867913842, "lat": 51.4087162, "lon": -0.3058708, "tags": {"amenity": "bicycle_parking", "bicycle_parking": "stands", "capacity": "14", "covered": "no"}}, {"type": "node", "id": 4902640721, "lat": 51.4202045, "lon": -0.3050438, "tags": {"amenity": "bicycle_parking", "bicycle_parking": "stands", "capacity": "4", "covered": "no"}}, {"type": "node", "id": 4939955697, "lat": 51.4155836, "lon": -0.2837618, "tags": {"amenity": "bicycle_parking", "bicycle_parking": "stands", "capacity": "10"}}, {"type": "node", "id": 4939955698, "lat": 51.4147254, "lon": -0.2838993, "tags": {"amenity": "bicycle_parking", "bicycle_parking": "stands", "capacity": "10"}}, {"type": "node", "id": 4939955699, "lat": 51.4148542, "lon": -0.283141, "tags": {"amenity": "bicycle_parking", "bicycle_parking": "stands", "capacity": "8"}}, {"type": "node", "id": 4939955700, "lat": 51.4144527, "lon": -0.2813823, "tags": {"amenity": "bicycle_parking", "bicycle_parking": "stands", "capacity": "6"}}, {"type": "node", "id": 4939955701, "lat": 51.4137471, "lon": -0.282384, "tags": {"amenity": "bicycle_parking", "bicycle_parking": "stands", "capacity": "8"}}, {"type": "node", "id": 5156646226, "lat": 51.4123066, "lon": -0.2838971, "tags": {"amenity": "bicycle_parking", "capacity": "6"}}, {"type": "node", "id": 5163715510, "lat": 51.3920007, "lon": -0.3069877, "tags": {"amenity": "bicycle_parking", "bicycle_parking": "stands", "capacity": "10", "covered": "no", "mapillary": "480890856351056", "survey:date": "2021-02-01"}}, {"type": "node", "id": 5221939312, "lat": 51.4076976, "lon": -0.2979346, "tags": {"amenity": "bicycle_parking", "bicycle_parking": "stands", "capacity": "6", "check_date:capacity": "2023-08-18", "covered": "no"}}, {"type": "node", "id": 5221960081, "lat": 51.4034388, "lon": -0.2997755, "tags": {"amenity": "bicycle_parking", "bicycle_parking": "stands", "capacity": "4", "covered": "no"}}, {"type": "node", "id": 5222415261, "lat": 51.3940695, "lon": -0.3044808, "tags": {"amenity": "bicycle_parking", "bicycle_parking": "stands", "capacity": "12", "covered": "no"}}, {"type": "node", "id": 5222415262, "lat": 51.3939435, "lon": -0.3043837, "tags": {"amenity": "bicycle_parking", "bicycle_parking": "stands", "capacity": "10", "covered": "no"}}, {"type": "node", "id": 5320633785, "lat": 51.4114435, "lon": -0.3113422, "tags": {"amenity": "bicycle_parking", "bicycle_parking": "stands"}}, {"type": "node", "id": 5859929989, "lat": 51.4320232, "lon": -0.2572298, "tags": {"amenity": "bicycle_parking"}}, {"type": "node", "id": 6240594207, "lat": 51.3923216, "lon": -0.305051, "tags": {"amenity": "bicycle_parking", "bicycle_parking": "rack", "capacity": "50", "covered": "yes", "operator": "National Rail", "operator:type": "public"}}, {"type": "node", "id": 6367836448, "lat": 51.4027526, "lon": -0.3041408, "tags": {"amenity": "bicycle_parking"}}, {"type": "node", "id": 6374730651, "lat": 51.4047142, "lon": -0.2400577, "tags": {"amenity": "bicycle_parking", "capacity": "20", "covered": "yes"}}, {"type": "node", "id": 6389076531, "lat": 51.4187374, "lon": -0.3057974, "tags": {"amenity": "bicycle_parking", "covered": "yes"}}, {"type": "node", "id": 6453284843, "lat": 51.3949458, "lon": -0.2391994, "tags": {"amenity": "bicycle_parking", "capacity": "10", "covered": "no", "fee": "no", "lit": "yes", "parking": "cycle"}}, {"type": "node", "id": 6453284844, "lat": 51.3949399, "lon": -0.2399343, "tags": {"amenity": "bicycle_parking", "capacity": "16", "covered": "no", "fee": "no", "lit": "yes", "parking": "cycle"}}, {"type": "node", "id": 6471221761, "lat": 51.3987689, "lon": -0.2449045, "tags": {"amenity": "bicycle_parking", "capacity": "14"}}, {"type": "node", "id": 6471221763, "lat": 51.3991785, "lon": -0.2442198, "tags": {"amenity": "bicycle_parking", "bicycle_parking": "stands", "capacity": "12", "covered": "no"}}, {"type": "node", "id": 6475511237, "lat": 51.4126834, "lon": -0.2839067, "tags": {"amenity": "bicycle_parking", "bicycle_parking": "stands", "capacity": "4"}}, {"type": "node", "id": 6516078194, "lat": 51.340011, "lon": -0.2917876, "tags": {"amenity": "bicycle_parking"}}, {"type": "node", "id": 6525653251, "lat": 51.4143433, "lon": -0.2486166, "tags": {"amenity": "bicycle_parking", "capacity": "6"}}, {"type": "node", "id": 6525653252, "lat": 51.4144855, "lon": -0.2484557, "tags": {"amenity": "bicycle_parking", "capacity": "6"}}, {"type": "node", "id": 6525653253, "lat": 51.4146331, "lon": -0.2487903, "tags": {"amenity": "bicycle_parking", "capacity": "8"}}, {"type": "node", "id": 6530534904, "lat": 51.4144474, "lon": -0.248852, "tags": {"amenity": "bicycle_parking", "capacity": "4"}}, {"type": "node", "id": 6617415659, "lat": 51.4039742, "lon": -0.2570632, "tags": {"amenity": "bicycle_parking", "bicycle_parking": "stands", "capacity": "10", "covered": "no"}}, {"type": "node", "id": 6658579865, "lat": 51.4272133, "lon": -0.3296506, "tags": {"amenity": "bicycle_parking", "capacity": "2"}}, {"type": "node", "id": 6672486101, "lat": 51.4272765, "lon": -0.3284099, "tags": {"amenity": "bicycle_parking", "bicycle_parking": "stands", "capacity": "2", "covered": "no"}}, {"type": "node", "id": 6813247030, "lat": 51.4034968, "lon": -0.3079967, "tags": {"amenity": "bicycle_parking", "bicycle_parking": "stands", "capacity": "4", "covered": "no"}}, {"type": "node", "id": 6813247031, "lat": 51.4036399, "lon": -0.3079908, "tags": {"amenity": "bicycle_parking", "bicycle_parking": "stands", "capacity": "4"}}, {"type": "node", "id": 6934338093, "lat": 51.4164629, "lon": -0.2843248, "tags": {"amenity": "bicycle_parking"}}, {"type": "node", "id": 7106031097, "lat": 51.4226202, "lon": -0.2951161, "tags": {"amenity": "bicycle_parking"}}, {"type": "node", "id": 7251951613, "lat": 51.4043212, "lon": -0.3039403, "tags": {"amenity": "bicycle_parking", "bicycle_parking": "stands", "capacity": "10", "covered": "no"}}, {"type": "node", "id": 7251951619, "lat": 51.4037444, "lon": -0.3030689, "tags": {"amenity": "bicycle_parking", "bicycle_parking": "two-tier"}}, {"type": "node", "id": 7251951620, "lat": 51.4035154, "lon": -0.303176, "tags": {"amenity": "bicycle_parking", "bicycle_parking": "stands", "covered": "yes"}}, {"type": "node", "id": 7439769801, "lat": 51.3989672, "lon": -0.2501616, "tags": {"amenity": "bicycle_parking", "capacity": "2", "covered": "no"}}, {"type": "node", "id": 7439769802, "lat": 51.3990216, "lon": -0.2493878, "tags": {"amenity": "bicycle_parking", "capacity": "4", "covered": "no"}}, {"type": "node", "id": 7439769803, "lat": 51.3989956, "lon": -0.2489962, "tags": {"amenity": "bicycle_parking", "capacity": "2", "covered": "no"}}, {"type": "node", "id": 7439769807, "lat": 51.399055, "lon": -0.2480333, "tags": {"amenity": "bicycle_parking", "capacity": "4", "covered": "no"}}, {"type": "node", "id": 7455503163, "lat": 51.4237687, "lon": -0.2722423, "tags": {"amenity": "bicycle_parking", "bicycle_parking": "stands"}}, {"type": "node", "id": 7697447470, "lat": 51.3989797, "lon": -0.2555126, "tags": {"amenity": "bicycle_parking", "bicycle_parking": "stands", "capacity": "10", "covered": "no"}}, {"type": "node", "id": 7732425069, "lat": 51.4003779, "lon": -0.2544156, "tags": {"amenity": "bicycle_parking", "capacity": "8", "covered": "no"}}, {"type": "node", "id": 7732425070, "lat": 51.4004109, "lon": -0.2538349, "tags": {"amenity": "bicycle_parking", "capacity": "10", "covered": "no"}}, {"type": "node", "id": 7738278579, "lat": 51.4050739, "lon": -0.2473426, "tags": {"amenity": "bicycle_parking", "capacity": "6", "covered": "no"}}, {"type": "node", "id": 7743688479, "lat": 51.4189398, "lon": -0.2956914, "tags": {"amenity": "bicycle_parking"}}, {"type": "node", "id": 7777151857, "lat": 51.4108906, "lon": -0.2642623, "tags": {"amenity": "bicycle_parking", "bicycle_parking": "stands"}}, {"type": "node", "id": 7814896866, "lat": 51.3846262, "lon": -0.2930449, "tags": {"access": "yes", "amenity": "bicycle_parking", "bicycle_parking": "stands", "capacity": "4", "cargo_bike": "no", "covered": "no", "fee": "no"}}, {"type": "node", "id": 7814905465, "lat": 51.3845356, "lon": -0.2931909, "tags": {"access": "yes", "amenity": "bicycle_parking", "bicycle_parking": "stands", "capacity": "6", "cargo_bike": "no", "covered": "no", "fee": "no"}}, {"type": "node", "id": 7823747863, "lat": 51.3907179, "lon": -0.2995869, "tags": {"amenity": "bicycle_parking", "bicycle_parking": "stands", "capacity": "10", "cargo_bike": "no", "covered": "yes", "fee": "no"}}, {"type": "node", "id": 7861527918, "lat": 51.3991744, "lon": -0.2437507, "tags": {"amenity": "bicycle_parking", "bicycle_parking": "stands", "capacity": "10", "covered": "yes"}}, {"type": "node", "id": 7869236548, "lat": 51.3988993, "lon": -0.3029654, "tags": {"amenity": "bicycle_parking", "bicycle_parking": "stands", "capacity": "4"}}, {"type": "node", "id": 7931299526, "lat": 51.4276446, "lon": -0.3256432, "tags": {"access": "yes", "amenity": "bicycle_parking", "bicycle_parking": "stands", "capacity": "10", "covered": "no", "fee": "no"}}, {"type": "node", "id": 7994355978, "lat": 51.3848862, "lon": -0.2954168, "tags": {"access": "yes", "amenity": "bicycle_parking", "bicycle_parking": "stands", "capacity": "10", "covered": "no", "fee": "no", "mapillary": "301048211502073", "operator:type": "public", "survey:date": "2021-02-01"}}, {"type": "node", "id": 8010621287, "lat": 51.388447, "lon": -0.2973427, "tags": {"access": "yes", "amenity": "bicycle_parking", "bicycle_parking": "stands", "capacity": "10", "covered": "no", "fee": "no", "indoor": "no", "operator:type": "public"}}, {"type": "node", "id": 8017666708, "lat": 51.4164891, "lon": -0.2829218, "tags": {"amenity": "bicycle_parking", "bicycle_parking": "shed", "covered": "yes"}}, {"type": "node", "id": 8041731728, "lat": 51.3909844, "lon": -0.3085682, "tags": {"amenity": "bicycle_parking", "bicycle_parking": "stands", "capacity": "2", "covered": "no"}}, {"type": "node", "id": 8158020306, "lat": 51.3932972, "lon": -0.3049204, "tags": {"amenity": "bicycle_parking", "covered": "no"}}, {"type": "node", "id": 8158062811, "lat": 51.3933097, "lon": -0.3047592, "tags": {"amenity": "bicycle_parking", "covered": "no"}}, {"type": "node", "id": 8269634302, "lat": 51.4134332, "lon": -0.3056223, "tags": {"amenity": "bicycle_parking", "bicycle_parking": "stands", "capacity": "4", "covered": "no", "fee": "no"}}, {"type": "node", "id": 8376065558, "lat": 51.4337683, "lon": -0.2814521, "tags": {"amenity": "bicycle_parking", "bicycle_parking": "stands", "capacity": "20", "covered": "no"}}, {"type": "node", "id": 8435979842, "lat": 51.3910037, "lon": -0.3086066, "tags": {"amenity": "bicycle_parking", "bicycle_parking": "stands", "capacity": "2", "covered": "no"}}, {"type": "node", "id": 8435979843, "lat": 51.391022, "lon": -0.308643, "tags": {"amenity": "bicycle_parking", "bicycle_parking": "stands", "capacity": "2", "covered": "no"}}, {"type": "node", "id": 8435979844, "lat": 51.3910457, "lon": -0.3086904, "tags": {"amenity": "bicycle_parking", "bicycle_parking": "stands", "capacity": "2", "covered": "no"}}, {"type": "node", "id": 8435979845, "lat": 51.3910654, "lon": -0.3087297, "tags": {"amenity": "bicycle_parking", "bicycle_parking": "stands", "capacity": "2", "covered": "no"}}, {"type": "node", "id": 8435979846, "lat": 51.3910861, "lon": -0.3087711, "tags": {"access": "yes", "amenity": "bicycle_parking", "bicycle_parking": "stands", "capacity": "2", "covered": "no"}}, {"type": "node", "id": 8435979847, "lat": 51.3911056, "lon": -0.3088099, "tags": {"access": "yes", "amenity": "bicycle_parking", "bicycle_parking": "stands", "capacity": "2", "covered": "no"}}, {"type": "node", "id": 8436006246, "lat": 51.394416, "lon": -0.308177, "tags": {"access": "yes", "amenity": "bicycle_parking", "bicycle_parking": "stands", "capacity": "2", "covered": "no", "fee": "no"}}, {"type": "node", "id": 8436006247, "lat": 51.394424, "lon": -0.3081688, "tags": {"access": "yes", "amenity": "bicycle_parking", "bicycle_parking": "stands", "capacity": "2", "covered": "no", "fee": "no"}}, {"type": "node", "id": 8436006248, "lat": 51.3944322, "lon": -0.3081607, "tags": {"access": "yes", "amenity": "bicycle_parking", "bicycle_parking": "stands", "capacity": "2", "covered": "no", "fee": "no"}}, {"type": "node", "id": 8482845907, "lat": 51.3936034, "lon": -0.3030774, "tags": {"amenity": "bicycle_parking", "bicycle_parking": "stands", "capacity": "2", "covered": "no"}}, {"type": "node", "id": 8630458335, "lat": 51.4150805, "lon": -0.3020629, "tags": {"amenity": "bicycle_parking"}}, {"type": "node", "id": 8650543267, "lat": 51.4160301, "lon": -0.2391029, "tags": {"amenity": "bicycle_parking", "bicycle_parking": "shed"}}, {"type": "node", "id": 8658612664, "lat": 51.3486474, "lon": -0.2484249, "tags": {"access": "yes", "amenity": "bicycle_parking", "bicycle_parking": "stands", "capacity": "10", "covered": "no", "description": "At entrance to carpark opposite Sainsbury.", "fee": "no"}}, {"type": "node", "id": 8658628052, "lat": 51.3500496, "lon": -0.2499069, "tags": {"access": "yes", "amenity": "bicycle_parking", "bicycle_parking": "stands", "capacity": "4", "covered": "no", "fee": "no"}}, {"type": "node", "id": 8664400569, "lat": 51.4041525, "lon": -0.2570511, "tags": {"amenity": "bicycle_parking", "bicycle_parking": "stands", "capacity": "10", "covered": "no"}}, {"type": "node", "id": 8664400571, "lat": 51.4044952, "lon": -0.2571594, "tags": {"amenity": "bicycle_parking", "capacity": "4"}}, {"type": "node", "id": 8712823114, "lat": 51.4280482, "lon": -0.3227763, "tags": {"amenity": "bicycle_parking", "bicycle_parking": "stands", "capacity": "10"}}, {"type": "node", "id": 8768384694, "lat": 51.4147013, "lon": -0.3122816, "tags": {"access": "yes", "amenity": "bicycle_parking", "bicycle_parking": "stands", "capacity": "30", "covered": "no", "fee": "no"}}, {"type": "node", "id": 8815773818, "lat": 51.4317864, "lon": -0.2686041, "tags": {"access": "yes", "amenity": "bicycle_parking", "bicycle_parking": "stands", "capacity": "6", "covered": "no", "lit": "no"}}, {"type": "node", "id": 8815773819, "lat": 51.4363838, "lon": -0.2565708, "tags": {"access": "yes", "amenity": "bicycle_parking", "bicycle_parking": "stands", "capacity": "6", "covered": "no", "fee": "no"}}, {"type": "node", "id": 8850763205, "lat": 51.4307743, "lon": -0.3084012, "tags": {"access": "customers", "amenity": "bicycle_parking", "bicycle_parking": "wall_loops", "capacity": "4", "covered": "no"}}, {"type": "node", "id": 8920033129, "lat": 51.4324413, "lon": -0.3069373, "tags": {"amenity": "bicycle_parking", "bicycle_parking": "stands", "capacity": "4", "covered": "no"}}, {"type": "node", "id": 8961086689, "lat": 51.4041515, "lon": -0.3033537, "tags": {"amenity": "bicycle_parking"}}, {"type": "node", "id": 8975232682, "lat": 51.4032372, "lon": -0.2765002, "tags": {"amenity": "bicycle_parking", "bicycle_parking": "stands", "capacity": "6", "covered": "no"}}, {"type": "node", "id": 8975232683, "lat": 51.4031554, "lon": -0.276579, "tags": {"amenity": "bicycle_parking", "bicycle_parking": "stands", "capacity": "2", "covered": "no"}}, {"type": "node", "id": 8977993507, "lat": 51.4084886, "lon": -0.2741348, "tags": {"amenity": "bicycle_parking", "bicycle_parking": "stands", "capacity": "8", "covered": "no"}}, {"type": "node", "id": 8977993508, "lat": 51.408399, "lon": -0.2738374, "tags": {"amenity": "bicycle_parking", "bicycle_parking": "stands", "capacity": "8", "covered": "no"}}, {"type": "node", "id": 8980989361, "lat": 51.3976908, "lon": -0.2733272, "tags": {"amenity": "bicycle_parking", "bicycle_parking": "stands", "capacity": "4", "covered": "no"}}, {"type": "node", "id": 9007902610, "lat": 51.4041085, "lon": -0.2940325, "tags": {"amenity": "bicycle_parking", "bicycle_parking": "stands", "capacity": "4", "covered": "no"}}, {"type": "node", "id": 9025087162, "lat": 51.4075873, "lon": -0.2746215, "tags": {"amenity": "bicycle_parking", "bicycle_parking": "wall_loops", "capacity": "12", "covered": "no"}}, {"type": "node", "id": 9025437117, "lat": 51.4112524, "lon": -0.3125303, "tags": {"amenity": "bicycle_parking", "bicycle_parking": "stands", "capacity": "8"}}, {"type": "node", "id": 9057295440, "lat": 51.4025693, "lon": -0.2561809, "tags": {"amenity": "bicycle_parking", "bicycle_parking": "stands", "capacity": "8", "covered": "no"}}, {"type": "node", "id": 9064949839, "lat": 51.3985973, "lon": -0.2801622, "tags": {"amenity": "bicycle_parking", "bicycle_parking": "stands", "capacity": "6", "covered": "no"}}, {"type": "node", "id": 9072304843, "lat": 51.426844, "lon": -0.2984781, "tags": {"amenity": "bicycle_parking", "bicycle_parking": "stands", "capacity": "12", "covered": "no"}}, {"type": "node", "id": 9078275163, "lat": 51.4127957, "lon": -0.3113584, "tags": {"amenity": "bicycle_parking", "bicycle_parking": "stands", "capacity": "4", "covered": "no"}}, {"type": "node", "id": 9238236936, "lat": 51.4110442, "lon": -0.3069154, "tags": {"access": "yes", "amenity": "bicycle_parking", "bicycle_parking": "stands", "capacity": "36", "covered": "no"}}, {"type": "node", "id": 9269387879, "lat": 51.3893031, "lon": -0.2997104, "tags": {"access": "customers", "amenity": "bicycle_parking", "bicycle_parking": "shed", "capacity": "6", "charge": "75.00 GBP/year", "covered": "yes", "fee": "yes", "indoor": "no", "operator:type": "private", "website": "https://cyclehangar.co.uk/kingston"}}, {"type": "node", "id": 9386882711, "lat": 51.3829666, "lon": -0.2623492, "tags": {"access": "private", "amenity": "bicycle_parking", "bicycle_parking": "shed", "capacity": "6", "operator": "cyclehoop", "ref": "Bikehangar 888"}}, {"type": "node", "id": 9386882712, "lat": 51.3829176, "lon": -0.2634328, "tags": {"access": "private", "amenity": "bicycle_parking", "bicycle_parking": "shed", "capacity": "6", "operator": "cyclehoop", "ref": "Bikehangar 1258"}}, {"type": "node", "id": 9422544794, "lat": 51.4168903, "lon": -0.3064371, "tags": {"amenity": "bicycle_parking", "bicycle_parking": "stands", "capacity": "10", "covered": "no"}}, {"type": "node", "id": 9422549608, "lat": 51.4179628, "lon": -0.3060441, "tags": {"amenity": "bicycle_parking", "bicycle_parking": "stands", "capacity": "6", "covered": "no"}}, {"type": "node", "id": 9461459842, "lat": 51.4366119, "lon": -0.3205877, "tags": {"amenity": "bicycle_parking", "bicycle_parking": "stands", "capacity": "4", "covered": "no"}}, {"type": "node", "id": 9671968561, "lat": 51.4141368, "lon": -0.2872158, "tags": {"access": "yes", "amenity": "bicycle_parking", "bicycle_parking": "stands", "capacity": "6", "covered": "no"}}, {"type": "node", "id": 9812168569, "lat": 51.3336013, "lon": -0.2614317, "tags": {"amenity": "bicycle_parking"}}, {"type": "node", "id": 9812168570, "lat": 51.3335199, "lon": -0.2613931, "tags": {"amenity": "bicycle_parking"}}, {"type": "node", "id": 10038068581, "lat": 51.4130889, "lon": -0.3007503, "tags": {"access": "yes", "amenity": "bicycle_parking", "bicycle_parking": "stands", "capacity": "14", "covered": "no", "fee": "no", "indoor": "no", "lit": "yes", "operator:type": "public"}}, {"type": "node", "id": 10170019456, "lat": 51.4037803, "lon": -0.256784, "tags": {"amenity": "bicycle_parking", "bicycle_parking": "stands", "capacity": "8", "covered": "no"}}, {"type": "node", "id": 10170019457, "lat": 51.4038832, "lon": -0.2568172, "tags": {"amenity": "bicycle_parking", "bicycle_parking": "stands", "capacity": "8", "covered": "no"}}, {"type": "node", "id": 10273095222, "lat": 51.4089747, "lon": -0.3047081, "tags": {"amenity": "bicycle_parking", "bicycle_parking": "stands", "capacity": "10", "ref:GB:tflcid": "RWG125178"}}, {"type": "node", "id": 10273095224, "lat": 51.4116424, "lon": -0.3056908, "tags": {"amenity": "bicycle_parking", "bicycle_parking": "stands", "capacity": "2", "covered": "no", "ref:GB:tflcid": "RWG205503"}}, {"type": "node", "id": 10273095225, "lat": 51.4109556, "lon": -0.3062013, "tags": {"amenity": "bicycle_parking", "bicycle_parking": "stands", "capacity": "8", "covered": "no", "ref:GB:tflcid": "RWG205573"}}, {"type": "node", "id": 10273095226, "lat": 51.4113431, "lon": -0.3037516, "tags": {"amenity": "bicycle_parking", "bicycle_parking": "stands", "capacity": "14", "ref:GB:tflcid": "RWG205570"}}, {"type": "node", "id": 10273095227, "lat": 51.4100308, "lon": -0.3050089, "tags": {"amenity": "bicycle_parking", "bicycle_parking": "stands", "capacity": "6", "ref:GB:tflcid": "RWG205563"}}, {"type": "node", "id": 10273115016, "lat": 51.4116014, "lon": -0.3034819, "tags": {"access": "yes", "amenity": "bicycle_parking", "bicycle_parking": "stands", "capacity": "12", "covered": "no", "operator:type": "public", "ref:GB:tflcid": "RWG125153"}}, {"type": "node", "id": 10273115017, "lat": 51.4115957, "lon": -0.3055418, "tags": {"amenity": "bicycle_parking", "bicycle_parking": "stands", "capacity": "10", "covered": "no", "ref:GB:tflcid": "RWG205504"}}, {"type": "node", "id": 10273115018, "lat": 51.4095563, "lon": -0.3060135, "tags": {"access": "yes", "amenity": "bicycle_parking", "bicycle_parking": "stands", "capacity": "14", "covered": "no", "fee": "no", "operator:type": "public", "ref:GB:tflcid": "RWG205561"}}, {"type": "node", "id": 10273115019, "lat": 51.4103245, "lon": -0.3070309, "tags": {"amenity": "bicycle_parking", "bicycle_parking": "stands", "capacity": "2", "ref:GB:tflcid": "RWG277922"}}, {"type": "node", "id": 10273115020, "lat": 51.4062361, "lon": -0.3041627, "tags": {"amenity": "bicycle_parking", "bicycle_parking": "stands", "capacity": "4", "ref:GB:tflcid": "RWG205537"}}, {"type": "node", "id": 10273115113, "lat": 51.411625, "lon": -0.3034291, "tags": {"access": "yes", "amenity": "bicycle_parking", "bicycle_parking": "stands", "capacity": "6", "covered": "no", "operator:type": "public", "ref:GB:tflcid": "RWG125154"}}, {"type": "node", "id": 10273115114, "lat": 51.4090528, "lon": -0.3048955, "tags": {"amenity": "bicycle_parking", "bicycle_parking": "stands", "capacity": "8", "ref:GB:tflcid": "RWG205569"}}, {"type": "node", "id": 10273115116, "lat": 51.4117561, "lon": -0.3027527, "tags": {"amenity": "bicycle_parking", "bicycle_parking": "stands", "capacity": "22", "ref:GB:tflcid": "RWG125150"}}, {"type": "node", "id": 10273115117, "lat": 51.4077298, "lon": -0.3030381, "tags": {"amenity": "bicycle_parking", "bicycle_parking": "stands", "capacity": "6", "ref:GB:tflcid": "RWG125637"}}, {"type": "node", "id": 10273115166, "lat": 51.3780906, "lon": -0.2411972, "tags": {"amenity": "bicycle_parking", "bicycle_parking": "stands", "capacity": "2", "ref:GB:tflcid": "RWG125291"}}, {"type": "node", "id": 10273115170, "lat": 51.3786539, "lon": -0.2419504, "tags": {"amenity": "bicycle_parking", "bicycle_parking": "stands", "capacity": "8", "ref:GB:tflcid": "RWG125292"}}, {"type": "node", "id": 10273115217, "lat": 51.4088691, "lon": -0.3045314, "tags": {"amenity": "bicycle_parking", "bicycle_parking": "stands", "capacity": "18", "ref:GB:tflcid": "RWG125182"}}, {"type": "node", "id": 10273115218, "lat": 51.4091572, "lon": -0.30346, "tags": {"amenity": "bicycle_parking", "bicycle_parking": "stands", "capacity": "20", "covered": "no", "ref:GB:tflcid": "RWG125179"}}, {"type": "node", "id": 10273115219, "lat": 51.4125872, "lon": -0.3033383, "tags": {"amenity": "bicycle_parking", "bicycle_parking": "stands", "capacity": "5", "covered": "no", "ref:GB:tflcid": "RWG205490"}}, {"type": "node", "id": 10273115220, "lat": 51.4104175, "lon": -0.3053022, "tags": {"amenity": "bicycle_parking", "bicycle_parking": "stands", "capacity": "8", "ref:GB:tflcid": "RWG125641"}}, {"type": "node", "id": 10273115221, "lat": 51.4055033, "lon": -0.3003361, "tags": {"amenity": "bicycle_parking", "bicycle_parking": "two-tier", "capacity": "32", "covered": "yes", "ref:GB:tflcid": "RWG125106"}}, {"type": "node", "id": 10273115222, "lat": 51.4054281, "lon": -0.3002924, "tags": {"amenity": "bicycle_parking", "bicycle_parking": "stands", "capacity": "100", "covered": "yes", "ref:GB:tflcid": "RWG125105"}}, {"type": "node", "id": 10273115223, "lat": 51.4032956, "lon": -0.3023571, "tags": {"amenity": "bicycle_parking", "bicycle_parking": "stands", "capacity": "6", "ref:GB:tflcid": "RWG125110"}}, {"type": "node", "id": 10273115322, "lat": 51.4078889, "lon": -0.3057582, "tags": {"amenity": "bicycle_parking", "bicycle_parking": "stands", "capacity": "12", "covered": "no", "ref:GB:tflcid": "RWG205538"}}, {"type": "node", "id": 10273115323, "lat": 51.4051916, "lon": -0.2978519, "tags": {"amenity": "bicycle_parking", "bicycle_parking": "wall_loops", "capacity": "24", "ref:GB:tflcid": "RWG125107"}}, {"type": "node", "id": 10273115324, "lat": 51.4046664, "lon": -0.2978564, "tags": {"amenity": "bicycle_parking", "bicycle_lock": "provided", "bicycle_parking": "two-tier", "capacity": "30", "covered": "yes", "ref:GB:tflcid": "RWG125108"}}, {"type": "node", "id": 10273115910, "lat": 51.4032083, "lon": -0.3023858, "tags": {"amenity": "bicycle_parking", "bicycle_parking": "stands", "capacity": "4", "ref:GB:tflcid": "RWG125109"}}, {"type": "node", "id": 10273115936, "lat": 51.3779248, "lon": -0.240459, "tags": {"amenity": "bicycle_parking", "bicycle_parking": "stands", "capacity": "4", "ref:GB:tflcid": "RWG125286"}}, {"type": "node", "id": 10273123333, "lat": 51.3778717, "lon": -0.2403386, "tags": {"amenity": "bicycle_parking", "bicycle_parking": "stands", "capacity": "4", "ref:GB:tflcid": "RWG125285"}}, {"type": "node", "id": 10273123334, "lat": 51.3779295, "lon": -0.241254, "tags": {"amenity": "bicycle_parking", "bicycle_parking": "stands", "capacity": "6", "ref:GB:tflcid": "RWG125288"}}, {"type": "node", "id": 10273124309, "lat": 51.4087007, "lon": -0.3036841, "tags": {"amenity": "bicycle_parking", "bicycle_parking": "stands", "capacity": "6", "covered": "no", "ref:GB:tflcid": "RWG125180"}}, {"type": "node", "id": 10273124709, "lat": 51.4109377, "lon": -0.3042715, "tags": {"amenity": "bicycle_parking", "bicycle_parking": "stands", "capacity": "10", "covered": "no", "ref:GB:tflcid": "RWG205564"}}, {"type": "node", "id": 10273124710, "lat": 51.4035676, "lon": -0.3049777, "tags": {"amenity": "bicycle_parking", "bicycle_parking": "stands", "capacity": "6", "ref:GB:tflcid": "RWG125063"}}, {"type": "node", "id": 10273130309, "lat": 51.3780595, "lon": -0.2412431, "tags": {"amenity": "bicycle_parking", "bicycle_parking": "stands", "capacity": "4", "ref:GB:tflcid": "RWG125290"}}, {"type": "node", "id": 10273130310, "lat": 51.3770905, "lon": -0.2388071, "tags": {"amenity": "bicycle_parking", "bicycle_parking": "stands", "capacity": "2", "covered": "no", "ref:GB:tflcid": "RWG125282"}}, {"type": "node", "id": 10275588446, "lat": 51.3817597, "lon": -0.2839715, "tags": {"amenity": "bicycle_parking", "bicycle_parking": "stands", "capacity": "4", "ref:GB:tflcid": "RWG125133"}}, {"type": "node", "id": 10275588447, "lat": 51.3806009, "lon": -0.2824073, "tags": {"amenity": "bicycle_parking", "bicycle_parking": "stands", "capacity": "6", "ref:GB:tflcid": "RWG125136"}}, {"type": "node", "id": 10275588448, "lat": 51.3823737, "lon": -0.28574, "tags": {"amenity": "bicycle_parking", "bicycle_parking": "stands", "capacity": "6", "ref:GB:tflcid": "RWG125130"}}, {"type": "node", "id": 10275588516, "lat": 51.38019, "lon": -0.2816388, "tags": {"amenity": "bicycle_parking", "bicycle_parking": "stands", "capacity": "4", "ref:GB:tflcid": "RWG125034"}}, {"type": "node", "id": 10275588517, "lat": 51.3800984, "lon": -0.2818857, "tags": {"amenity": "bicycle_parking", "bicycle_parking": "stands", "capacity": "4", "ref:GB:tflcid": "RWG125138"}}, {"type": "node", "id": 10275588635, "lat": 51.3800041, "lon": -0.2817945, "tags": {"amenity": "bicycle_parking", "bicycle_parking": "stands", "capacity": "10", "ref:GB:tflcid": "RWG125139"}}, {"type": "node", "id": 10275588636, "lat": 51.3795766, "lon": -0.2813585, "tags": {"amenity": "bicycle_parking", "bicycle_parking": "stands", "capacity": "10", "ref:GB:tflcid": "RWG125140"}}, {"type": "node", "id": 10275588637, "lat": 51.3793533, "lon": -0.2812768, "tags": {"amenity": "bicycle_parking", "bicycle_parking": "stands", "capacity": "4", "ref:GB:tflcid": "RWG125141"}}, {"type": "node", "id": 10275588638, "lat": 51.380655, "lon": -0.2824635, "tags": {"amenity": "bicycle_parking", "bicycle_parking": "stands", "capacity": "2", "ref:GB:tflcid": "RWG125135"}}, {"type": "node", "id": 10275588639, "lat": 51.3799935, "lon": -0.2811408, "tags": {"amenity": "bicycle_parking", "bicycle_parking": "stands", "capacity": "4", "ref:GB:tflcid": "RWG205508"}}, {"type": "node", "id": 10275588640, "lat": 51.3783083, "lon": -0.2800818, "tags": {"amenity": "bicycle_parking", "bicycle_parking": "wall_loops", "capacity": "2", "ref:GB:tflcid": "RWG125142"}}, {"type": "node", "id": 10275588641, "lat": 51.3771548, "lon": -0.2791284, "tags": {"amenity": "bicycle_parking", "bicycle_parking": "stands", "capacity": "20", "covered": "yes", "ref:GB:tflcid": "RWG205505"}}, {"type": "node", "id": 10275588642, "lat": 51.3771558, "lon": -0.2792743, "tags": {"amenity": "bicycle_parking", "bicycle_parking": "stands", "capacity": "6", "covered": "yes", "ref:GB:tflcid": "RWG205506"}}, {"type": "node", "id": 10275588767, "lat": 51.3819855, "lon": -0.284354, "tags": {"amenity": "bicycle_parking", "bicycle_parking": "stands", "capacity": "4", "covered": "no", "ref:GB:tflcid": "RWG125131"}}, {"type": "node", "id": 10275588768, "lat": 51.3819278, "lon": -0.2840523, "tags": {"amenity": "bicycle_parking", "bicycle_parking": "stands", "capacity": "4", "covered": "no", "ref:GB:tflcid": "RWG125132"}}, {"type": "node", "id": 10275588769, "lat": 51.3817408, "lon": -0.2839326, "tags": {"amenity": "bicycle_parking", "bicycle_parking": "stands", "capacity": "4", "ref:GB:tflcid": "RWG125134"}}, {"type": "node", "id": 10275588770, "lat": 51.3802266, "lon": -0.2820035, "tags": {"amenity": "bicycle_parking", "bicycle_parking": "stands", "capacity": "8", "ref:GB:tflcid": "RWG125137"}}, {"type": "node", "id": 10275588815, "lat": 51.3815947, "lon": -0.283363, "tags": {"amenity": "bicycle_parking", "bicycle_parking": "stands", "capacity": "10", "covered": "no", "ref:GB:tflcid": "RWG125025"}}, {"type": "node", "id": 10275588857, "lat": 51.3980068, "lon": -0.2676124, "tags": {"access": "yes", "amenity": "bicycle_parking", "bicycle_parking": "stands", "capacity": "4", "covered": "no", "ref:GB:tflcid": "RWG205487"}}, {"type": "node", "id": 10275588858, "lat": 51.3997755, "lon": -0.2556977, "tags": {"amenity": "bicycle_parking", "bicycle_parking": "stands", "capacity": "12", "ref:GB:tflcid": "RWG125476"}}, {"type": "node", "id": 10275589345, "lat": 51.401348, "lon": -0.2559368, "tags": {"amenity": "bicycle_parking", "capacity": "4", "ref:GB:tflcid": "RWG125486"}}, {"type": "node", "id": 10275589427, "lat": 51.381859, "lon": -0.2838101, "tags": {"amenity": "bicycle_parking", "bicycle_parking": "stands", "capacity": "10", "ref:GB:tflcid": "RWG125017"}}, {"type": "node", "id": 10275589428, "lat": 51.3819777, "lon": -0.2817653, "tags": {"amenity": "bicycle_parking", "bicycle_parking": "stands", "capacity": "8", "ref:GB:tflcid": "RWG125226"}}, {"type": "node", "id": 10275589727, "lat": 51.4003097, "lon": -0.2558051, "tags": {"amenity": "bicycle_parking", "bicycle_parking": "stands", "capacity": "8", "ref:GB:tflcid": "RWG125477"}}, {"type": "node", "id": 10275589728, "lat": 51.4007035, "lon": -0.2559028, "tags": {"amenity": "bicycle_parking", "bicycle_parking": "stands", "capacity": "8", "ref:GB:tflcid": "RWG125478"}}, {"type": "node", "id": 10275589729, "lat": 51.4018159, "lon": -0.256263, "tags": {"amenity": "bicycle_parking", "bicycle_parking": "stands", "capacity": "8", "ref:GB:tflcid": "RWG125482"}}, {"type": "node", "id": 10275601967, "lat": 51.4108953, "lon": -0.3011629, "tags": {"amenity": "bicycle_parking", "bicycle_parking": "stands", "capacity": "16", "covered": "no", "ref:GB:tflcid": "RWG205539"}}, {"type": "node", "id": 10275601969, "lat": 51.4126506, "lon": -0.3014551, "tags": {"amenity": "bicycle_parking", "bicycle_parking": "stands", "capacity": "22", "ref:GB:tflcid": "RWG205485"}}, {"type": "node", "id": 10275602125, "lat": 51.4107504, "lon": -0.3022488, "tags": {"access": "yes", "amenity": "bicycle_parking", "bicycle_parking": "stands", "capacity": "10", "covered": "no", "fee": "no", "ref:GB:tflcid": "RWG205565"}}, {"type": "node", "id": 10275602235, "lat": 51.4119478, "lon": -0.3017775, "tags": {"amenity": "bicycle_parking", "bicycle_parking": "stands", "capacity": "4", "ref:GB:tflcid": "RWG125147"}}, {"type": "node", "id": 10275602236, "lat": 51.4119892, "lon": -0.3015504, "tags": {"amenity": "bicycle_parking", "bicycle_parking": "stands", "capacity": "4", "covered": "no", "ref:GB:tflcid": "RWG125148"}}, {"type": "node", "id": 10275602237, "lat": 51.4115091, "lon": -0.3005176, "tags": {"amenity": "bicycle_parking", "bicycle_parking": "stands", "capacity": "6", "ref:GB:tflcid": "RWG125156"}}, {"type": "node", "id": 10275602238, "lat": 51.412211, "lon": -0.300322, "tags": {"amenity": "bicycle_parking", "bicycle_parking": "stands", "capacity": "20", "ref:GB:tflcid": "RWG125157"}}, {"type": "node", "id": 10275602239, "lat": 51.409157, "lon": -0.2979923, "tags": {"amenity": "bicycle_parking", "bicycle_parking": "stands", "capacity": "4", "ref:GB:tflcid": "RWG125168"}}, {"type": "node", "id": 10275602240, "lat": 51.4116099, "lon": -0.301946, "tags": {"amenity": "bicycle_parking", "bicycle_parking": "stands", "capacity": "6", "covered": "no", "ref:GB:tflcid": "RWG125146"}}, {"type": "node", "id": 10275602241, "lat": 51.4111847, "lon": -0.3018402, "tags": {"amenity": "bicycle_parking", "bicycle_parking": "stands", "capacity": "8", "covered": "no", "ref:GB:tflcid": "RWG125145"}}, {"type": "node", "id": 10275602242, "lat": 51.4125706, "lon": -0.3005863, "tags": {"amenity": "bicycle_parking", "bicycle_parking": "stands", "capacity": "6", "covered": "no", "ref:GB:tflcid": "RWG124964"}}, {"type": "node", "id": 10275602243, "lat": 51.4125053, "lon": -0.3005837, "tags": {"amenity": "bicycle_parking", "bicycle_parking": "stands", "capacity": "16", "covered": "no", "ref:GB:tflcid": "RWG124965"}}, {"type": "node", "id": 10275605714, "lat": 51.411728, "lon": -0.3006384, "tags": {"amenity": "bicycle_parking", "bicycle_parking": "stands", "capacity": "12", "ref:GB:tflcid": "RWG125155"}}, {"type": "node", "id": 10275611811, "lat": 51.3979692, "lon": -0.2551858, "tags": {"amenity": "bicycle_parking", "bicycle_parking": "stands", "capacity": "12", "ref:GB:tflcid": "RWG125501"}}, {"type": "node", "id": 10275615810, "lat": 51.3946813, "lon": -0.2665048, "tags": {"amenity": "bicycle_parking", "bicycle_parking": "stands", "capacity": "4", "ref:GB:tflcid": "RWG205488"}}, {"type": "node", "id": 10275615811, "lat": 51.3945225, "lon": -0.2662484, "tags": {"amenity": "bicycle_parking", "bicycle_parking": "stands", "capacity": "8", "ref:GB:tflcid": "RWG205489"}}, {"type": "node", "id": 10275615812, "lat": 51.4010712, "lon": -0.2560222, "tags": {"amenity": "bicycle_parking", "bicycle_parking": "stands", "capacity": "4", "ref:GB:tflcid": "RWG125479"}}, {"type": "node", "id": 10275615813, "lat": 51.4015163, "lon": -0.2561688, "tags": {"amenity": "bicycle_parking", "bicycle_parking": "stands", "capacity": "6", "ref:GB:tflcid": "RWG125481"}}, {"type": "node", "id": 10275615814, "lat": 51.4012947, "lon": -0.2561113, "tags": {"amenity": "bicycle_parking", "bicycle_parking": "stands", "capacity": "6", "ref:GB:tflcid": "RWG125480"}}, {"type": "node", "id": 10275615815, "lat": 51.4004032, "lon": -0.2555984, "tags": {"amenity": "bicycle_parking", "bicycle_parking": "stands", "capacity": "14", "ref:GB:tflcid": "RWG125488"}}, {"type": "node", "id": 10275615909, "lat": 51.4000277, "lon": -0.2555478, "tags": {"amenity": "bicycle_parking", "bicycle_parking": "stands", "capacity": "8", "ref:GB:tflcid": "RWG125489"}}, {"type": "node", "id": 10275616109, "lat": 51.4007692, "lon": -0.2557372, "tags": {"amenity": "bicycle_parking", "bicycle_parking": "stands", "capacity": "10", "ref:GB:tflcid": "RWG125487"}}, {"type": "node", "id": 10277991323, "lat": 51.3914954, "lon": -0.3099204, "tags": {"amenity": "bicycle_parking", "bicycle_parking": "stands", "capacity": "2", "covered": "no", "ref:GB:tflcid": "RWG125465"}}, {"type": "node", "id": 10277991324, "lat": 51.3913983, "lon": -0.308414, "tags": {"access": "yes", "amenity": "bicycle_parking", "bicycle_parking": "wall_hoops", "capacity": "1", "covered": "yes", "fee": "no", "operator:type": "public", "ref:GB:tflcid": "RWG125586"}}, {"type": "node", "id": 10277991534, "lat": 51.3915576, "lon": -0.3100543, "tags": {"amenity": "bicycle_parking", "bicycle_parking": "stands", "capacity": "2", "covered": "no", "ref:GB:tflcid": "RWG125467"}}, {"type": "node", "id": 10277991535, "lat": 51.3915334, "lon": -0.3100074, "tags": {"amenity": "bicycle_parking", "bicycle_parking": "stands", "capacity": "2", "covered": "no", "ref:GB:tflcid": "RWG125466"}}, {"type": "node", "id": 10277991536, "lat": 51.3919169, "lon": -0.3105461, "tags": {"amenity": "bicycle_parking", "bicycle_parking": "stands", "capacity": "4", "covered": "no", "ref:GB:tflcid": "RWG125470"}}, {"type": "node", "id": 10277991537, "lat": 51.3918312, "lon": -0.3106445, "tags": {"amenity": "bicycle_parking", "bicycle_parking": "stands", "capacity": "4", "covered": "no", "ref:GB:tflcid": "RWG125469"}}, {"type": "node", "id": 10277991538, "lat": 51.3915371, "lon": -0.308094, "tags": {"access": "yes", "amenity": "bicycle_parking", "bicycle_parking": "stands", "capacity": "2", "covered": "yes", "ref:GB:tflcid": "RWG125475"}}, {"type": "node", "id": 10277991539, "lat": 51.3915182, "lon": -0.3081336, "tags": {"amenity": "bicycle_parking", "bicycle_parking": "stands", "capacity": "1", "covered": "yes", "ref:GB:tflcid": "RWG125474"}}, {"type": "node", "id": 10277991818, "lat": 51.3916594, "lon": -0.3099965, "tags": {"amenity": "bicycle_parking", "bicycle_parking": "stands", "capacity": "2", "covered": "no", "ref:GB:tflcid": "RWG125471"}}, {"type": "node", "id": 10277991819, "lat": 51.3916274, "lon": -0.309931, "tags": {"amenity": "bicycle_parking", "bicycle_parking": "stands", "capacity": "2", "covered": "no", "ref:GB:tflcid": "RWG125472"}}, {"type": "node", "id": 10277991820, "lat": 51.3912825, "lon": -0.3094702, "tags": {"amenity": "bicycle_parking", "bicycle_parking": "stands", "capacity": "2", "ref:GB:tflcid": "RWG125464"}}, {"type": "node", "id": 10277991821, "lat": 51.3914293, "lon": -0.3083417, "tags": {"access": "yes", "amenity": "bicycle_parking", "bicycle_parking": "wall_hoops", "capacity": "1", "covered": "yes", "fee": "no", "operator:type": "public", "ref:GB:tflcid": "RWG125587"}}, {"type": "node", "id": 10277991864, "lat": 51.4146066, "lon": -0.3126202, "tags": {"amenity": "bicycle_parking", "bicycle_parking": "stands", "capacity": "30", "covered": "yes", "ref:GB:tflcid": "RWG124842"}}, {"type": "node", "id": 10277991865, "lat": 51.3768953, "lon": -0.3031706, "tags": {"amenity": "bicycle_parking", "bicycle_parking": "stands", "capacity": "4", "ref:GB:tflcid": "RWG205524"}}, {"type": "node", "id": 10277991866, "lat": 51.3743023, "lon": -0.304083, "tags": {"amenity": "bicycle_parking", "bicycle_parking": "stands", "capacity": "6", "ref:GB:tflcid": "RWG125071"}}, {"type": "node", "id": 10277991867, "lat": 51.3681985, "lon": -0.3062642, "tags": {"amenity": "bicycle_parking", "bicycle_parking": "stands", "capacity": "6", "ref:GB:tflcid": "RWG125223"}}, {"type": "node", "id": 10277991899, "lat": 51.4309735, "lon": -0.3069968, "tags": {"amenity": "bicycle_parking", "bicycle_parking": "stands", "capacity": "8", "covered": "no", "ref:GB:tflcid": "RWG125067"}}, {"type": "node", "id": 10277991900, "lat": 51.4307275, "lon": -0.3072193, "tags": {"amenity": "bicycle_parking", "bicycle_parking": "stands", "capacity": "2", "covered": "no", "ref:GB:tflcid": "RWG124914"}}, {"type": "node", "id": 10277991901, "lat": 51.4311019, "lon": -0.3071834, "tags": {"amenity": "bicycle_parking", "bicycle_parking": "stands", "capacity": "2", "covered": "no", "ref:GB:tflcid": "RWG124916"}}, {"type": "node", "id": 10277991902, "lat": 51.4312671, "lon": -0.3071779, "tags": {"amenity": "bicycle_parking", "bicycle_parking": "stands", "capacity": "2", "covered": "no", "ref:GB:tflcid": "RWG124918"}}, {"type": "node", "id": 10277991965, "lat": 51.4306454, "lon": -0.3072227, "tags": {"amenity": "bicycle_parking", "bicycle_parking": "stands", "capacity": "2", "covered": "no", "ref:GB:tflcid": "RWG124913"}}, {"type": "node", "id": 10277991966, "lat": 51.4311847, "lon": -0.3071864, "tags": {"amenity": "bicycle_parking", "bicycle_parking": "stands", "capacity": "2", "covered": "no", "ref:GB:tflcid": "RWG124917"}}, {"type": "node", "id": 10277992119, "lat": 51.4305488, "lon": -0.3072253, "tags": {"amenity": "bicycle_parking", "bicycle_parking": "stands", "capacity": "2", "covered": "no", "ref:GB:tflcid": "RWG124912"}}, {"type": "node", "id": 10277992241, "lat": 51.4312447, "lon": -0.3069683, "tags": {"amenity": "bicycle_parking", "bicycle_parking": "stands", "capacity": "2", "covered": "no", "ref:GB:tflcid": "RWG125066"}}, {"type": "node", "id": 10277993710, "lat": 51.376789, "lon": -0.3030657, "tags": {"amenity": "bicycle_parking", "bicycle_parking": "stands", "capacity": "2", "ref:GB:tflcid": "RWG205523"}}, {"type": "node", "id": 10277995434, "lat": 51.4210681, "lon": -0.3189502, "tags": {"amenity": "bicycle_parking", "bicycle_parking": "stands", "capacity": "4", "ref:GB:tflcid": "RWG125040"}}, {"type": "node", "id": 10277995435, "lat": 51.4208916, "lon": -0.3187469, "tags": {"amenity": "bicycle_parking", "bicycle_parking": "stands", "capacity": "4", "ref:GB:tflcid": "RWG125041"}}, {"type": "node", "id": 10277995436, "lat": 51.4144133, "lon": -0.3127922, "tags": {"amenity": "bicycle_parking", "bicycle_parking": "stands", "capacity": "2", "ref:GB:tflcid": "RWG124846"}}, {"type": "node", "id": 10277995437, "lat": 51.4272806, "lon": -0.3299966, "tags": {"amenity": "bicycle_parking", "capacity": "10", "ref:GB:tflcid": "RWG125409"}}, {"type": "node", "id": 10277995619, "lat": 51.3682262, "lon": -0.3060964, "tags": {"amenity": "bicycle_parking", "bicycle_parking": "stands", "capacity": "4", "ref:GB:tflcid": "RWG125222"}}, {"type": "node", "id": 10277995620, "lat": 51.3720329, "lon": -0.3067714, "tags": {"amenity": "bicycle_parking", "bicycle_parking": "stands", "capacity": "6", "ref:GB:tflcid": "RWG277906"}}, {"type": "node", "id": 10277995682, "lat": 51.430841, "lon": -0.3072124, "tags": {"amenity": "bicycle_parking", "bicycle_parking": "stands", "capacity": "2", "covered": "no", "ref:GB:tflcid": "RWG124915"}}, {"type": "node", "id": 10277996514, "lat": 51.4209127, "lon": -0.3188231, "tags": {"amenity": "bicycle_parking", "bicycle_parking": "stands", "capacity": "8", "ref:GB:tflcid": "RWG125042"}}, {"type": "node", "id": 10277996515, "lat": 51.4214627, "lon": -0.3193345, "tags": {"amenity": "bicycle_parking", "bicycle_parking": "stands", "capacity": "2", "covered": "no", "ref:GB:tflcid": "RWG125037"}}, {"type": "node", "id": 10277996516, "lat": 51.4213615, "lon": -0.3192208, "tags": {"amenity": "bicycle_parking", "bicycle_parking": "stands", "capacity": "1", "covered": "no", "ref:GB:tflcid": "RWG125038"}}, {"type": "node", "id": 10277996517, "lat": 51.4174939, "lon": -0.3201868, "tags": {"amenity": "bicycle_parking", "bicycle_parking": "stands", "capacity": "10", "ref:GB:tflcid": "RWG125098"}}, {"type": "node", "id": 10277996518, "lat": 51.414342, "lon": -0.3127255, "tags": {"amenity": "bicycle_parking", "bicycle_parking": "stands", "capacity": "2", "ref:GB:tflcid": "RWG124845"}}, {"type": "node", "id": 10277996519, "lat": 51.3767622, "lon": -0.3030785, "tags": {"amenity": "bicycle_parking", "bicycle_parking": "stands", "capacity": "2", "ref:GB:tflcid": "RWG205522"}}, {"type": "node", "id": 10277996520, "lat": 51.3761635, "lon": -0.3035497, "tags": {"amenity": "bicycle_parking", "bicycle_parking": "stands", "capacity": "4", "ref:GB:tflcid": "RWG205520"}}, {"type": "node", "id": 10277996521, "lat": 51.376189, "lon": -0.3032669, "tags": {"amenity": "bicycle_parking", "bicycle_parking": "stands", "capacity": "6", "ref:GB:tflcid": "RWG205521"}}, {"type": "node", "id": 10277996522, "lat": 51.3754562, "lon": -0.3038774, "tags": {"amenity": "bicycle_parking", "bicycle_parking": "stands", "capacity": "4", "ref:GB:tflcid": "RWG205519"}}, {"type": "node", "id": 10277996523, "lat": 51.3736106, "lon": -0.3058875, "tags": {"amenity": "bicycle_parking", "capacity": "2", "ref:GB:tflcid": "RWG124923"}}, {"type": "node", "id": 10278000939, "lat": 51.4315949, "lon": -0.3069024, "tags": {"amenity": "bicycle_parking", "bicycle_parking": "stands", "capacity": "2", "covered": "no", "ref:GB:tflcid": "RWG125065"}}, {"type": "node", "id": 10280248278, "lat": 51.3674758, "lon": -0.3062937, "tags": {"amenity": "bicycle_parking", "bicycle_parking": "stands", "capacity": "4", "ref:GB:tflcid": "RWG125220"}}, {"type": "node", "id": 10280252465, "lat": 51.3671699, "lon": -0.3064861, "tags": {"amenity": "bicycle_parking", "bicycle_parking": "stands", "capacity": "4", "ref:GB:tflcid": "RWG125221"}}, {"type": "node", "id": 10280252466, "lat": 51.3674, "lon": -0.3067885, "tags": {"amenity": "bicycle_parking", "bicycle_parking": "stands", "capacity": "4", "ref:GB:tflcid": "RWG125247"}}, {"type": "node", "id": 10280252467, "lat": 51.3636446, "lon": -0.3001704, "tags": {"amenity": "bicycle_parking", "bicycle_parking": "stands", "capacity": "4", "ref:GB:tflcid": "RWG125342"}}, {"type": "node", "id": 10280252468, "lat": 51.3643545, "lon": -0.2986501, "tags": {"amenity": "bicycle_parking", "bicycle_parking": "stands", "capacity": "4", "ref:GB:tflcid": "RWG125351"}}, {"type": "node", "id": 10280252469, "lat": 51.3638036, "lon": -0.2964609, "tags": {"amenity": "bicycle_parking", "bicycle_parking": "stands", "capacity": "6", "covered": "no", "ref:GB:tflcid": "RWG205517"}}, {"type": "node", "id": 10280252486, "lat": 51.3980459, "lon": -0.305204, "tags": {"amenity": "bicycle_parking", "bicycle_parking": "stands", "capacity": "8", "ref:GB:tflcid": "RWG124862"}}, {"type": "node", "id": 10280252487, "lat": 51.3990596, "lon": -0.3024843, "tags": {"amenity": "bicycle_parking", "bicycle_parking": "stands", "capacity": "4", "ref:GB:tflcid": "RWG124867"}}, {"type": "node", "id": 10280259197, "lat": 51.3838339, "lon": -0.2549753, "tags": {"amenity": "bicycle_parking", "bicycle_parking": "stands", "capacity": "6", "ref:GB:tflcid": "RWG125004"}}, {"type": "node", "id": 10280259198, "lat": 51.3872848, "lon": -0.2507106, "tags": {"amenity": "bicycle_parking", "bicycle_parking": "stands", "capacity": "6", "ref:GB:tflcid": "RWG277905"}}, {"type": "node", "id": 10280259400, "lat": 51.3852085, "lon": -0.2522378, "tags": {"amenity": "bicycle_parking", "bicycle_parking": "stands", "capacity": "4", "ref:GB:tflcid": "RWG125018"}}, {"type": "node", "id": 10280260180, "lat": 51.3627008, "lon": -0.3080956, "tags": {"amenity": "bicycle_parking", "bicycle_parking": "stands", "capacity": "4", "covered": "no", "ref:GB:tflcid": "RWG125254"}}, {"type": "node", "id": 10280260181, "lat": 51.3606314, "lon": -0.300863, "tags": {"amenity": "bicycle_parking", "bicycle_parking": "stands", "capacity": "6", "ref:GB:tflcid": "RWG277913"}}, {"type": "node", "id": 10280260273, "lat": 51.3846473, "lon": -0.2650841, "tags": {"access": "private", "amenity": "bicycle_parking", "bicycle_parking": "shed", "capacity": "6", "covered": "yes", "operator": "Cyclehoop Rentals", "ref:GB:tflcid": "RWG124921"}}, {"type": "node", "id": 10280261097, "lat": 51.3840213, "lon": -0.264468, "tags": {"access": "private", "amenity": "bicycle_parking", "bicycle_parking": "shed", "capacity": "6", "covered": "yes", "operator": "Cyclehoop Rentals", "ref:GB:tflcid": "RWG124922"}}, {"type": "node", "id": 10280261098, "lat": 51.3844822, "lon": -0.2637802, "tags": {"access": "private", "amenity": "bicycle_parking", "bicycle_parking": "shed", "capacity": "6", "covered": "yes", "operator": "Cyclehoop Rentals", "ref:GB:tflcid": "RWG124924"}}, {"type": "node", "id": 10280261105, "lat": 51.3918857, "lon": -0.3072834, "tags": {"amenity": "bicycle_parking", "bicycle_parking": "stands", "capacity": "6", "covered": "no", "ref:GB:tflcid": "RWG125589"}}, {"type": "node", "id": 10280261704, "lat": 51.3628496, "lon": -0.3079335, "tags": {"amenity": "bicycle_parking", "bicycle_parking": "stands", "capacity": "6", "ref:GB:tflcid": "RWG125253"}}, {"type": "node", "id": 10280261705, "lat": 51.3632608, "lon": -0.3084448, "tags": {"amenity": "bicycle_parking", "bicycle_parking": "stands", "capacity": "6", "ref:GB:tflcid": "RWG125248"}}, {"type": "node", "id": 10280261706, "lat": 51.3667757, "lon": -0.3066981, "tags": {"amenity": "bicycle_parking", "bicycle_parking": "stands", "capacity": "4", "ref:GB:tflcid": "RWG125249"}}, {"type": "node", "id": 10280261707, "lat": 51.3640455, "lon": -0.2990072, "tags": {"amenity": "bicycle_parking", "bicycle_parking": "stands", "capacity": "10", "ref:GB:tflcid": "RWG125352"}}, {"type": "node", "id": 10280261743, "lat": 51.3981624, "lon": -0.288457, "tags": {"amenity": "bicycle_parking", "capacity": "20", "covered": "yes", "ref:GB:tflcid": "RWG124834"}}, {"type": "node", "id": 10280261744, "lat": 51.3986562, "lon": -0.2897506, "tags": {"amenity": "bicycle_parking", "bicycle_lock": "provided", "bicycle_parking": "two-tier", "capacity": "30", "covered": "yes", "ref:GB:tflcid": "RWG124841"}}, {"type": "node", "id": 10280262716, "lat": 51.3986213, "lon": -0.3041843, "tags": {"amenity": "bicycle_parking", "bicycle_parking": "stands", "capacity": "10", "covered": "yes", "ref:GB:tflcid": "RWG124863"}}, {"type": "node", "id": 10280266232, "lat": 51.4023408, "lon": -0.3039464, "tags": {"amenity": "bicycle_parking", "bicycle_parking": "stands", "capacity": "12", "ref:GB:tflcid": "RWG125113"}}, {"type": "node", "id": 10280266233, "lat": 51.4011942, "lon": -0.2949303, "tags": {"amenity": "bicycle_parking", "bicycle_parking": "stands", "capacity": "6", "ref:GB:tflcid": "RWG124850"}}, {"type": "node", "id": 10280266234, "lat": 51.3984932, "lon": -0.2884366, "tags": {"amenity": "bicycle_parking", "capacity": "20", "covered": "yes", "ref:GB:tflcid": "RWG124836"}}, {"type": "node", "id": 10280266235, "lat": 51.3986784, "lon": -0.2891818, "tags": {"amenity": "bicycle_parking", "capacity": "20", "covered": "yes", "ref:GB:tflcid": "RWG124838"}}, {"type": "node", "id": 10280270531, "lat": 51.3849669, "lon": -0.2518781, "tags": {"amenity": "bicycle_parking", "bicycle_parking": "stands", "capacity": "4", "ref:GB:tflcid": "RWG125035"}}, {"type": "node", "id": 10280270613, "lat": 51.3854636, "lon": -0.2526238, "tags": {"amenity": "bicycle_parking", "bicycle_parking": "stands", "capacity": "6", "ref:GB:tflcid": "RWG125012"}}, {"type": "node", "id": 10280270617, "lat": 51.3829266, "lon": -0.2628535, "tags": {"amenity": "bicycle_parking", "bicycle_parking": "stands", "capacity": "6", "ref:GB:tflcid": "RWG124995"}}, {"type": "node", "id": 10280270618, "lat": 51.38352, "lon": -0.2634368, "tags": {"amenity": "bicycle_parking", "bicycle_parking": "stands", "capacity": "6", "ref:GB:tflcid": "RWG124997"}}, {"type": "node", "id": 10280270725, "lat": 51.3589648, "lon": -0.2953179, "tags": {"amenity": "bicycle_parking", "bicycle_parking": "stands", "capacity": "2", "ref:GB:tflcid": "RWG125316"}}, {"type": "node", "id": 10280272778, "lat": 51.3952562, "lon": -0.3074478, "tags": {"amenity": "bicycle_parking", "bicycle_parking": "stands", "capacity": "2", "ref:GB:tflcid": "RWG125455"}}, {"type": "node", "id": 10280272779, "lat": 51.3933761, "lon": -0.304285, "tags": {"amenity": "bicycle_parking", "bicycle_parking": "stands", "capacity": "4", "covered": "no", "ref:GB:tflcid": "RWG125448"}}, {"type": "node", "id": 10280272917, "lat": 51.4079736, "lon": -0.3075439, "tags": {"amenity": "bicycle_parking", "bicycle_parking": "stands", "capacity": "6", "ref:GB:tflcid": "RWG125177"}}, {"type": "node", "id": 10280272918, "lat": 51.4080058, "lon": -0.3083925, "tags": {"amenity": "bicycle_parking", "bicycle_parking": "stands", "capacity": "6", "ref:GB:tflcid": "RWG205526"}}, {"type": "node", "id": 10280272920, "lat": 51.414219, "lon": -0.3054561, "tags": {"amenity": "bicycle_parking", "bicycle_parking": "stands", "capacity": "16", "covered": "no", "ref:GB:tflcid": "RWG205516"}}, {"type": "node", "id": 10280273736, "lat": 51.3618722, "lon": -0.3020174, "tags": {"amenity": "bicycle_parking", "bicycle_parking": "stands", "capacity": "4", "ref:GB:tflcid": "RWG277911"}}, {"type": "node", "id": 10280273737, "lat": 51.3589879, "lon": -0.2953062, "tags": {"amenity": "bicycle_parking", "bicycle_parking": "stands", "capacity": "2", "ref:GB:tflcid": "RWG125315"}}, {"type": "node", "id": 10280275869, "lat": 51.3860285, "lon": -0.2572584, "tags": {"access": "private", "amenity": "bicycle_parking", "bicycle_parking": "shed", "capacity": "6", "covered": "yes", "operator": "Cyclehoop Rentals", "ref:GB:tflcid": "RWG124944"}}, {"type": "node", "id": 10280275870, "lat": 51.3853666, "lon": -0.2524895, "tags": {"amenity": "bicycle_parking", "bicycle_parking": "stands", "capacity": "4", "ref:GB:tflcid": "RWG125014"}}, {"type": "node", "id": 10280275871, "lat": 51.3847082, "lon": -0.2515213, "tags": {"amenity": "bicycle_parking", "bicycle_parking": "stands", "capacity": "10", "ref:GB:tflcid": "RWG125036"}}, {"type": "node", "id": 10280277481, "lat": 51.3920161, "lon": -0.3029198, "tags": {"access": "private", "amenity": "bicycle_parking", "bicycle_parking": "shed", "capacity": "6", "covered": "yes", "operator": "Cyclehoop Rentals", "ref:GB:tflcid": "RWG205558"}}, {"type": "node", "id": 10280277482, "lat": 51.3920489, "lon": -0.3057845, "tags": {"amenity": "bicycle_parking", "bicycle_parking": "two-tier", "capacity": "168", "covered": "yes", "ref:GB:tflcid": "RWG125603"}}, {"type": "node", "id": 10280277483, "lat": 51.3921691, "lon": -0.3054072, "tags": {"amenity": "bicycle_parking", "bicycle_parking": "stands", "capacity": "30", "covered": "yes", "ref:GB:tflcid": "RWG125576"}}, {"type": "node", "id": 10280277484, "lat": 51.3921244, "lon": -0.3056404, "tags": {"amenity": "bicycle_parking", "bicycle_parking": "stands", "capacity": "8", "covered": "yes", "ref:GB:tflcid": "RWG125602"}}, {"type": "node", "id": 10280277518, "lat": 51.4103751, "lon": -0.3076881, "tags": {"amenity": "bicycle_parking", "bicycle_parking": "stands", "capacity": "12", "ref:GB:tflcid": "RWG205530"}}, {"type": "node", "id": 10280277519, "lat": 51.4021609, "lon": -0.307627, "tags": {"amenity": "bicycle_parking", "capacity": "20", "ref:GB:tflcid": "RWG125056"}}, {"type": "node", "id": 10280277520, "lat": 51.4129816, "lon": -0.3098685, "tags": {"amenity": "bicycle_parking", "capacity": "6", "ref:GB:tflcid": "RWG277929"}}, {"type": "node", "id": 10280277521, "lat": 51.4139919, "lon": -0.3052519, "tags": {"amenity": "bicycle_parking", "bicycle_parking": "stands", "capacity": "6", "covered": "no", "ref:GB:tflcid": "RWG205514"}}, {"type": "node", "id": 10280277522, "lat": 51.4172761, "lon": -0.3049695, "tags": {"amenity": "bicycle_parking", "bicycle_parking": "stands", "capacity": "4", "ref:GB:tflcid": "RWG277918"}}, {"type": "node", "id": 10280277523, "lat": 51.4130091, "lon": -0.3111366, "tags": {"amenity": "bicycle_parking", "bicycle_parking": "stands", "capacity": "2", "ref:GB:tflcid": "RWG124853"}}, {"type": "node", "id": 10280277663, "lat": 51.3853266, "lon": -0.2632287, "tags": {"amenity": "bicycle_parking", "bicycle_parking": "stands", "capacity": "14", "ref:GB:tflcid": "RWG205535"}}, {"type": "node", "id": 10280277664, "lat": 51.3853855, "lon": -0.2633319, "tags": {"amenity": "bicycle_parking", "bicycle_parking": "stands", "capacity": "8", "ref:GB:tflcid": "RWG205575"}}, {"type": "node", "id": 10280277665, "lat": 51.3853261, "lon": -0.2628194, "tags": {"amenity": "bicycle_parking", "bicycle_parking": "stands", "capacity": "8", "ref:GB:tflcid": "RWG205576"}}, {"type": "node", "id": 10280277679, "lat": 51.3921428, "lon": -0.302837, "tags": {"access": "private", "amenity": "bicycle_parking", "bicycle_parking": "shed", "capacity": "6", "covered": "yes", "operator": "Cyclehoop Rentals", "ref:GB:tflcid": "RWG205559"}}, {"type": "node", "id": 10280277680, "lat": 51.3908906, "lon": -0.3073088, "tags": {"amenity": "bicycle_parking", "bicycle_parking": "stands", "capacity": "12", "covered": "no", "ref:GB:tflcid": "RWG125506"}}, {"type": "node", "id": 10280277681, "lat": 51.3926596, "lon": -0.3056103, "tags": {"amenity": "bicycle_parking", "bicycle_parking": "stands", "capacity": "12", "covered": "no", "ref:GB:tflcid": "RWG125594"}}, {"type": "node", "id": 10280285425, "lat": 51.3932398, "lon": -0.3037916, "tags": {"amenity": "bicycle_parking", "bicycle_parking": "stands", "capacity": "4", "ref:GB:tflcid": "RWG125572"}}, {"type": "node", "id": 10280285531, "lat": 51.4140598, "lon": -0.3054216, "tags": {"amenity": "bicycle_parking", "bicycle_parking": "stands", "capacity": "2", "covered": "no", "ref:GB:tflcid": "RWG205515"}}, {"type": "node", "id": 10280285532, "lat": 51.4139739, "lon": -0.305373, "tags": {"amenity": "bicycle_parking", "bicycle_parking": "stands", "capacity": "2", "covered": "no", "ref:GB:tflcid": "RWG205512"}}, {"type": "node", "id": 10280285561, "lat": 51.3933913, "lon": -0.3042854, "tags": {"amenity": "bicycle_parking", "bicycle_parking": "stands", "capacity": "6", "covered": "no", "ref:GB:tflcid": "RWG125449"}}, {"type": "node", "id": 10280285815, "lat": 51.3940398, "lon": -0.3058004, "tags": {"amenity": "bicycle_parking", "bicycle_parking": "stands", "capacity": "10", "ref:GB:tflcid": "RWG125581"}}, {"type": "node", "id": 10280286009, "lat": 51.4103823, "lon": -0.3079128, "tags": {"amenity": "bicycle_parking", "bicycle_parking": "stands", "capacity": "36", "covered": "yes", "ref:GB:tflcid": "RWG205532"}}, {"type": "node", "id": 10280286109, "lat": 51.4103773, "lon": -0.3077664, "tags": {"amenity": "bicycle_parking", "bicycle_parking": "stands", "capacity": "10", "covered": "yes", "ref:GB:tflcid": "RWG277923"}}, {"type": "node", "id": 10280286209, "lat": 51.407777, "lon": -0.3077206, "tags": {"amenity": "bicycle_parking", "bicycle_parking": "stands", "capacity": "12", "ref:GB:tflcid": "RWG125176"}}, {"type": "node", "id": 10280287313, "lat": 51.3933974, "lon": -0.3034599, "tags": {"amenity": "bicycle_parking", "bicycle_parking": "stands", "capacity": "4", "ref:GB:tflcid": "RWG125569"}}, {"type": "node", "id": 10280287809, "lat": 51.3934613, "lon": -0.303747, "tags": {"amenity": "bicycle_parking", "bicycle_parking": "stands", "capacity": "4", "ref:GB:tflcid": "RWG125571"}}, {"type": "node", "id": 10280297144, "lat": 51.3605967, "lon": -0.3011602, "tags": {"amenity": "bicycle_parking", "bicycle_parking": "stands", "capacity": "6", "ref:GB:tflcid": "RWG277912"}}, {"type": "node", "id": 10281997784, "lat": 51.4049965, "lon": -0.2808661, "tags": {"amenity": "bicycle_parking", "bicycle_parking": "wall_loops", "capacity": "5", "ref:GB:tflcid": "RWG125104"}}, {"type": "node", "id": 10281997847, "lat": 51.4044882, "lon": -0.2964508, "tags": {"amenity": "bicycle_parking", "bicycle_parking": "stands", "capacity": "10", "ref:GB:tflcid": "RWG124894"}}, {"type": "node", "id": 10281998450, "lat": 51.4117307, "lon": -0.3127484, "tags": {"amenity": "bicycle_parking", "bicycle_parking": "stands", "capacity": "4", "ref:GB:tflcid": "RWG124859"}}, {"type": "node", "id": 10281998451, "lat": 51.4117858, "lon": -0.3126576, "tags": {"amenity": "bicycle_parking", "bicycle_parking": "stands", "capacity": "2", "ref:GB:tflcid": "RWG124857"}}, {"type": "node", "id": 10281998562, "lat": 51.412441, "lon": -0.2874151, "tags": {"amenity": "bicycle_parking", "bicycle_parking": "stands", "capacity": "12", "ref:GB:tflcid": "RWG125116"}}, {"type": "node", "id": 10281998978, "lat": 51.3834144, "lon": -0.262271, "tags": {"amenity": "bicycle_parking", "bicycle_parking": "stands", "capacity": "4", "ref:GB:tflcid": "RWG124993"}}, {"type": "node", "id": 10281999031, "lat": 51.4122367, "lon": -0.2843701, "tags": {"amenity": "bicycle_parking", "bicycle_parking": "stands", "capacity": "12", "ref:GB:tflcid": "RWG124986"}}, {"type": "node", "id": 10282005110, "lat": 51.4124914, "lon": -0.2871623, "tags": {"amenity": "bicycle_parking", "bicycle_parking": "stands", "capacity": "12", "ref:GB:tflcid": "RWG125115"}}, {"type": "node", "id": 10282005155, "lat": 51.3848806, "lon": -0.2617355, "tags": {"amenity": "bicycle_parking", "bicycle_parking": "stands", "capacity": "12", "covered": "yes", "ref:GB:tflcid": "RWG125070"}}, {"type": "node", "id": 10282005156, "lat": 51.385096, "lon": -0.2624758, "tags": {"amenity": "bicycle_parking", "bicycle_parking": "stands", "capacity": "4", "ref:GB:tflcid": "RWG205536"}}, {"type": "node", "id": 10282005836, "lat": 51.4124235, "lon": -0.2874993, "tags": {"amenity": "bicycle_parking", "bicycle_parking": "stands", "capacity": "8", "ref:GB:tflcid": "RWG125117"}}, {"type": "node", "id": 10282005837, "lat": 51.4125339, "lon": -0.2868371, "tags": {"amenity": "bicycle_parking", "bicycle_parking": "stands", "capacity": "2", "ref:GB:tflcid": "RWG125114"}}, {"type": "node", "id": 10282006211, "lat": 51.3726829, "lon": -0.240899, "tags": {"amenity": "bicycle_parking", "bicycle_parking": "stands", "capacity": "6", "ref:GB:tflcid": "RWG125272"}}, {"type": "node", "id": 10282006226, "lat": 51.4237287, "lon": -0.3212153, "tags": {"amenity": "bicycle_parking", "capacity": "10", "ref:GB:tflcid": "RWG124998"}}, {"type": "node", "id": 10282006244, "lat": 51.4179045, "lon": -0.2857261, "tags": {"amenity": "bicycle_parking", "bicycle_parking": "stands", "capacity": "10", "ref:GB:tflcid": "RWG124947"}}, {"type": "node", "id": 10282006257, "lat": 51.397057, "lon": -0.2768392, "tags": {"amenity": "bicycle_parking", "bicycle_parking": "stands", "capacity": "4", "ref:GB:tflcid": "RWG124870"}}, {"type": "node", "id": 10282006424, "lat": 51.4350113, "lon": -0.2580132, "tags": {"amenity": "bicycle_parking", "bicycle_parking": "stands", "capacity": "6", "ref:GB:tflcid": "RWG124776"}}, {"type": "node", "id": 10282006428, "lat": 51.4318401, "lon": -0.2575196, "tags": {"amenity": "bicycle_parking", "bicycle_parking": "stands", "capacity": "4", "ref:GB:tflcid": "RWG125304"}}, {"type": "node", "id": 10282006455, "lat": 51.403656, "lon": -0.2453109, "tags": {"amenity": "bicycle_parking", "bicycle_parking": "stands", "capacity": "4", "ref:GB:tflcid": "RWG277908"}}, {"type": "node", "id": 10282006472, "lat": 51.41011, "lon": -0.2614669, "tags": {"amenity": "bicycle_parking", "bicycle_parking": "stands", "capacity": "6", "ref:GB:tflcid": "RWG277919"}}, {"type": "node", "id": 10282007421, "lat": 51.4159266, "lon": -0.2884193, "tags": {"amenity": "bicycle_parking", "bicycle_parking": "stands", "capacity": "4", "ref:GB:tflcid": "RWG124945"}}, {"type": "node", "id": 10282007422, "lat": 51.415749, "lon": -0.2883723, "tags": {"amenity": "bicycle_parking", "bicycle_parking": "stands", "capacity": "4", "ref:GB:tflcid": "RWG124943"}}, {"type": "node", "id": 10282007423, "lat": 51.4188827, "lon": -0.3018001, "tags": {"amenity": "bicycle_parking", "bicycle_parking": "wall_loops", "capacity": "15", "ref:GB:tflcid": "RWG124778"}}, {"type": "node", "id": 10282007424, "lat": 51.4181577, "lon": -0.3014769, "tags": {"amenity": "bicycle_parking", "bicycle_parking": "stands", "capacity": "2", "ref:GB:tflcid": "RWG124919"}}, {"type": "node", "id": 10282007425, "lat": 51.421457, "lon": -0.3022125, "tags": {"amenity": "bicycle_parking", "bicycle_parking": "stands", "capacity": "10", "ref:GB:tflcid": "RWG124779"}}, {"type": "node", "id": 10282007426, "lat": 51.4192195, "lon": -0.2934071, "tags": {"amenity": "bicycle_parking", "bicycle_parking": "stands", "capacity": "10", "ref:GB:tflcid": "RWG124868"}}, {"type": "node", "id": 10282007437, "lat": 51.3828991, "lon": -0.2877654, "tags": {"amenity": "bicycle_parking", "bicycle_parking": "stands", "capacity": "4", "ref:GB:tflcid": "RWG125127"}}, {"type": "node", "id": 10282007500, "lat": 51.4138349, "lon": -0.3002296, "tags": {"amenity": "bicycle_parking", "bicycle_parking": "stands", "capacity": "4", "ref:GB:tflcid": "RWG205567"}}, {"type": "node", "id": 10282007501, "lat": 51.4131316, "lon": -0.2980973, "tags": {"amenity": "bicycle_parking", "bicycle_parking": "stands", "capacity": "6", "ref:GB:tflcid": "RWG124966"}}, {"type": "node", "id": 10282007526, "lat": 51.3829158, "lon": -0.2878238, "tags": {"amenity": "bicycle_parking", "bicycle_parking": "stands", "capacity": "4", "ref:GB:tflcid": "RWG125126"}}, {"type": "node", "id": 10282007554, "lat": 51.3814454, "lon": -0.2453191, "tags": {"amenity": "bicycle_parking", "bicycle_parking": "stands", "capacity": "24", "covered": "yes", "ref:GB:tflcid": "RWG125061"}}, {"type": "node", "id": 10282007555, "lat": 51.3794289, "lon": -0.2432697, "tags": {"amenity": "bicycle_parking", "bicycle_parking": "stands", "capacity": "12", "ref:GB:tflcid": "RWG125057"}}, {"type": "node", "id": 10282007574, "lat": 51.406896, "lon": -0.3083258, "tags": {"amenity": "bicycle_parking", "bicycle_parking": "stands", "capacity": "10", "ref:GB:tflcid": "RWG205582"}}, {"type": "node", "id": 10282007613, "lat": 51.4186161, "lon": -0.301729, "tags": {"amenity": "bicycle_parking", "bicycle_parking": "stands", "capacity": "6", "ref:GB:tflcid": "RWG124777"}}, {"type": "node", "id": 10282007622, "lat": 51.3829307, "lon": -0.2878812, "tags": {"amenity": "bicycle_parking", "bicycle_parking": "stands", "capacity": "4", "ref:GB:tflcid": "RWG125125"}}, {"type": "node", "id": 10282007644, "lat": 51.4138547, "lon": -0.3005263, "tags": {"amenity": "bicycle_parking", "bicycle_parking": "stands", "capacity": "4", "ref:GB:tflcid": "RWG205566"}}, {"type": "node", "id": 10282007646, "lat": 51.4076147, "lon": -0.3076353, "tags": {"amenity": "bicycle_parking", "bicycle_parking": "stands", "capacity": "8", "ref:GB:tflcid": "RWG125174"}}, {"type": "node", "id": 10282007647, "lat": 51.4029467, "lon": -0.3080436, "tags": {"amenity": "bicycle_parking", "bicycle_parking": "stands", "capacity": "6", "ref:GB:tflcid": "RWG125022"}}, {"type": "node", "id": 10282007725, "lat": 51.4135301, "lon": -0.28883, "tags": {"amenity": "bicycle_parking", "bicycle_parking": "stands", "capacity": "6", "covered": "no", "ref:GB:tflcid": "RWG124967"}}, {"type": "node", "id": 10282007726, "lat": 51.4163474, "lon": -0.2923267, "tags": {"amenity": "bicycle_parking", "bicycle_parking": "stands", "capacity": "6", "ref:GB:tflcid": "RWG124864"}}, {"type": "node", "id": 10282007771, "lat": 51.3827499, "lon": -0.2871937, "tags": {"amenity": "bicycle_parking", "bicycle_parking": "stands", "capacity": "4", "ref:GB:tflcid": "RWG125128"}}, {"type": "node", "id": 10282007824, "lat": 51.4203171, "lon": -0.2786708, "tags": {"amenity": "bicycle_parking", "bicycle_parking": "stands", "capacity": "4", "ref:GB:tflcid": "RWG124927"}}, {"type": "node", "id": 10282007930, "lat": 51.4063577, "lon": -0.3079637, "tags": {"amenity": "bicycle_parking", "bicycle_parking": "stands", "capacity": "10", "ref:GB:tflcid": "RWG125175"}}, {"type": "node", "id": 10282007952, "lat": 51.4203523, "lon": -0.2788692, "tags": {"amenity": "bicycle_parking", "bicycle_parking": "stands", "capacity": "4", "ref:GB:tflcid": "RWG124928"}}, {"type": "node", "id": 10282007953, "lat": 51.4202694, "lon": -0.2785328, "tags": {"amenity": "bicycle_parking", "bicycle_parking": "stands", "capacity": "2", "ref:GB:tflcid": "RWG124926"}}, {"type": "node", "id": 10282007968, "lat": 51.3897695, "lon": -0.2834536, "tags": {"amenity": "bicycle_parking", "bicycle_parking": "stands", "capacity": "6", "ref:GB:tflcid": "RWG124885"}}, {"type": "node", "id": 10282007969, "lat": 51.3898931, "lon": -0.2819859, "tags": {"amenity": "bicycle_parking", "bicycle_parking": "stands", "capacity": "6", "ref:GB:tflcid": "RWG125432"}}, {"type": "node", "id": 10282007970, "lat": 51.390144, "lon": -0.2825117, "tags": {"amenity": "bicycle_parking", "bicycle_parking": "stands", "capacity": "6", "covered": "no", "ref:GB:tflcid": "RWG125433"}}, {"type": "node", "id": 10282008310, "lat": 51.4165224, "lon": -0.2883765, "tags": {"amenity": "bicycle_parking", "bicycle_parking": "stands", "capacity": "4", "ref:GB:tflcid": "RWG124946"}}, {"type": "node", "id": 10282008357, "lat": 51.3997374, "lon": -0.2423661, "tags": {"amenity": "bicycle_parking", "bicycle_parking": "stands", "capacity": "2", "ref:GB:tflcid": "RWG125048"}}, {"type": "node", "id": 10282008837, "lat": 51.3742552, "lon": -0.2981201, "tags": {"amenity": "bicycle_parking", "bicycle_parking": "stands", "capacity": "2", "ref:GB:tflcid": "RWG205518"}}, {"type": "node", "id": 10282008849, "lat": 51.3934777, "lon": -0.3091086, "tags": {"amenity": "bicycle_parking", "bicycle_parking": "stands", "capacity": "4", "covered": "no", "ref:GB:tflcid": "RWG125458"}}, {"type": "node", "id": 10282009697, "lat": 51.405023, "lon": -0.257363, "tags": {"amenity": "bicycle_parking", "bicycle_parking": "stands", "capacity": "6", "ref:GB:tflcid": "RWG125395"}}, {"type": "node", "id": 10282009698, "lat": 51.4071213, "lon": -0.2574612, "tags": {"amenity": "bicycle_parking", "bicycle_parking": "stands", "capacity": "10", "ref:GB:tflcid": "RWG125377"}}, {"type": "node", "id": 10282010033, "lat": 51.3803625, "lon": -0.2437691, "tags": {"amenity": "bicycle_parking", "bicycle_parking": "stands", "capacity": "4", "ref:GB:tflcid": "RWG205507"}}, {"type": "node", "id": 10282010034, "lat": 51.3803363, "lon": -0.2438309, "tags": {"amenity": "bicycle_parking", "bicycle_parking": "stands", "capacity": "6", "ref:GB:tflcid": "RWG125052"}}, {"type": "node", "id": 10282010461, "lat": 51.395196, "lon": -0.2995832, "tags": {"amenity": "bicycle_parking", "bicycle_parking": "stands", "capacity": "2", "ref:GB:tflcid": "RWG125539"}}, {"type": "node", "id": 10282010462, "lat": 51.3928092, "lon": -0.298338, "tags": {"amenity": "bicycle_parking", "bicycle_parking": "stands", "capacity": "6", "ref:GB:tflcid": "RWG125517"}}, {"type": "node", "id": 10282010465, "lat": 51.3897516, "lon": -0.2978234, "tags": {"amenity": "bicycle_parking", "bicycle_parking": "stands", "capacity": "2", "covered": "no", "ref:GB:tflcid": "RWG124788"}}, {"type": "node", "id": 10282013810, "lat": 51.4157112, "lon": -0.3021028, "tags": {"amenity": "bicycle_parking", "bicycle_parking": "stands", "capacity": "8", "covered": "yes", "ref:GB:tflcid": "RWG124920"}}, {"type": "node", "id": 10282013845, "lat": 51.3890749, "lon": -0.2977898, "tags": {"amenity": "bicycle_parking", "bicycle_parking": "stands", "capacity": "2", "covered": "no", "ref:GB:tflcid": "RWG205560"}}, {"type": "node", "id": 10282015725, "lat": 51.3923682, "lon": -0.2391513, "tags": {"amenity": "bicycle_parking", "capacity": "8", "ref:GB:tflcid": "RWG277916"}}, {"type": "node", "id": 10282015816, "lat": 51.4090444, "lon": -0.2916238, "tags": {"amenity": "bicycle_parking", "bicycle_parking": "stands", "capacity": "4", "covered": "no", "ref:GB:tflcid": "RWG125123"}}, {"type": "node", "id": 10282016957, "lat": 51.4123373, "lon": -0.2878727, "tags": {"amenity": "bicycle_parking", "bicycle_parking": "stands", "capacity": "2", "ref:GB:tflcid": "RWG125119"}}, {"type": "node", "id": 10282016958, "lat": 51.412389, "lon": -0.2876551, "tags": {"amenity": "bicycle_parking", "bicycle_parking": "stands", "capacity": "4", "ref:GB:tflcid": "RWG125118"}}, {"type": "node", "id": 10282018109, "lat": 51.4117575, "lon": -0.3127078, "tags": {"amenity": "bicycle_parking", "bicycle_parking": "stands", "capacity": "6", "ref:GB:tflcid": "RWG124858"}}, {"type": "node", "id": 10282024133, "lat": 51.4005852, "lon": -0.2647313, "tags": {"amenity": "bicycle_parking", "bicycle_parking": "stands", "capacity": "6", "covered": "no", "ref:GB:tflcid": "RWG125429"}}, {"type": "node", "id": 10282024134, "lat": 51.4000168, "lon": -0.2626408, "tags": {"amenity": "bicycle_parking", "bicycle_parking": "stands", "capacity": "4", "ref:GB:tflcid": "RWG125456"}}, {"type": "node", "id": 10282027022, "lat": 51.4297452, "lon": -0.3226855, "tags": {"amenity": "bicycle_parking", "bicycle_parking": "stands", "capacity": "10", "covered": "no", "ref:GB:tflcid": "RWG124954"}}, {"type": "node", "id": 10282027025, "lat": 51.3789143, "lon": -0.3021664, "tags": {"amenity": "bicycle_parking", "bicycle_parking": "stands", "capacity": "4", "ref:GB:tflcid": "RWG205525"}}, {"type": "node", "id": 10282027029, "lat": 51.4178617, "lon": -0.3044191, "tags": {"amenity": "bicycle_parking", "bicycle_parking": "stands", "capacity": "6", "ref:GB:tflcid": "RWG277917"}}, {"type": "node", "id": 10282033322, "lat": 51.3952363, "lon": -0.2550621, "tags": {"amenity": "bicycle_parking", "bicycle_parking": "stands", "capacity": "4", "ref:GB:tflcid": "RWG125033"}}, {"type": "node", "id": 10282034310, "lat": 51.4089575, "lon": -0.2942553, "tags": {"amenity": "bicycle_parking", "bicycle_parking": "stands", "capacity": "6", "ref:GB:tflcid": "RWG125124"}}, {"type": "node", "id": 10931965801, "lat": 51.4084055, "lon": -0.3019535, "tags": {"amenity": "bicycle_parking", "bicycle_parking": "stands"}}, {"type": "node", "id": 10945171978, "lat": 51.3759099, "lon": -0.2776297, "tags": {"amenity": "bicycle_parking", "bicycle_parking": "stands"}}, {"type": "node", "id": 11020732310, "lat": 51.4283165, "lon": -0.3244063, "tags": {"access": "yes", "amenity": "bicycle_parking", "bicycle_parking": "stands", "capacity": "10", "covered": "no", "fee": "yes", "indoor": "no", "lit": "no"}}, {"type": "node", "id": 11149114535, "lat": 51.4096206, "lon": -0.3008742, "tags": {"access": "yes", "amenity": "bicycle_parking", "bicycle_parking": "stands", "capacity": "10", "covered": "yes", "fee": "no", "operator:type": "public"}}, {"type": "node", "id": 11184329726, "lat": 51.3854009, "lon": -0.2632313, "tags": {"access": "yes", "amenity": "bicycle_parking", "bicycle_parking": "stands", "capacity": "4", "covered": "no", "fee": "yes"}}, {"type": "node", "id": 11478456488, "lat": 51.4110734, "lon": -0.3065049, "tags": {"amenity": "bicycle_parking", "bicycle_parking": "stands", "capacity": "16", "covered": "yes"}}, {"type": "node", "id": 11633649603, "lat": 51.4100927, "lon": -0.3010966, "tags": {"access": "yes", "amenity": "bicycle_parking", "bicycle_parking": "stands", "capacity": "20", "covered": "yes", "fee": "no", "indoor": "no", "operator:type": "public"}}, {"type": "node", "id": 11987465198, "lat": 51.367512, "lon": -0.3061276, "tags": {"access": "yes", "amenity": "bicycle_parking", "bicycle_parking": "stands", "capacity": "4", "covered": "no", "fee": "no", "operator:type": "public"}}, {"type": "node", "id": 12521785835, "lat": 51.4016954, "lon": -0.3043166, "tags": {"amenity": "bicycle_parking", "bicycle_parking": "stands", "capacity": "4", "covered": "no"}}, {"type": "node", "id": 12806265359, "lat": 51.4196613, "lon": -0.2890513, "tags": {"amenity": "bicycle_parking", "bicycle_parking": "stands", "capacity": "4", "covered": "no"}}, {"type": "node", "id": 12806280693, "lat": 51.4185019, "lon": -0.2970355, "tags": {"amenity": "bicycle_parking", "bicycle_parking": "stands", "capacity": "2", "covered": "no"}}, {"type": "node", "id": 12806304144, "lat": 51.4187641, "lon": -0.2960859, "tags": {"amenity": "bicycle_parking", "bicycle_parking": "stands", "capacity": "2", "covered": "no"}}, {"type": "node", "id": 12896667430, "lat": 51.410439, "lon": -0.3068203, "tags": {"amenity": "bicycle_parking", "bicycle_parking": "stands", "covered": "no"}}, {"type": "node", "id": 13049952986, "lat": 51.3855345, "lon": -0.29631, "tags": {"access": "yes", "amenity": "bicycle_parking", "bicycle_parking": "lockers", "capacity": "6", "charge": "75gbpdays", "covered": "yes", "fee": "yes", "opening_hours": "24/7", "operator:type": "private"}}, {"type": "node", "id": 13087429777, "lat": 51.344507, "lon": -0.284176, "tags": {"amenity": "bicycle_parking", "bicycle_parking": "stands", "capacity": "20", "covered": "no"}}, {"type": "node", "id": 13198454758, "lat": 51.4041742, "lon": -0.2568971, "tags": {"amenity": "bicycle_parking"}}, {"type": "node", "id": 13198454759, "lat": 51.4041659, "lon": -0.2568946, "tags": {"amenity": "bicycle_parking"}}, {"type": "node", "id": 13336704424, "lat": 51.4153668, "lon": -0.2813786, "tags": {"access": "yes", "amenity": "bicycle_parking", "bicycle_parking": "stands", "capacity": "4", "covered": "yes", "fee": "no", "operator:type": "public"}}, {"type": "node", "id": 13338224631, "lat": 51.4150005, "lon": -0.2809842, "tags": {"access": "yes", "amenity": "bicycle_parking", "bicycle_parking": "stands", "capacity": "6", "covered": "yes", "fee": "no", "operator:type": "public"}}, {"type": "way", "id": 296713163, "center": {"lat": 51.4125568, "lon": -0.2845555}, "nodes": [3005231389, 3005231390, 3005231391, 3005231392, 3005231389], "tags": {"amenity": "bicycle_parking", "bicycle_parking": "shed", "covered": "yes"}}, {"type": "way", "id": 539749985, "center": {"lat": 51.3930597, "lon": -0.3043104}, "nodes": [5222415278, 5222415279, 5222415280, 5222415281, 5222415278], "tags": {"access": "customers", "amenity": "bicycle_parking", "bicycle_parking": "lockers", "covered": "yes", "fee": "yes", "operator": "Brompton Dock", "operator:type": "private", "website": "https://www.bromptonbikehire.com/docks/3144-london:-surbiton-station"}}, {"type": "way", "id": 850120497, "center": {"lat": 51.427684, "lon": -0.3216644}, "nodes": [7931299417, 7931299418, 7931299419, 7931299420, 7931299417], "tags": {"access": "private", "amenity": "bicycle_parking", "bicycle_parking": "shed", "covered": "yes", "operator": "St Mary's University"}}, {"type": "way", "id": 856488883, "center": {"lat": 51.4127477, "lon": -0.3017799}, "nodes": [13416288994, 8694291837, 7985810197, 8694291827, 13416288990, 13416288986, 13416288994], "tags": {"access": "yes", "amenity": "bicycle_parking", "bicycle_parking": "building", "building": "yes", "building:levels": "2", "capacity": "424", "capacity:disabled": "yes", "covered": "yes", "description": "Kingston Station Cycle Hub", "fee": "no", "name": "Cycle Hub", "opening_hours": "24/7"}}, {"type": "way", "id": 905132920, "center": {"lat": 51.4135589, "lon": -0.3094152}, "nodes": [8405746229, 8405746243, 8405746241, 8405746242, 8405746229], "tags": {"access": "private", "amenity": "bicycle_parking", "bicycle_parking": "shed", "building": "yes"}}, {"type": "way", "id": 940722217, "center": {"lat": 51.3497899, "lon": -0.2571296}, "nodes": [1895793885, 8712218190, 8712218191, 8712218192, 8712218193, 1895793885], "tags": {"access": "yes", "amenity": "bicycle_parking", "bicycle_parking": "building", "capacity": "120", "covered": "no", "fee": "no", "name": "Cycle Hub"}}, {"type": "way", "id": 944209439, "center": {"lat": 51.4274091, "lon": -0.308956}, "nodes": [8742064232, 8742064233, 8742064234, 8742064235, 8742064232], "tags": {"amenity": "bicycle_parking", "bicycle_parking": "shed", "building": "yes", "covered": "yes"}}, {"type": "way", "id": 947690316, "center": {"lat": 51.4144483, "lon": -0.3125969}, "nodes": [8771950963, 8771950964, 8771950965, 8771950966, 8771950963], "tags": {"access": "yes", "amenity": "bicycle_parking", "bicycle_parking": "shed", "building": "yes", "covered": "yes", "fee": "no"}}, {"type": "way", "id": 947690317, "center": {"lat": 51.4146477, "lon": -0.3127203}, "nodes": [8771950971, 8771950972, 8771950973, 8771950974, 8771950971], "tags": {"access": "yes", "amenity": "bicycle_parking", "bicycle_parking": "shed", "building": "yes", "capacity": "38", "covered": "yes", "fee": "no"}}, {"type": "way", "id": 957848918, "center": {"lat": 51.3391371, "lon": -0.2630803}, "nodes": [8862963767, 8862963768, 8862963769, 8862963770, 8862963793, 8862963767], "tags": {"access": "private", "amenity": "bicycle_parking", "bicycle_parking": "shed", "building": "yes", "covered": "yes"}}, {"type": "way", "id": 1175323644, "center": {"lat": 51.3588327, "lon": -0.3123541}, "nodes": [10921505394, 10921505395, 10921505396, 10921505397, 10921505394], "tags": {"amenity": "bicycle_parking", "bicycle_parking": "stands", "capacity": "10", "covered": "yes"}}, {"type": "way", "id": 1267088278, "center": {"lat": 51.4281473, "lon": -0.2641353}, "nodes": [11768753726, 11768756510, 11768753727, 11768753728, 11768753729, 11768753726], "tags": {"amenity": "bicycle_parking", "area": "yes"}}, {"type": "way", "id": 1267088279, "center": {"lat": 51.4279927, "lon": -0.2630947}, "nodes": [11768753730, 11768753731, 11768753732, 11768753733, 11768753730], "tags": {"amenity": "bicycle_parking", "area": "yes"}}, {"type": "way", "id": 1267088280, "center": {"lat": 51.4280906, "lon": -0.263029}, "nodes": [11768753734, 11768753735, 11768753736, 11768753737, 11768753734], "tags": {"amenity": "bicycle_parking", "area": "yes"}}, {"type": "way", "id": 1267910897, "center": {"lat": 51.4293774, "lon": -0.2653643}, "nodes": [11775473885, 11775473886, 11775473887, 11775473888, 11775473885], "tags": {"amenity": "bicycle_parking", "area": "yes"}}, {"type": "way", "id": 1270845196, "center": {"lat": 51.4293874, "lon": -0.2656357}, "nodes": [11801785825, 11801785826, 11801785827, 11801785828, 11801785825], "tags": {"amenity": "bicycle_parking", "area": "yes"}}, {"type": "way", "id": 1270845197, "center": {"lat": 51.4293289, "lon": -0.2656849}, "nodes": [11801785829, 11801785830, 11801785831, 11801785832, 11801785829], "tags": {"amenity": "bicycle_parking", "area": "yes"}}, {"type": "way", "id": 1273092183, "center": {"lat": 51.4291837, "lon": -0.2658363}, "nodes": [11822127945, 11822127946, 11822127947, 11822127948, 11822127945], "tags": {"amenity": "bicycle_parking", "area": "yes"}}, {"type": "way", "id": 1273794232, "center": {"lat": 51.429775, "lon": -0.262562}, "nodes": [11828188423, 11828188424, 11828188425, 11828188426, 11828188423], "tags": {"amenity": "bicycle_parking", "area": "yes"}}, {"type": "way", "id": 1273794243, "center": {"lat": 51.4294958, "lon": -0.2642377}, "nodes": [11828215583, 11828215584, 11828215585, 11828215586, 11828215583], "tags": {"amenity": "bicycle_parking", "area": "yes"}}]}