{"version": 0.6, "generator": "Overpass API 0.7.61.8 b1080abd", "osm3s": {"timestamp_osm_base": "2026-02-15T14:44:30Z", "copyright": "The data included in this document is from www.openstreetmap.org. The data is made available under ODbL."}, "elements": [{"type": "node", "id": 1059994182, "lat": 51.5931723, "lon": 0.0286405, "tags": {"amenity": "bicycle_parking", "capacity": "3", "covered": "yes"}}, {"type": "node", "id": 1170052044, "lat": 51.5920982, "lon": 0.0273626, "tags": {"amenity": "bicycle_parking", "capacity": "12"}}, {"type": "node", "id": 1329743130, "lat": 51.550527, "lon": 0.0109902, "tags": {"amenity": "bicycle_parking", "bicycle_parking": "stands", "capacity": "2", "check_date:capacity": "2023-06-05", "covered": "no"}}, {"type": "node", "id": 1337615816, "lat": 51.5522359, "lon": 0.025134, "tags": {"amenity": "bicycle_parking", "bicycle_parking": "stands", "capacity": "6", "covered": "no"}}, {"type": "node", "id": 1337615818, "lat": 51.5495473, "lon": 0.0247394, "tags": {"amenity": "bicycle_parking", "capacity": "6", "name": "Forest Gate station", "note": "6 stands, but too close to fence, so only room for 1 bike on each."}}, {"type": "node", "id": 1337615824, "lat": 51.5498003, "lon": 0.0245864, "tags": {"amenity": "bicycle_parking", "capacity": "8"}}, {"type": "node", "id": 1337615825, "lat": 51.5492154, "lon": 0.0248762, "tags": {"amenity": "bicycle_parking", "bicycle_parking": "stands", "capacity": "2", "covered": "no"}}, {"type": "node", "id": 1337615826, "lat": 51.5491287, "lon": 0.0247018, "tags": {"amenity": "bicycle_parking", "bicycle_parking": "stands", "capacity": "2", "covered": "no", "note": "Close to fence, so only 1 bike per rack"}}, {"type": "node", "id": 1337615827, "lat": 51.5492154, "lon": 0.0247045, "tags": {"amenity": "bicycle_parking", "bicycle_parking": "stands", "capacity": "3", "covered": "no", "note": "Close to fence, so only 1 bike per rack"}}, {"type": "node", "id": 1337615829, "lat": 51.5521425, "lon": 0.0250067, "tags": {"amenity": "bicycle_parking", "capacity": "6", "covered": "no"}}, {"type": "node", "id": 1337615838, "lat": 51.5510875, "lon": 0.0251005, "tags": {"amenity": "bicycle_parking", "bicycle_parking": "stands", "capacity": "6", "covered": "no"}}, {"type": "node", "id": 1337623526, "lat": 51.5471004, "lon": 0.0253187, "tags": {"amenity": "bicycle_parking", "capacity": "1"}}, {"type": "node", "id": 1337623527, "lat": 51.5486187, "lon": 0.0249969, "tags": {"amenity": "bicycle_parking", "capacity": "1", "note": "Too close to fence, so just 1 space"}}, {"type": "node", "id": 1337623528, "lat": 51.5478848, "lon": 0.0253603, "tags": {"amenity": "bicycle_parking", "bicycle_parking": "stands", "capacity": "4", "covered": "no"}}, {"type": "node", "id": 1337623529, "lat": 51.5479328, "lon": 0.0250546, "tags": {"amenity": "bicycle_parking", "bicycle_parking": "stands", "capacity": "2"}}, {"type": "node", "id": 1337623530, "lat": 51.548819, "lon": 0.0247877, "tags": {"amenity": "bicycle_parking", "bicycle_parking": "stands", "capacity": "4", "covered": "no", "lit": "yes"}}, {"type": "node", "id": 1337623531, "lat": 51.5481079, "lon": 0.0249727, "tags": {"amenity": "bicycle_parking", "bicycle_parking": "stands", "capacity": "1", "covered": "no"}}, {"type": "node", "id": 1337623532, "lat": 51.5476062, "lon": 0.0251692, "tags": {"amenity": "bicycle_parking", "bicycle_parking": "stands", "capacity": "2"}}, {"type": "node", "id": 1337623533, "lat": 51.5482447, "lon": 0.0249164, "tags": {"amenity": "bicycle_parking", "capacity": "1"}}, {"type": "node", "id": 1337623534, "lat": 51.5472189, "lon": 0.0252946, "tags": {"amenity": "bicycle_parking", "capacity": "1"}}, {"type": "node", "id": 1337623535, "lat": 51.5478205, "lon": 0.0250927, "tags": {"amenity": "bicycle_parking", "bicycle_parking": "stands", "capacity": "2"}}, {"type": "node", "id": 1337623536, "lat": 51.5475182, "lon": 0.0253885, "tags": {"amenity": "bicycle_parking", "capacity": "2"}}, {"type": "node", "id": 1337623537, "lat": 51.5485065, "lon": 0.0248252, "tags": {"amenity": "bicycle_parking", "capacity": "1", "note": "Too close to fence, so just 1 space"}}, {"type": "node", "id": 1337623538, "lat": 51.5469018, "lon": 0.0255941, "tags": {"amenity": "bicycle_parking", "bicycle_parking": "stands", "capacity": "4", "covered": "no"}}, {"type": "node", "id": 1337623539, "lat": 51.5485581, "lon": 0.0248145, "tags": {"amenity": "bicycle_parking", "capacity": "1", "note": "Too close to fence, so just 1 space"}}, {"type": "node", "id": 1337623540, "lat": 51.5474649, "lon": 0.0252275, "tags": {"amenity": "bicycle_parking", "bicycle_parking": "stands", "capacity": "2"}}, {"type": "node", "id": 1337623543, "lat": 51.5472785, "lon": 0.0254751, "tags": {"amenity": "bicycle_parking", "capacity": "1"}}, {"type": "node", "id": 1337623544, "lat": 51.5483613, "lon": 0.0248788, "tags": {"amenity": "bicycle_parking", "capacity": "1"}}, {"type": "node", "id": 1337631366, "lat": 51.5471441, "lon": 0.0331945, "tags": {"amenity": "bicycle_parking", "bicycle_parking": "stands", "capacity": "2", "covered": "no"}}, {"type": "node", "id": 1337631367, "lat": 51.5490052, "lon": 0.0430669, "tags": {"amenity": "bicycle_parking", "bicycle_parking": "stands", "capacity": "2", "check_date": "2025-10-14", "check_date:capacity": "2025-10-14", "covered": "no", "mapillary": "778675016167842"}}, {"type": "node", "id": 1337631369, "lat": 51.5480516, "lon": 0.0389195, "tags": {"amenity": "bicycle_parking", "bicycle_parking": "stands", "capacity": "2", "check_date": "2022-01-02", "covered": "no", "ref:GB:tflcid": "RWG156863"}}, {"type": "node", "id": 1337631370, "lat": 51.5444916, "lon": 0.0154213, "tags": {"amenity": "bicycle_parking", "bicycle_parking": "stands", "capacity": "26", "covered": "no"}}, {"type": "node", "id": 1337631371, "lat": 51.5470356, "lon": 0.0321917, "tags": {"amenity": "bicycle_parking", "bicycle_parking": "stands", "capacity": "2", "covered": "no"}}, {"type": "node", "id": 1337632484, "lat": 51.5465717, "lon": 0.0272741, "tags": {"amenity": "bicycle_parking", "bicycle_parking": "stands", "capacity": "2", "covered": "no"}}, {"type": "node", "id": 1337633521, "lat": 51.5446294, "lon": 0.0165787, "tags": {"amenity": "bicycle_parking", "bicycle_parking": "stands", "capacity": "1", "covered": "no"}}, {"type": "node", "id": 1337638409, "lat": 51.5452867, "lon": 0.0317701, "tags": {"amenity": "bicycle_parking", "bicycle_parking": "stands", "capacity": "2", "covered": "no"}}, {"type": "node", "id": 1337638410, "lat": 51.5463691, "lon": 0.0314151, "tags": {"amenity": "bicycle_parking", "bicycle_parking": "stands", "capacity": "2", "check_date": "2017-10-20", "covered": "no", "ref:GB:tflcid": "RWG156855"}}, {"type": "node", "id": 1339002572, "lat": 51.5526022, "lon": 0.0466015, "tags": {"amenity": "bicycle_parking", "bicycle_parking": "stands", "capacity": "8", "check_date": "2021-12-12", "covered": "no", "layer": "1", "name": "Manor Park station", "ref:GB:tflcid": "RWG156834"}}, {"type": "node", "id": 1339002588, "lat": 51.5506391, "lon": 0.0471805, "tags": {"amenity": "bicycle_parking", "bicycle_parking": "stands", "capacity": "2", "ref:GB:tflcid": "RWG156829"}}, {"type": "node", "id": 1339002594, "lat": 51.5506199, "lon": 0.0471322, "tags": {"amenity": "bicycle_parking", "bicycle_parking": "stands", "capacity": "2", "ref:GB:tflcid": "RWG156829"}}, {"type": "node", "id": 1339002595, "lat": 51.55066, "lon": 0.0472247, "tags": {"amenity": "bicycle_parking", "bicycle_parking": "stands", "capacity": "2", "ref:GB:tflcid": "RWG156829"}}, {"type": "node", "id": 1339002602, "lat": 51.5502789, "lon": 0.0467406, "tags": {"amenity": "bicycle_parking", "bicycle_parking": "stands", "capacity": "2", "check_date": "2020-06-16", "mapillary": "3002565573340060", "ref:GB:tflcid": "RWG156691", "survey:date": "2020-06-16"}}, {"type": "node", "id": 1339002605, "lat": 51.550541, "lon": 0.0473778, "tags": {"amenity": "bicycle_parking", "bicycle_parking": "stands", "capacity": "2", "check_date": "2017-10-17", "ref:GB:tflcid": "RWG156694"}}, {"type": "node", "id": 1339014331, "lat": 51.5533986, "lon": 0.0553031, "tags": {"amenity": "bicycle_parking", "capacity": "2"}}, {"type": "node", "id": 1339014335, "lat": 51.5534102, "lon": 0.0549803, "tags": {"amenity": "bicycle_parking", "capacity": "2"}}, {"type": "node", "id": 1339014336, "lat": 51.5529933, "lon": 0.0538277, "tags": {"amenity": "bicycle_parking", "bicycle_parking": "stands", "capacity": "4", "check_date": "2020-06-16", "covered": "no", "mapillary": "463470294953471", "ref:GB:tflcid": "RWG157087"}}, {"type": "node", "id": 1339014341, "lat": 51.5530113, "lon": 0.0538789, "tags": {"amenity": "bicycle_parking", "bicycle_parking": "stands", "capacity": "2", "check_date": "2020-06-16", "covered": "no", "mapillary": "685646948903231", "ref:GB:tflcid": "RWG157087"}}, {"type": "node", "id": 1339014343, "lat": 51.5537637, "lon": 0.0559634, "tags": {"amenity": "bicycle_parking", "bicycle_parking": "stands", "capacity": "6", "mapillary": "975490992989418", "survey:date": "2020-06-16"}}, {"type": "node", "id": 1339029386, "lat": 51.5544855, "lon": 0.0585308, "tags": {"amenity": "bicycle_parking", "bicycle_parking": "stands", "capacity": "2", "ref:GB:tflcid": "RWG157073"}}, {"type": "node", "id": 1339029388, "lat": 51.5542808, "lon": 0.058193, "tags": {"amenity": "bicycle_parking", "bicycle_parking": "stands", "capacity": "4", "check_date": "2020-06-16", "mapillary": "3986128201422421", "ref:GB:tflcid": "RWG156813"}}, {"type": "node", "id": 1339029390, "lat": 51.5549226, "lon": 0.060473, "tags": {"amenity": "bicycle_parking", "capacity": "2"}}, {"type": "node", "id": 1339029392, "lat": 51.554129, "lon": 0.057102, "tags": {"amenity": "bicycle_parking", "capacity": "2"}}, {"type": "node", "id": 1339029394, "lat": 51.5546843, "lon": 0.0591794, "tags": {"amenity": "bicycle_parking", "capacity": "2"}}, {"type": "node", "id": 1339029395, "lat": 51.5551023, "lon": 0.060544, "tags": {"amenity": "bicycle_parking", "capacity": "4"}}, {"type": "node", "id": 1339065249, "lat": 51.5521185, "lon": 0.0514063, "tags": {"amenity": "bicycle_parking", "capacity": "2"}}, {"type": "node", "id": 1339065252, "lat": 51.5516515, "lon": 0.0498641, "tags": {"amenity": "bicycle_parking", "bicycle_parking": "stands", "capacity": "2", "mapillary": "198352532114945", "survey:date": "2020-06-16"}}, {"type": "node", "id": 1339065255, "lat": 51.5541398, "lon": 0.057578, "tags": {"amenity": "bicycle_parking", "capacity": "2"}}, {"type": "node", "id": 1339065256, "lat": 51.552781, "lon": 0.0533876, "tags": {"amenity": "bicycle_parking", "bicycle_parking": "stands", "capacity": "2", "check_date": "2020-06-16", "covered": "no", "mapillary": "150991360373664", "ref:GB:tflcid": "RWG157090"}}, {"type": "node", "id": 1339065258, "lat": 51.5524854, "lon": 0.0525368, "tags": {"amenity": "bicycle_parking", "capacity": "2"}}, {"type": "node", "id": 1339065260, "lat": 51.551699, "lon": 0.050438, "tags": {"amenity": "bicycle_parking", "capacity": "2"}}, {"type": "node", "id": 1339065261, "lat": 51.55193, "lon": 0.0507974, "tags": {"amenity": "bicycle_parking", "capacity": "2"}}, {"type": "node", "id": 1339065262, "lat": 51.5522469, "lon": 0.0518032, "tags": {"amenity": "bicycle_parking", "bicycle_parking": "stands", "capacity": "2", "mapillary": "503165304460139", "survey:date": "2020-06-16"}}, {"type": "node", "id": 1339065266, "lat": 51.5523144, "lon": 0.0524014, "tags": {"amenity": "bicycle_parking", "capacity": "2"}}, {"type": "node", "id": 1339065269, "lat": 51.5521251, "lon": 0.0518341, "tags": {"amenity": "bicycle_parking", "bicycle_parking": "stands", "capacity": "4", "mapillary": "3003457289898585", "survey:date": "2020-06-16"}}, {"type": "node", "id": 1339065272, "lat": 51.5524203, "lon": 0.0523357, "tags": {"amenity": "bicycle_parking", "capacity": "2"}}, {"type": "node", "id": 1339065273, "lat": 51.5509049, "lon": 0.0477705, "tags": {"amenity": "bicycle_parking", "bicycle_parking": "stands", "capacity": "2", "check_date": "2017-10-27", "ref:GB:tflcid": "RWG157098"}}, {"type": "node", "id": 1339065274, "lat": 51.5526132, "lon": 0.0532862, "tags": {"amenity": "bicycle_parking", "bicycle_parking": "stands", "capacity": "2", "check_date": "2017-10-19", "ref:GB:tflcid": "RWG156798"}}, {"type": "node", "id": 1339065277, "lat": 51.5512404, "lon": 0.0490106, "tags": {"amenity": "bicycle_parking", "capacity": "4"}}, {"type": "node", "id": 1339065278, "lat": 51.5509221, "lon": 0.0481594, "tags": {"amenity": "bicycle_parking", "bicycle_parking": "stands", "capacity": "2", "check_date": "2020-06-16", "mapillary": "975413682997685", "ref:GB:tflcid": "RWG156781"}}, {"type": "node", "id": 1339065280, "lat": 51.5518225, "lon": 0.050422, "tags": {"amenity": "bicycle_parking", "capacity": "2"}}, {"type": "node", "id": 1339065282, "lat": 51.5522554, "lon": 0.0522874, "tags": {"amenity": "bicycle_parking", "bicycle_parking": "stands", "capacity": "2", "mapillary": "743497343014400", "survey:date": "2020-06-16"}}, {"type": "node", "id": 1339065283, "lat": 51.5521377, "lon": 0.0514707, "tags": {"amenity": "bicycle_parking", "bicycle_parking": "stands", "capacity": "2", "mapillary": "943097383182451", "survey:date": "2020-06-16"}}, {"type": "node", "id": 1339066848, "lat": 51.5499818, "lon": 0.0456603, "tags": {"amenity": "bicycle_parking", "bicycle_parking": "stands", "capacity": "2", "check_date": "2020-06-16", "mapillary": "303415467917548", "ref:GB:tflcid": "RWG156824", "survey:date": "2020-06-16"}}, {"type": "node", "id": 1339078983, "lat": 51.5451913, "lon": 0.0495143, "tags": {"amenity": "bicycle_parking", "bicycle_parking": "stands", "capacity": "2", "check_date": "2017-10-16", "ref:GB:tflcid": "RWG156664"}}, {"type": "node", "id": 1339078985, "lat": 51.5442991, "lon": 0.0496448, "tags": {"amenity": "bicycle_parking", "bicycle_parking": "stands", "capacity": "2", "check_date": "2017-10-17", "ref:GB:tflcid": "RWG156676"}}, {"type": "node", "id": 1339078988, "lat": 51.5450677, "lon": 0.0495515, "tags": {"amenity": "bicycle_parking", "bicycle_parking": "stands", "capacity": "2", "check_date": "2022-01-02", "covered": "no", "ref:GB:tflcid": "RWG156663"}}, {"type": "node", "id": 1339078995, "lat": 51.5451513, "lon": 0.0493887, "tags": {"amenity": "bicycle_parking", "bicycle_parking": "stands", "capacity": "2", "check_date": "2022-01-02", "covered": "no", "ref:GB:tflcid": "RWG156677"}}, {"type": "node", "id": 1339078996, "lat": 51.5475044, "lon": 0.0485604, "tags": {"amenity": "bicycle_parking", "bicycle_parking": "stands", "capacity": "2", "check_date": "2022-01-02", "covered": "no", "ref:GB:tflcid": "RWG156668"}}, {"type": "node", "id": 1339078997, "lat": 51.5435783, "lon": 0.0499376, "tags": {"amenity": "bicycle_parking", "bicycle_parking": "stands", "capacity": "2", "check_date": "2022-01-02", "covered": "no", "ref:GB:tflcid": "RWG156661"}}, {"type": "node", "id": 1339079000, "lat": 51.5459631, "lon": 0.0490781, "tags": {"amenity": "bicycle_parking", "bicycle_parking": "stands", "capacity": "2", "covered": "no"}}, {"type": "node", "id": 1339080138, "lat": 51.5474508, "lon": 0.0627664, "tags": {"amenity": "bicycle_parking", "bicycle_parking": "stands", "capacity": "2", "check_date": "2017-11-07", "ref:GB:tflcid": "RWG157230"}}, {"type": "node", "id": 1339089680, "lat": 51.5534612, "lon": 0.0168016, "tags": {"amenity": "bicycle_parking", "bicycle_parking": "stands", "capacity": "2"}}, {"type": "node", "id": 1596230376, "lat": 51.5463546, "lon": 0.0265689, "tags": {"amenity": "bicycle_parking", "bicycle_parking": "stands", "capacity": "2", "covered": "no"}}, {"type": "node", "id": 1777173941, "lat": 51.595569, "lon": 0.0907633, "tags": {"amenity": "bicycle_parking", "bicycle_parking": "stands", "capacity": "48", "covered": "yes", "note": "half covered and half uncovered"}}, {"type": "node", "id": 2376361854, "lat": 51.5682597, "lon": 0.011026, "tags": {"amenity": "bicycle_parking", "bicycle_parking": "stands", "capacity": "6", "covered": "no"}}, {"type": "node", "id": 2376361864, "lat": 51.5692171, "lon": 0.0099136, "tags": {"access": "yes", "amenity": "bicycle_parking", "bicycle_parking": "stands", "capacity": "20", "covered": "no"}}, {"type": "node", "id": 2376361865, "lat": 51.5693947, "lon": 0.0123007, "tags": {"amenity": "bicycle_parking", "bicycle_parking": "stands", "capacity": "8", "covered": "no"}}, {"type": "node", "id": 2376361866, "lat": 51.5696458, "lon": 0.0127404, "tags": {"amenity": "bicycle_parking", "bicycle_parking": "stands", "capacity": "8", "covered": "no"}}, {"type": "node", "id": 2376604104, "lat": 51.563062, "lon": 0.009425, "tags": {"amenity": "bicycle_parking", "bicycle_parking": "stands", "capacity": "12", "check_date:capacity": "2022-12-21", "covered": "yes"}}, {"type": "node", "id": 2376604105, "lat": 51.5633557, "lon": 0.009774, "tags": {"amenity": "bicycle_parking", "bicycle_parking": "stands", "capacity": "4", "check_date:capacity": "2025-11-01", "covered": "no"}}, {"type": "node", "id": 2376604106, "lat": 51.5635051, "lon": 0.0096373, "tags": {"amenity": "bicycle_parking", "bicycle_parking": "stands", "capacity": "4", "covered": "no"}}, {"type": "node", "id": 2376604111, "lat": 51.5662336, "lon": 0.0101732, "tags": {"amenity": "bicycle_parking", "bicycle_parking": "stands", "capacity": "4", "covered": "no"}}, {"type": "node", "id": 2376604120, "lat": 51.5683292, "lon": 0.0090106, "tags": {"amenity": "bicycle_parking", "bicycle_parking": "stands", "capacity": "32", "covered": "no"}}, {"type": "node", "id": 2376604122, "lat": 51.5684337, "lon": 0.0109655, "tags": {"amenity": "bicycle_parking", "bicycle_parking": "stands", "capacity": "10", "covered": "no"}}, {"type": "node", "id": 2378048696, "lat": 51.5646296, "lon": 0.0098533, "tags": {"amenity": "bicycle_parking", "bicycle_parking": "stands", "capacity": "4", "check_date:capacity": "2021-07-19", "covered": "no"}}, {"type": "node", "id": 2415406972, "lat": 51.5565489, "lon": 0.0202719, "tags": {"amenity": "bicycle_parking", "bicycle_parking": "stands", "capacity": "6", "covered": "no"}}, {"type": "node", "id": 2415407076, "lat": 51.5586444, "lon": 0.0190776, "tags": {"amenity": "bicycle_parking", "bicycle_parking": "stands", "capacity": "10", "covered": "no"}}, {"type": "node", "id": 2498848583, "lat": 51.5670945, "lon": 0.0106079, "tags": {"amenity": "bicycle_parking", "bicycle_parking": "stands", "capacity": "6", "covered": "no"}}, {"type": "node", "id": 2498848586, "lat": 51.5659588, "lon": 0.0101517, "tags": {"amenity": "bicycle_parking", "bicycle_parking": "stands", "capacity": "2", "covered": "no"}}, {"type": "node", "id": 2498848593, "lat": 51.56636, "lon": 0.0102111, "tags": {"amenity": "bicycle_parking", "bicycle_parking": "stands", "capacity": "4", "check_date:capacity": "2022-06-19", "covered": "no"}}, {"type": "node", "id": 2498848601, "lat": 51.5642942, "lon": 0.0099991, "tags": {"amenity": "bicycle_parking", "bicycle_parking": "stands", "capacity": "4", "check_date:capacity": "2025-11-01", "covered": "no"}}, {"type": "node", "id": 2498848604, "lat": 51.5660905, "lon": 0.0101672, "tags": {"amenity": "bicycle_parking", "bicycle_parking": "stands", "capacity": "2", "covered": "no"}}, {"type": "node", "id": 2498848612, "lat": 51.5688268, "lon": 0.0116068, "tags": {"amenity": "bicycle_parking", "bicycle_parking": "stands", "capacity": "8", "check_date:capacity": "2022-06-04", "covered": "no"}}, {"type": "node", "id": 2629051183, "lat": 51.5861627, "lon": 0.0885718, "tags": {"amenity": "bicycle_parking", "bicycle_parking": "stands", "capacity": "16", "operator": "TFL"}}, {"type": "node", "id": 2629051347, "lat": 51.5868974, "lon": 0.0857107, "tags": {"amenity": "bicycle_parking", "capacity": "6"}}, {"type": "node", "id": 3666562724, "lat": 51.6240054, "lon": 0.0325296, "tags": {"amenity": "bicycle_parking", "bicycle_parking": "stands", "capacity": "4", "covered": "yes", "layer": "-1"}}, {"type": "node", "id": 3679001329, "lat": 51.5616449, "lon": 0.118103, "tags": {"amenity": "bicycle_parking", "source": "gps+mapnoter"}}, {"type": "node", "id": 4256081998, "lat": 51.5758198, "lon": 0.0904931, "tags": {"amenity": "bicycle_parking", "bicycle_parking": "stands", "operator": "TfL"}}, {"type": "node", "id": 4256117438, "lat": 51.5641102, "lon": 0.0974755, "tags": {"amenity": "bicycle_parking", "bicycle_parking": "rack", "operator": "TfL"}}, {"type": "node", "id": 4256124679, "lat": 51.57686, "lon": 0.0660731, "tags": {"amenity": "bicycle_parking", "bicycle_parking": "rack"}}, {"type": "node", "id": 4256124680, "lat": 51.5773231, "lon": 0.0659522, "tags": {"amenity": "bicycle_parking", "bicycle_parking": "rack", "capacity": "14", "fee": "no"}}, {"type": "node", "id": 4256124681, "lat": 51.5760831, "lon": 0.0458016, "tags": {"amenity": "bicycle_parking", "bicycle_parking": "rack", "capacity": "6", "covered": "no", "operator": "TfL"}}, {"type": "node", "id": 4256333710, "lat": 51.6040148, "lon": 0.093743, "tags": {"amenity": "bicycle_parking", "bicycle_parking": "rack", "covered": "yes", "operator": "TfL"}}, {"type": "node", "id": 4256370817, "lat": 51.6075586, "lon": 0.0346317, "tags": {"amenity": "bicycle_parking", "bicycle_parking": "rack", "operator": "TfL"}}, {"type": "node", "id": 4256370818, "lat": 51.6068854, "lon": 0.0334801, "tags": {"amenity": "bicycle_parking", "bicycle_parking": "rack", "covered": "yes", "fee": "no", "operator": "TfL"}}, {"type": "node", "id": 4258664737, "lat": 51.6060496, "lon": 0.054226, "tags": {"access": "yes", "amenity": "bicycle_parking", "bicycle_parking": "stands", "capacity": "8", "covered": "no", "fee": "no", "indoor": "no", "level": "0", "lit": "no", "source": "survey"}}, {"type": "node", "id": 4258694252, "lat": 51.593513, "lon": 0.0847636, "tags": {"amenity": "bicycle_parking", "bicycle_parking": "stands"}}, {"type": "node", "id": 4258694253, "lat": 51.5931746, "lon": 0.0859182, "tags": {"amenity": "bicycle_parking", "bicycle_parking": "rack"}}, {"type": "node", "id": 4258719684, "lat": 51.5755376, "lon": 0.028392, "tags": {"amenity": "bicycle_parking", "bicycle_parking": "stands", "capacity": "12", "check_date": "2022-08-07", "covered": "no", "operator": "TfL"}}, {"type": "node", "id": 4265865062, "lat": 51.5725272, "lon": 0.1040224, "tags": {"amenity": "bicycle_parking", "capacity": "6", "source": "gps+mapnoter"}}, {"type": "node", "id": 4265926707, "lat": 51.5728621, "lon": 0.0989467, "tags": {"amenity": "bicycle_parking", "capacity": "6", "source": "gps+mapnoter"}}, {"type": "node", "id": 4313691200, "lat": 51.5785073, "lon": 0.0258585, "tags": {"amenity": "bicycle_parking", "bicycle_parking": "stands", "capacity": "6", "covered": "no"}}, {"type": "node", "id": 4313691217, "lat": 51.577497, "lon": 0.0266713, "tags": {"amenity": "bicycle_parking", "bicycle_parking": "stands", "capacity": "6", "check_date": "2022-08-07", "covered": "no"}}, {"type": "node", "id": 4654216328, "lat": 51.6083196, "lon": 0.1078277, "tags": {"amenity": "bicycle_parking", "bicycle_parking": "stands", "capacity": "6", "source": "survey;gps"}}, {"type": "node", "id": 4654216329, "lat": 51.6082822, "lon": 0.1073918, "tags": {"amenity": "bicycle_parking", "bicycle_parking": "stands", "capacity": "6", "source": "survey;gps"}}, {"type": "node", "id": 4654216330, "lat": 51.6082447, "lon": 0.1068098, "tags": {"amenity": "bicycle_parking", "bicycle_parking": "stands", "capacity": "6", "source": "survey;gps"}}, {"type": "node", "id": 4654216331, "lat": 51.6082426, "lon": 0.1065932, "tags": {"amenity": "bicycle_parking", "bicycle_parking": "stands", "capacity": "6", "source": "survey;gps"}}, {"type": "node", "id": 4654216332, "lat": 51.6082384, "lon": 0.1063954, "tags": {"amenity": "bicycle_parking", "bicycle_parking": "stands", "capacity": "6", "source": "survey;gps"}}, {"type": "node", "id": 4654216333, "lat": 51.6082393, "lon": 0.1063558, "tags": {"amenity": "bicycle_parking", "bicycle_parking": "stands", "capacity": "6", "source": "survey;gps"}}, {"type": "node", "id": 4654216365, "lat": 51.6082478, "lon": 0.1060128, "tags": {"amenity": "bicycle_parking", "bicycle_parking": "stands", "capacity": "6", "source": "survey;gps"}}, {"type": "node", "id": 4654216366, "lat": 51.6082701, "lon": 0.105586, "tags": {"amenity": "bicycle_parking", "bicycle_parking": "stands", "capacity": "6", "source": "survey;gps"}}, {"type": "node", "id": 4830348287, "lat": 51.6150826, "lon": 0.134214, "tags": {"amenity": "bicycle_parking", "covered": "yes"}}, {"type": "node", "id": 4971995232, "lat": 51.5652576, "lon": 0.0673414, "tags": {"amenity": "bicycle_parking", "bicycle_parking": "stands", "source": "gps+mapnoter"}}, {"type": "node", "id": 4972071285, "lat": 51.5680503, "lon": 0.0694997, "tags": {"amenity": "bicycle_parking"}}, {"type": "node", "id": 4972321833, "lat": 51.5708489, "lon": 0.0669655, "tags": {"amenity": "bicycle_parking", "source": "gps+mapnoter"}}, {"type": "node", "id": 4976322210, "lat": 51.5612259, "lon": 0.0087026, "tags": {"amenity": "bicycle_parking", "bicycle_parking": "stands", "capacity": "8", "check_date:capacity": "2025-11-01", "covered": "no"}}, {"type": "node", "id": 5002838761, "lat": 51.5702842, "lon": 0.0141875, "tags": {"amenity": "bicycle_parking", "bicycle_parking": "stands", "capacity": "6", "covered": "no"}}, {"type": "node", "id": 5002838762, "lat": 51.5702438, "lon": 0.0141134, "tags": {"amenity": "bicycle_parking", "bicycle_parking": "stands", "capacity": "6", "covered": "no"}}, {"type": "node", "id": 5008506919, "lat": 51.5689477, "lon": 0.0126607, "tags": {"amenity": "bicycle_parking", "bicycle_parking": "stands", "capacity": "20"}}, {"type": "node", "id": 5013047113, "lat": 51.567061, "lon": 0.0107184, "tags": {"access": "private", "amenity": "bicycle_parking", "bicycle_parking": "shed", "fee": "yes", "note": "Small shelter called a \"Bikehangar\" - it is necessary to apply to rent a space to use it at www.cyclehoop.rentals. Has \"Cycle Waltham Forest\" branding and Waltham Forest Council's logo on it", "operator": "Cyclehoop", "ref": "689"}}, {"type": "node", "id": 5194187549, "lat": 51.5764136, "lon": 0.0449588, "tags": {"amenity": "bicycle_parking", "bicycle_parking": "stands", "capacity": "8"}}, {"type": "node", "id": 5194391232, "lat": 51.5821429, "lon": 0.0573598, "tags": {"amenity": "bicycle_parking", "bicycle_parking": "stands", "capacity": "8"}}, {"type": "node", "id": 5418776500, "lat": 51.5445632, "lon": 0.0116026, "tags": {"access": "private", "amenity": "bicycle_parking", "bicycle_parking": "stands", "capacity": "6", "covered": "yes", "operator": "Cyclehoop Rentals", "ref": "965", "website": "https://www.cyclehoop.rentals/properties/hangar-965-outside-10-torrens-road-newham/"}}, {"type": "node", "id": 5535338952, "lat": 51.5995914, "lon": 0.0201265, "tags": {"amenity": "bicycle_parking", "bicycle_parking": "stands", "capacity": "3", "covered": "no"}}, {"type": "node", "id": 5582949612, "lat": 51.5465268, "lon": 0.0103771, "tags": {"access": "private", "addr:city": "London", "addr:housenumber": "77", "addr:postcode": "E15 4NR", "addr:street": "Keogh Road", "addr:suburb": "Stratford", "amenity": "bicycle_parking", "bicycle_parking": "stands", "capacity": "6", "covered": "yes", "operator": "Cyclehoop", "ref": "1102"}}, {"type": "node", "id": 5599504612, "lat": 51.5598677, "lon": 0.0696672, "tags": {"amenity": "bicycle_parking"}}, {"type": "node", "id": 5599504613, "lat": 51.5596027, "lon": 0.0701871, "tags": {"amenity": "bicycle_parking"}}, {"type": "node", "id": 5790149703, "lat": 51.5506792, "lon": 0.0104579, "tags": {"access": "private", "addr:city": "London", "addr:street": "Gurney Road", "amenity": "bicycle_parking", "bicycle_parking": "shed", "capacity": "6", "contact:phone": "+44 20 8699 1338", "contact:website": "https://cyclehoop.force.com/RentalsCommunity/yourcycleparking?id=a0h0O00002OCHA9QAP", "covered": "yes", "fee": "yes", "name": "bikehangar", "nohousenumber": "yes", "operator": "cyclehoop", "ref": "1263", "supervised": "no"}}, {"type": "node", "id": 6104381861, "lat": 51.5807438, "lon": 0.0212734, "tags": {"amenity": "bicycle_parking", "bicycle_parking": "stands"}}, {"type": "node", "id": 6116222235, "lat": 51.554107, "lon": 0.0159292, "tags": {"access": "private", "amenity": "bicycle_parking", "bicycle_parking": "shed", "capacity": "6", "contact:phone": "+44 20 8699 1338", "contact:website": "https://www.cyclehoop.rentals/", "covered": "yes", "fee": "yes", "name": "bikehangar", "operator": "cyclehoop", "ref": "Bikehangar 692", "supervised": "no"}}, {"type": "node", "id": 6119525965, "lat": 51.5484359, "lon": 0.0248557, "tags": {"amenity": "bicycle_parking", "capacity": "1", "note": "Too close to fence, so just 1 space"}}, {"type": "node", "id": 6119888109, "lat": 51.5528991, "lon": 0.0299764, "tags": {"access": "private", "amenity": "bicycle_parking", "bicycle_parking": "shed", "capacity": "6", "contact:phone": "+44 20 8699 1338", "contact:website": "https://www.cyclehoop.rentals/", "covered": "yes", "fee": "yes", "name": "bikehangar", "operator": "cyclehoop", "ref": "956", "supervised": "no"}}, {"type": "node", "id": 6239567386, "lat": 51.608455, "lon": 0.0099767, "tags": {"amenity": "bicycle_parking", "bicycle_parking": "stands", "capacity": "10", "covered": "no", "fee": "no"}}, {"type": "node", "id": 6271673729, "lat": 51.5436124, "lon": 0.0141976, "tags": {"access": "private", "addr:city": "London", "addr:housenumber": "23-42", "addr:postcode": "E15 4JU", "addr:street": "Townley Court", "addr:suburb": "Stratford", "amenity": "bicycle_parking", "bicycle_parking": "stands", "capacity": "6", "covered": "yes", "operator": "Cyclehoop", "ref": "659"}}, {"type": "node", "id": 6283060976, "lat": 51.5460575, "lon": 0.1121497, "tags": {"amenity": "bicycle_parking", "bicycle_parking": "stands", "covered": "yes"}}, {"type": "node", "id": 6310893938, "lat": 51.5922614, "lon": 0.0276731, "tags": {"amenity": "bicycle_parking"}}, {"type": "node", "id": 6343348894, "lat": 51.5445068, "lon": 0.0149601, "tags": {"access": "private", "amenity": "bicycle_parking", "bicycle_parking": "stands", "capacity": "10", "covered": "yes"}}, {"type": "node", "id": 6593922061, "lat": 51.5524844, "lon": 0.0467721, "tags": {"amenity": "bicycle_parking", "bicycle_parking": "stands", "capacity": "8", "check_date": "2021-12-12", "covered": "no", "layer": "1", "name": "Manor Park station", "ref:GB:tflcid": "RWG156833"}}, {"type": "node", "id": 6593922095, "lat": 51.5524522, "lon": 0.0466548, "tags": {"amenity": "bicycle_parking", "bicycle_parking": "stands", "capacity": "10", "check_date": "2021-12-12", "covered": "no", "layer": "1", "name": "Manor Park station", "ref:GB:tflcid": "RWG156831"}}, {"type": "node", "id": 6593922115, "lat": 51.5526322, "lon": 0.0467221, "tags": {"amenity": "bicycle_parking", "bicycle_parking": "stands", "capacity": "10", "check_date": "2021-12-12", "covered": "no", "layer": "1", "name": "Manor Park station", "ref:GB:tflcid": "RWG156835"}}, {"type": "node", "id": 6598895017, "lat": 51.6172022, "lon": 0.0438232, "tags": {"amenity": "bicycle_parking", "bicycle_parking": "stands", "capacity": "6", "covered": "no"}}, {"type": "node", "id": 6612395018, "lat": 51.595157, "lon": 0.0223154, "tags": {"amenity": "bicycle_parking", "bicycle_parking": "stands", "covered": "no", "fee": "no"}}, {"type": "node", "id": 6684345933, "lat": 51.5485055, "lon": 0.0107389, "tags": {"access": "private", "addr:city": "London", "addr:postcode": "E15 1RS", "addr:street": "Carroll Close", "amenity": "bicycle_parking", "bicycle_parking": "stands", "capacity": "6", "covered": "yes", "fee": "yes", "operator": "Cyclehoop Rentals", "operator:type": "private", "ref": "1264"}}, {"type": "node", "id": 6703281011, "lat": 51.5486864, "lon": 0.0146324, "tags": {"access": "private", "addr:city": "London", "addr:street": "Gurney Road", "amenity": "bicycle_parking", "bicycle_parking": "shed", "capacity": "6", "contact:phone": "+44 20 8699 1338", "contact:website": "https://cyclehoop.force.com/RentalsCommunity/yourcycleparking?id=a0h0O00002OCDdQQAX", "covered": "yes", "fee": "yes", "name": "bikehangar", "operator": "cyclehoop", "ref": "Bikehangar 1099", "source": "survey", "supervised": "no"}}, {"type": "node", "id": 7231517316, "lat": 51.5871298, "lon": 0.0434729, "tags": {"amenity": "bicycle_parking", "bicycle_parking": "wall_loops", "capacity": "2"}}, {"type": "node", "id": 7620508996, "lat": 51.5696911, "lon": 0.0104551, "tags": {"amenity": "bicycle_parking"}}, {"type": "node", "id": 7843913537, "lat": 51.5852296, "lon": 0.1329166, "tags": {"access": "private", "amenity": "bicycle_parking", "bicycle_parking": "lockers", "capacity": "6"}}, {"type": "node", "id": 7846165686, "lat": 51.5840818, "lon": 0.1305923, "tags": {"amenity": "bicycle_parking", "bicycle_parking": "lockers", "capacity": "6"}}, {"type": "node", "id": 7846165687, "lat": 51.5842954, "lon": 0.1356806, "tags": {"amenity": "bicycle_parking", "bicycle_parking": "stands", "capacity": "4"}}, {"type": "node", "id": 7846165688, "lat": 51.5853946, "lon": 0.135227, "tags": {"amenity": "bicycle_parking", "bicycle_parking": "stands", "capacity": "18"}}, {"type": "node", "id": 7846165689, "lat": 51.585147, "lon": 0.1354353, "tags": {"amenity": "bicycle_parking", "bicycle_parking": "stands", "capacity": "10"}}, {"type": "node", "id": 7846165690, "lat": 51.5844774, "lon": 0.1356589, "tags": {"amenity": "bicycle_parking", "bicycle_parking": "stands", "capacity": "6"}}, {"type": "node", "id": 7846968994, "lat": 51.5760963, "lon": 0.1409624, "tags": {"amenity": "bicycle_parking", "bicycle_parking": "stands", "capacity": "4"}}, {"type": "node", "id": 7846968995, "lat": 51.5754772, "lon": 0.1407371, "tags": {"amenity": "bicycle_parking", "bicycle_parking": "stands", "capacity": "4"}}, {"type": "node", "id": 7846968996, "lat": 51.5796467, "lon": 0.1356636, "tags": {"amenity": "bicycle_parking", "bicycle_parking": "hoop", "capacity": "2"}}, {"type": "node", "id": 7846968997, "lat": 51.5793015, "lon": 0.1357295, "tags": {"amenity": "bicycle_parking", "bicycle_parking": "hoop", "capacity": "2"}}, {"type": "node", "id": 7846968998, "lat": 51.5823319, "lon": 0.1406691, "tags": {"amenity": "bicycle_parking", "bicycle_parking": "lockers", "capacity": "4", "note": "Own lock"}}, {"type": "node", "id": 7846968999, "lat": 51.5823319, "lon": 0.140647, "tags": {"amenity": "bicycle_parking", "bicycle_parking": "stands", "capacity": "10"}}, {"type": "node", "id": 7846969000, "lat": 51.582338, "lon": 0.1406672, "tags": {"amenity": "bicycle_parking", "bicycle_parking": "lockers", "capacity": "4", "note": "Own lock"}}, {"type": "node", "id": 7849131417, "lat": 51.574035, "lon": 0.1326586, "tags": {"amenity": "bicycle_parking", "bicycle_parking": "stands", "capacity": "8"}}, {"type": "node", "id": 7849521241, "lat": 51.5555613, "lon": 0.0186841, "tags": {"amenity": "bicycle_parking", "bicycle_parking": "stands", "capacity": "10", "covered": "no"}}, {"type": "node", "id": 7854325125, "lat": 51.5723424, "lon": 0.1433476, "tags": {"amenity": "bicycle_parking", "bicycle_parking": "stands", "capacity": "4"}}, {"type": "node", "id": 7854325126, "lat": 51.5723379, "lon": 0.14332, "tags": {"amenity": "bicycle_parking", "bicycle_parking": "stands", "capacity": "4"}}, {"type": "node", "id": 7854325128, "lat": 51.5710112, "lon": 0.1312177, "tags": {"amenity": "bicycle_parking", "bicycle_parking": "stands", "capacity": "6"}}, {"type": "node", "id": 7854325129, "lat": 51.571842, "lon": 0.1351008, "tags": {"amenity": "bicycle_parking", "bicycle_parking": "stands", "capacity": "12"}}, {"type": "node", "id": 7854325130, "lat": 51.5710507, "lon": 0.1321898, "tags": {"amenity": "bicycle_parking", "bicycle_parking": "stands", "capacity": "4", "covered": "no"}}, {"type": "node", "id": 7854325131, "lat": 51.5708993, "lon": 0.1305822, "tags": {"amenity": "bicycle_parking", "bicycle_parking": "stands", "capacity": "6"}}, {"type": "node", "id": 7854325132, "lat": 51.5710554, "lon": 0.1323432, "tags": {"amenity": "bicycle_parking", "bicycle_parking": "stands", "capacity": "4", "covered": "no"}}, {"type": "node", "id": 7854325133, "lat": 51.5711578, "lon": 0.1327724, "tags": {"amenity": "bicycle_parking", "bicycle_parking": "stands", "capacity": "4", "covered": "no"}}, {"type": "node", "id": 7854325134, "lat": 51.5712208, "lon": 0.1330783, "tags": {"amenity": "bicycle_parking", "bicycle_parking": "stands", "capacity": "4"}}, {"type": "node", "id": 7864478407, "lat": 51.5657256, "lon": 0.1434713, "tags": {"amenity": "bicycle_parking", "bicycle_parking": "stands", "capacity": "6"}}, {"type": "node", "id": 7864478408, "lat": 51.5643834, "lon": 0.1462798, "tags": {"amenity": "bicycle_parking", "bicycle_parking": "stands", "capacity": "6"}}, {"type": "node", "id": 7864478409, "lat": 51.5653648, "lon": 0.1449851, "tags": {"amenity": "bicycle_parking", "bicycle_parking": "stands", "capacity": "10"}}, {"type": "node", "id": 7864581165, "lat": 51.56332, "lon": 0.1466615, "tags": {"amenity": "bicycle_parking", "bicycle_parking": "stands", "capacity": "6"}}, {"type": "node", "id": 7864581166, "lat": 51.5625633, "lon": 0.1470548, "tags": {"amenity": "bicycle_parking", "bicycle_parking": "stands", "capacity": "4"}}, {"type": "node", "id": 7864581167, "lat": 51.5636414, "lon": 0.1465282, "tags": {"amenity": "bicycle_parking", "bicycle_parking": "stands", "capacity": "6"}}, {"type": "node", "id": 7864581168, "lat": 51.5619574, "lon": 0.1476462, "tags": {"amenity": "bicycle_parking", "bicycle_parking": "stands", "capacity": "6"}}, {"type": "node", "id": 7865267479, "lat": 51.561135, "lon": 0.1487011, "tags": {"amenity": "bicycle_parking", "bicycle_parking": "stands", "capacity": "24", "covered": "yes"}}, {"type": "node", "id": 7865267480, "lat": 51.5609816, "lon": 0.1494581, "tags": {"amenity": "bicycle_parking", "bicycle_parking": "stands", "capacity": "16", "covered": "yes"}}, {"type": "node", "id": 7865267481, "lat": 51.5608949, "lon": 0.1494673, "tags": {"amenity": "bicycle_parking", "bicycle_parking": "lockers", "capacity": "4", "note": "Own lock"}}, {"type": "node", "id": 7865267482, "lat": 51.5611206, "lon": 0.1494395, "tags": {"amenity": "bicycle_parking", "bicycle_parking": "stands", "capacity": "8"}}, {"type": "node", "id": 7865267483, "lat": 51.5604483, "lon": 0.1474385, "tags": {"amenity": "bicycle_parking", "bicycle_parking": "stands", "capacity": "6"}}, {"type": "node", "id": 7865267484, "lat": 51.5601649, "lon": 0.1478324, "tags": {"amenity": "bicycle_parking", "bicycle_parking": "stands", "capacity": "4"}}, {"type": "node", "id": 7865315985, "lat": 51.560385, "lon": 0.1476991, "tags": {"amenity": "bicycle_parking", "bicycle_parking": "stands", "capacity": "10"}}, {"type": "node", "id": 7865315986, "lat": 51.5604298, "lon": 0.1471965, "tags": {"amenity": "bicycle_parking", "bicycle_parking": "stands", "capacity": "2"}}, {"type": "node", "id": 7865315987, "lat": 51.5603603, "lon": 0.1470935, "tags": {"amenity": "bicycle_parking", "bicycle_parking": "stands", "capacity": "2"}}, {"type": "node", "id": 7865315988, "lat": 51.5612133, "lon": 0.1476914, "tags": {"amenity": "bicycle_parking", "bicycle_parking": "stands", "capacity": "6"}}, {"type": "node", "id": 7865315989, "lat": 51.5608696, "lon": 0.1469211, "tags": {"amenity": "bicycle_parking", "bicycle_parking": "stands", "capacity": "2"}}, {"type": "node", "id": 7865315990, "lat": 51.5602233, "lon": 0.1478431, "tags": {"amenity": "bicycle_parking", "bicycle_parking": "stands", "capacity": "2"}}, {"type": "node", "id": 7865315991, "lat": 51.5605368, "lon": 0.1471137, "tags": {"amenity": "bicycle_parking", "bicycle_parking": "stands", "capacity": "4"}}, {"type": "node", "id": 7865315992, "lat": 51.5611492, "lon": 0.147062, "tags": {"amenity": "bicycle_parking", "bicycle_parking": "stands", "capacity": "2"}}, {"type": "node", "id": 7865315993, "lat": 51.5607138, "lon": 0.1470438, "tags": {"amenity": "bicycle_parking", "bicycle_parking": "stands", "capacity": "4"}}, {"type": "node", "id": 7865315994, "lat": 51.5609532, "lon": 0.1466349, "tags": {"amenity": "bicycle_parking", "bicycle_parking": "stands", "capacity": "2"}}, {"type": "node", "id": 7865579741, "lat": 51.5599187, "lon": 0.1480467, "tags": {"amenity": "bicycle_parking", "bicycle_parking": "stands", "capacity": "4"}}, {"type": "node", "id": 7865579742, "lat": 51.5599763, "lon": 0.1480472, "tags": {"amenity": "bicycle_parking", "bicycle_parking": "stands", "capacity": "4"}}, {"type": "node", "id": 7865983678, "lat": 51.5586899, "lon": 0.1304831, "tags": {"amenity": "bicycle_parking", "bicycle_parking": "stands", "capacity": "4"}}, {"type": "node", "id": 7865983679, "lat": 51.5578743, "lon": 0.1334985, "tags": {"amenity": "bicycle_parking", "bicycle_parking": "stands", "capacity": "12"}}, {"type": "node", "id": 7865983680, "lat": 51.5577382, "lon": 0.1357997, "tags": {"amenity": "bicycle_parking", "bicycle_parking": "stands", "capacity": "8"}}, {"type": "node", "id": 7865983681, "lat": 51.5587933, "lon": 0.1304404, "tags": {"amenity": "bicycle_parking", "bicycle_parking": "stands", "capacity": "4"}}, {"type": "node", "id": 7865983682, "lat": 51.55892, "lon": 0.1357081, "tags": {"amenity": "bicycle_parking", "bicycle_parking": "stands", "capacity": "10", "covered": "yes"}}, {"type": "node", "id": 7865983683, "lat": 51.5581896, "lon": 0.1346863, "tags": {"amenity": "bicycle_parking", "bicycle_parking": "stands", "capacity": "12"}}, {"type": "node", "id": 7865983684, "lat": 51.5629786, "lon": 0.1196049, "tags": {"amenity": "bicycle_parking", "bicycle_parking": "stands", "capacity": "6"}}, {"type": "node", "id": 7865991385, "lat": 51.5616658, "lon": 0.1244721, "tags": {"amenity": "bicycle_parking", "bicycle_parking": "stands", "capacity": "4"}}, {"type": "node", "id": 7865991386, "lat": 51.5626459, "lon": 0.1215339, "tags": {"amenity": "bicycle_parking", "bicycle_parking": "stands", "capacity": "6"}}, {"type": "node", "id": 7865991387, "lat": 51.5630883, "lon": 0.1195964, "tags": {"amenity": "bicycle_parking", "bicycle_parking": "stands", "capacity": "6"}}, {"type": "node", "id": 7865991388, "lat": 51.5627297, "lon": 0.1207153, "tags": {"amenity": "bicycle_parking", "bicycle_parking": "stands", "capacity": "6"}}, {"type": "node", "id": 7865991389, "lat": 51.5622788, "lon": 0.1229744, "tags": {"amenity": "bicycle_parking", "bicycle_parking": "stands", "capacity": "4"}}, {"type": "node", "id": 7865991390, "lat": 51.56186, "lon": 0.1239015, "tags": {"access": "yes", "amenity": "bicycle_parking", "bicycle_parking": "stands", "capacity": "4", "covered": "no"}}, {"type": "node", "id": 7865991391, "lat": 51.5616367, "lon": 0.1247019, "tags": {"amenity": "bicycle_parking", "bicycle_parking": "stands", "capacity": "4"}}, {"type": "node", "id": 7866026813, "lat": 51.5544701, "lon": 0.1415706, "tags": {"amenity": "bicycle_parking", "bicycle_parking": "stands", "capacity": "6", "covered": "no"}}, {"type": "node", "id": 7866026814, "lat": 51.5546503, "lon": 0.1432928, "tags": {"amenity": "bicycle_parking", "bicycle_parking": "stands", "capacity": "4", "covered": "no"}}, {"type": "node", "id": 7866026815, "lat": 51.553955, "lon": 0.1480648, "tags": {"amenity": "bicycle_parking", "bicycle_parking": "upright_stands", "capacity": "6"}}, {"type": "node", "id": 7866026816, "lat": 51.5543833, "lon": 0.1416321, "tags": {"amenity": "bicycle_parking", "bicycle_parking": "stands", "capacity": "2", "covered": "no"}}, {"type": "node", "id": 7873132234, "lat": 51.5438716, "lon": 0.1366931, "tags": {"amenity": "bicycle_parking", "bicycle_parking": "stands", "capacity": "10"}}, {"type": "node", "id": 7873138704, "lat": 51.5462328, "lon": 0.0856896, "tags": {"amenity": "bicycle_parking", "bicycle_parking": "stands", "capacity": "10", "covered": "no"}}, {"type": "node", "id": 7873138705, "lat": 51.5462435, "lon": 0.0876938, "tags": {"amenity": "bicycle_parking", "bicycle_parking": "stands", "capacity": "14", "check_date": "2025-12-06", "covered": "no"}}, {"type": "node", "id": 7873138706, "lat": 51.5454588, "lon": 0.0942737, "tags": {"amenity": "bicycle_parking", "bicycle_parking": "stands", "capacity": "2"}}, {"type": "node", "id": 7873138707, "lat": 51.5456007, "lon": 0.0935179, "tags": {"amenity": "bicycle_parking", "bicycle_parking": "stands", "capacity": "2"}}, {"type": "node", "id": 7873138708, "lat": 51.5457647, "lon": 0.0940111, "tags": {"amenity": "bicycle_parking", "bicycle_parking": "stands", "capacity": "6"}}, {"type": "node", "id": 7873138709, "lat": 51.5461441, "lon": 0.0949014, "tags": {"amenity": "bicycle_parking", "bicycle_parking": "stands", "capacity": "4"}}, {"type": "node", "id": 7873138710, "lat": 51.5455193, "lon": 0.093783, "tags": {"amenity": "bicycle_parking", "bicycle_parking": "stands", "capacity": "8"}}, {"type": "node", "id": 7873138711, "lat": 51.5454641, "lon": 0.0931642, "tags": {"amenity": "bicycle_parking", "bicycle_parking": "stands", "capacity": "2"}}, {"type": "node", "id": 7873138712, "lat": 51.5454272, "lon": 0.0930792, "tags": {"amenity": "bicycle_parking", "bicycle_parking": "stands", "capacity": "2"}}, {"type": "node", "id": 7873138713, "lat": 51.5453315, "lon": 0.0928526, "tags": {"amenity": "bicycle_parking", "bicycle_parking": "stands", "capacity": "2"}}, {"type": "node", "id": 7873138714, "lat": 51.5460934, "lon": 0.0945035, "tags": {"amenity": "bicycle_parking", "bicycle_parking": "stands", "capacity": "6"}}, {"type": "node", "id": 7873138715, "lat": 51.5453647, "lon": 0.0929343, "tags": {"amenity": "bicycle_parking", "bicycle_parking": "stands", "capacity": "2"}}, {"type": "node", "id": 7873138717, "lat": 51.5451673, "lon": 0.0924705, "tags": {"amenity": "bicycle_parking", "bicycle_parking": "stands", "capacity": "2"}}, {"type": "node", "id": 7873138718, "lat": 51.5516997, "lon": 0.1069318, "tags": {"amenity": "bicycle_parking", "bicycle_parking": "hoop", "capacity": "1"}}, {"type": "node", "id": 7873138719, "lat": 51.5516656, "lon": 0.1068921, "tags": {"amenity": "bicycle_parking", "bicycle_parking": "hoop", "capacity": "1"}}, {"type": "node", "id": 7873138720, "lat": 51.5517298, "lon": 0.1069716, "tags": {"amenity": "bicycle_parking", "bicycle_parking": "hoop", "capacity": "1"}}, {"type": "node", "id": 7873138721, "lat": 51.5521952, "lon": 0.1130972, "tags": {"amenity": "bicycle_parking", "bicycle_parking": "stands", "capacity": "8"}}, {"type": "node", "id": 7873138722, "lat": 51.5518537, "lon": 0.1146316, "tags": {"amenity": "bicycle_parking", "bicycle_parking": "stands", "capacity": "6"}}, {"type": "node", "id": 7873138723, "lat": 51.5516681, "lon": 0.1150719, "tags": {"amenity": "bicycle_parking", "bicycle_parking": "stands", "capacity": "4"}}, {"type": "node", "id": 7873138724, "lat": 51.5545646, "lon": 0.1180114, "tags": {"amenity": "bicycle_parking", "bicycle_parking": "stands", "capacity": "6"}}, {"type": "node", "id": 7873138725, "lat": 51.5516786, "lon": 0.1148275, "tags": {"amenity": "bicycle_parking", "bicycle_parking": "stands", "capacity": "4"}}, {"type": "node", "id": 7873138726, "lat": 51.5545612, "lon": 0.1175713, "tags": {"amenity": "bicycle_parking", "bicycle_parking": "stands", "capacity": "6"}}, {"type": "node", "id": 7873138727, "lat": 51.5544005, "lon": 0.1177979, "tags": {"amenity": "bicycle_parking", "bicycle_parking": "stands", "capacity": "6"}}, {"type": "node", "id": 7873138728, "lat": 51.5546867, "lon": 0.1177451, "tags": {"amenity": "bicycle_parking", "bicycle_parking": "stands", "capacity": "6"}}, {"type": "node", "id": 7873138729, "lat": 51.5514866, "lon": 0.1139145, "tags": {"amenity": "bicycle_parking", "bicycle_parking": "stands", "capacity": "4"}}, {"type": "node", "id": 7873138730, "lat": 51.5516777, "lon": 0.11306, "tags": {"amenity": "bicycle_parking", "bicycle_parking": "stands", "capacity": "4"}}, {"type": "node", "id": 7873138731, "lat": 51.552116, "lon": 0.1130497, "tags": {"amenity": "bicycle_parking", "bicycle_parking": "stands", "capacity": "8", "covered": "yes"}}, {"type": "node", "id": 7873138732, "lat": 51.5516476, "lon": 0.1135297, "tags": {"amenity": "bicycle_parking", "bicycle_parking": "stands", "capacity": "4"}}, {"type": "node", "id": 7873176931, "lat": 51.5687976, "lon": 0.1297226, "tags": {"amenity": "bicycle_parking", "bicycle_parking": "stands", "capacity": "8"}}, {"type": "node", "id": 7873176932, "lat": 51.5613512, "lon": 0.1404948, "tags": {"amenity": "bicycle_parking", "bicycle_parking": "stands", "capacity": "4"}}, {"type": "node", "id": 7873176933, "lat": 51.5613161, "lon": 0.1408236, "tags": {"amenity": "bicycle_parking", "bicycle_parking": "stands", "capacity": "4"}}, {"type": "node", "id": 7873176934, "lat": 51.5451239, "lon": 0.1106676, "tags": {"amenity": "bicycle_parking", "bicycle_parking": "stands", "capacity": "4"}}, {"type": "node", "id": 7873176935, "lat": 51.5517033, "lon": 0.1306157, "tags": {"amenity": "bicycle_parking", "bicycle_parking": "stands", "capacity": "4"}}, {"type": "node", "id": 7873176936, "lat": 51.5518317, "lon": 0.1313698, "tags": {"amenity": "bicycle_parking", "bicycle_parking": "stands", "capacity": "1"}}, {"type": "node", "id": 7873176937, "lat": 51.5513757, "lon": 0.1305456, "tags": {"amenity": "bicycle_parking", "bicycle_parking": "stands", "capacity": "4"}}, {"type": "node", "id": 8418284356, "lat": 51.6094593, "lon": 0.0123167, "tags": {"amenity": "bicycle_parking", "bicycle_parking": "stands", "capacity": "12", "covered": "no"}}, {"type": "node", "id": 8422237288, "lat": 51.6106283, "lon": 0.0121703, "tags": {"amenity": "bicycle_parking", "bicycle_parking": "stands", "capacity": "6", "covered": "no"}}, {"type": "node", "id": 8565508513, "lat": 51.5487736, "lon": 0.0247967, "tags": {"amenity": "bicycle_parking", "bicycle_parking": "stands", "capacity": "2", "covered": "no", "lit": "yes"}}, {"type": "node", "id": 8569610055, "lat": 51.5549555, "lon": 0.011528, "tags": {"access": "customers", "amenity": "bicycle_parking", "bicycle_parking": "stands", "capacity": "6", "check_date:capacity": "2023-06-05", "covered": "yes", "ref": "1424"}}, {"type": "node", "id": 8580804481, "lat": 51.5557392, "lon": 0.0208499, "tags": {"access": "customers", "amenity": "bicycle_parking", "bicycle_parking": "stands", "capacity": "6", "covered": "yes", "ref": "1430"}}, {"type": "node", "id": 8618160619, "lat": 51.5471767, "lon": 0.0086883, "tags": {"access": "customers", "amenity": "bicycle_parking", "bicycle_parking": "stands", "capacity": "6", "covered": "yes", "operator": "Cyclehoop Rentals", "operator:type": "private", "ref": "2376", "website": "https://cyclehoop.force.com/RentalsCommunity/yourcycleparking?id=a0h3X00003bvsAeQAI"}}, {"type": "node", "id": 8626837533, "lat": 51.5562219, "lon": 0.0157228, "tags": {"access": "customers", "amenity": "bicycle_parking", "bicycle_parking": "stands", "capacity": "6", "check_date:capacity": "2023-06-05", "covered": "yes", "operator:type": "private", "ref": "1563"}}, {"type": "node", "id": 8626837534, "lat": 51.5576727, "lon": 0.0172025, "tags": {"access": "customers", "amenity": "bicycle_parking", "bicycle_parking": "stands", "capacity": "6", "covered": "yes", "operator:type": "private"}}, {"type": "node", "id": 8638427281, "lat": 51.5554713, "lon": 0.0153592, "tags": {"access": "customers", "amenity": "bicycle_parking", "bicycle_parking": "stands", "capacity": "6", "covered": "yes", "operator:type": "private", "ref": "2742"}}, {"type": "node", "id": 8638427284, "lat": 51.5504358, "lon": 0.0188285, "tags": {"access": "customers", "amenity": "bicycle_parking", "bicycle_parking": "stands", "capacity": "6", "covered": "yes", "operator:type": "private", "ref": "1325", "website": "https://cyclehoop.force.com/RentalsCommunity/yourcycleparking?id=a0h0O00002OCMEpQAP"}}, {"type": "node", "id": 8826715701, "lat": 51.5654866, "lon": 0.0100757, "tags": {"amenity": "bicycle_parking", "bicycle_parking": "stands", "capacity": "4", "check_date:capacity": "2024-02-04", "covered": "no"}}, {"type": "node", "id": 8972234719, "lat": 51.5540985, "lon": 0.1419143, "tags": {"amenity": "bicycle_parking", "bicycle_parking": "stands", "capacity": "8", "covered": "no"}}, {"type": "node", "id": 9149390327, "lat": 51.5557738, "lon": 0.0104516, "tags": {"access": "customers", "amenity": "bicycle_parking", "bicycle_parking": "stands", "capacity": "6", "covered": "yes"}}, {"type": "node", "id": 9318263840, "lat": 51.5679871, "lon": 0.1284713, "tags": {"access": "customers", "amenity": "bicycle_parking", "bicycle_parking": "two-tier", "capacity": "16", "covered": "yes", "fee": "no"}}, {"type": "node", "id": 9318263841, "lat": 51.5674153, "lon": 0.1294421, "tags": {"access": "yes", "amenity": "bicycle_parking", "bicycle_parking": "stands", "capacity": "8", "covered": "no", "fee": "no"}}, {"type": "node", "id": 9334748397, "lat": 51.6071677, "lon": 0.0337469, "tags": {"access": "yes", "amenity": "bicycle_parking", "bicycle_parking": "stands", "capacity": "16", "covered": "yes", "fee": "no", "source": "survey"}}, {"type": "node", "id": 9361055235, "lat": 51.6170171, "lon": 0.026513, "tags": {"amenity": "bicycle_parking", "bicycle_parking": "wall_loops", "capacity": "5"}}, {"type": "node", "id": 9367614270, "lat": 51.5475107, "lon": 0.0350292, "tags": {"amenity": "bicycle_parking", "bicycle_parking": "stands", "capacity": "2", "check_date": "2025-10-14", "covered": "no", "ref:GB:tflcid": "RWG156859"}}, {"type": "node", "id": 9381758342, "lat": 51.5446099, "lon": 0.0496829, "tags": {"amenity": "bicycle_parking", "bicycle_parking": "stands", "capacity": "2", "check_date": "2022-01-02", "covered": "no", "ref:GB:tflcid": "RWG156662"}}, {"type": "node", "id": 9381758343, "lat": 51.5453412, "lon": 0.0492959, "tags": {"amenity": "bicycle_parking", "bicycle_parking": "stands", "capacity": "2", "check_date": "2017-10-16", "ref:GB:tflcid": "RWG156671"}}, {"type": "node", "id": 9381758344, "lat": 51.5459174, "lon": 0.0491356, "tags": {"amenity": "bicycle_parking", "bicycle_parking": "stands", "capacity": "2", "check_date": "2022-01-02", "covered": "no", "ref:GB:tflcid": "RWG156665"}}, {"type": "node", "id": 9383751720, "lat": 51.5780287, "lon": 0.0095666, "tags": {"amenity": "bicycle_parking", "bicycle_parking": "stands", "capacity": "10"}}, {"type": "node", "id": 9412197132, "lat": 51.5502947, "lon": 0.046476, "tags": {"amenity": "bicycle_parking", "bicycle_parking": "stands", "capacity": "2", "check_date": "2017-10-20", "ref:GB:tflcid": "RWG156825"}}, {"type": "node", "id": 9562651673, "lat": 51.5659011, "lon": 0.0414988, "tags": {"amenity": "bicycle_parking", "bicycle_parking": "stands", "capacity": "6", "check_date:capacity": "2025-04-21", "covered": "no"}}, {"type": "node", "id": 9562651674, "lat": 51.5660332, "lon": 0.0415176, "tags": {"amenity": "bicycle_parking", "bicycle_parking": "stands", "capacity": "6", "check_date:capacity": "2025-04-21", "covered": "no"}}, {"type": "node", "id": 9661515504, "lat": 51.5577391, "lon": 0.0444971, "tags": {"access": "yes", "amenity": "bicycle_parking", "bicycle_parking": "wall_loops", "capacity": "6", "covered": "no", "fee": "no"}}, {"type": "node", "id": 9674030607, "lat": 51.5700766, "lon": 0.0383872, "tags": {"amenity": "bicycle_parking", "bicycle_parking": "stands", "capacity": "4", "covered": "no"}}, {"type": "node", "id": 9674030608, "lat": 51.5679455, "lon": 0.0417967, "tags": {"amenity": "bicycle_parking", "bicycle_parking": "stands", "capacity": "4", "covered": "no"}}, {"type": "node", "id": 9674188760, "lat": 51.5570564, "lon": 0.0259958, "tags": {"amenity": "bicycle_parking", "bicycle_parking": "stands", "capacity": "4", "covered": "no"}}, {"type": "node", "id": 9674188761, "lat": 51.5627467, "lon": 0.0333729, "tags": {"amenity": "bicycle_parking", "bicycle_parking": "stands", "capacity": "4", "covered": "no"}}, {"type": "node", "id": 9674188762, "lat": 51.5564307, "lon": 0.0206346, "tags": {"amenity": "bicycle_parking", "bicycle_parking": "stands", "capacity": "4", "covered": "no"}}, {"type": "node", "id": 9674907290, "lat": 51.5591721, "lon": 0.0110092, "tags": {"amenity": "bicycle_parking", "bicycle_parking": "stands", "capacity": "6", "covered": "no"}}, {"type": "node", "id": 9689450694, "lat": 51.6099305, "lon": 0.0111143, "tags": {"amenity": "bicycle_parking", "bicycle_parking": "stands", "capacity": "4", "covered": "no"}}, {"type": "node", "id": 9757128358, "lat": 51.5672089, "lon": 0.010452, "tags": {"amenity": "bicycle_parking", "bicycle_parking": "stands", "capacity": "4", "covered": "no"}}, {"type": "node", "id": 9760024189, "lat": 51.5550104, "lon": 0.0459677, "tags": {"amenity": "bicycle_parking", "bicycle_parking": "stands", "capacity": "4", "covered": "no", "fixme": "Precise location needs to be checked with a gps survey"}}, {"type": "node", "id": 9760024190, "lat": 51.5550959, "lon": 0.0415689, "tags": {"amenity": "bicycle_parking", "bicycle_parking": "stands", "capacity": "4", "covered": "no", "fixme": "Precise location needs to be checked with a gps survey"}}, {"type": "node", "id": 9762416895, "lat": 51.5593694, "lon": 0.0398389, "tags": {"amenity": "bicycle_parking", "bicycle_parking": "stands", "capacity": "4", "covered": "no"}}, {"type": "node", "id": 9762433624, "lat": 51.5599466, "lon": 0.0158096, "tags": {"amenity": "bicycle_parking", "bicycle_parking": "stands", "capacity": "4", "covered": "no", "fixme": "Precise location needs to be checked with a gps survey"}}, {"type": "node", "id": 9762443190, "lat": 51.5715184, "lon": 0.038398, "tags": {"amenity": "bicycle_parking", "bicycle_parking": "stands", "capacity": "4", "check_date": "2022-06-04", "covered": "no"}}, {"type": "node", "id": 9762443191, "lat": 51.5657151, "lon": 0.0482884, "tags": {"amenity": "bicycle_parking", "bicycle_parking": "stands", "capacity": "4", "covered": "no", "fixme": "Precise location needs to be checked with a gps survey"}}, {"type": "node", "id": 9762443192, "lat": 51.5679276, "lon": 0.0433054, "tags": {"amenity": "bicycle_parking", "bicycle_parking": "stands", "capacity": "4", "covered": "no"}}, {"type": "node", "id": 9762443193, "lat": 51.565945, "lon": 0.0327196, "tags": {"amenity": "bicycle_parking", "bicycle_parking": "stands", "capacity": "4", "check_date": "2022-06-25", "covered": "no"}}, {"type": "node", "id": 9762443194, "lat": 51.5661351, "lon": 0.0250894, "tags": {"amenity": "bicycle_parking", "bicycle_parking": "stands", "capacity": "4", "covered": "no", "fixme": "Precise location needs to be checked with a gps survey"}}, {"type": "node", "id": 9762785037, "lat": 51.5992704, "lon": 0.0123261, "tags": {"amenity": "bicycle_parking", "bicycle_parking": "stands", "capacity": "4", "covered": "no", "fixme": "Precise location needs to be checked with a gps survey"}}, {"type": "node", "id": 9762790539, "lat": 51.5738757, "lon": 0.0416815, "tags": {"amenity": "bicycle_parking", "bicycle_parking": "stands", "capacity": "4", "covered": "no", "fixme": "Precise location needs to be checked with a gps survey"}}, {"type": "node", "id": 9762814922, "lat": 51.578173, "lon": 0.0106443, "tags": {"amenity": "bicycle_parking", "bicycle_parking": "stands", "capacity": "4", "covered": "no", "fixme": "Precise location needs to be checked with a gps survey"}}, {"type": "node", "id": 9762835700, "lat": 51.5852414, "lon": 0.0095156, "tags": {"amenity": "bicycle_parking", "bicycle_parking": "stands", "capacity": "4", "covered": "no"}}, {"type": "node", "id": 9762843622, "lat": 51.5949043, "lon": 0.0114463, "tags": {"amenity": "bicycle_parking", "bicycle_parking": "stands", "capacity": "4", "covered": "no", "fixme": "Precise location needs to be checked with a gps survey"}}, {"type": "node", "id": 9777683930, "lat": 51.6179423, "lon": 0.0374622, "tags": {"amenity": "bicycle_parking", "bicycle_parking": "stands", "capacity": "4", "covered": "no", "fixme": "Check exact location"}}, {"type": "node", "id": 9777683932, "lat": 51.6268449, "lon": 0.0216681, "tags": {"amenity": "bicycle_parking", "bicycle_parking": "stands", "capacity": "4", "covered": "no", "fixme": "Check exact location"}}, {"type": "node", "id": 9777683936, "lat": 51.6189884, "lon": 0.0090434, "tags": {"amenity": "bicycle_parking", "bicycle_parking": "stands", "capacity": "4", "covered": "no"}}, {"type": "node", "id": 9794632617, "lat": 51.5672573, "lon": 0.0155034, "tags": {"amenity": "bicycle_parking", "bicycle_parking": "lockers", "check_date": "2022-06-04", "ref": "1941"}}, {"type": "node", "id": 9794646717, "lat": 51.5673988, "lon": 0.0135853, "tags": {"access": "private", "amenity": "bicycle_parking", "bicycle_parking": "shed", "check_date": "2022-06-04", "operator": "Waltham Forest", "ref": "216"}}, {"type": "node", "id": 9795526018, "lat": 51.5581775, "lon": 0.0188213, "tags": {"amenity": "bicycle_parking", "bicycle_parking": "stands", "capacity": "14", "covered": "no"}}, {"type": "node", "id": 9821323836, "lat": 51.5664447, "lon": 0.0188069, "tags": {"amenity": "bicycle_parking", "bicycle_parking": "stands", "capacity": "2", "covered": "no"}}, {"type": "node", "id": 9822428274, "lat": 51.5626655, "lon": 0.0092455, "tags": {"amenity": "bicycle_parking", "bicycle_parking": "stands", "capacity": "2", "check_date:capacity": "2025-11-01", "covered": "no"}}, {"type": "node", "id": 9823178647, "lat": 51.5695685, "lon": 0.012598, "tags": {"amenity": "bicycle_parking", "bicycle_parking": "stands", "capacity": "4", "covered": "no"}}, {"type": "node", "id": 9831675379, "lat": 51.5685757, "lon": 0.0109392, "tags": {"access": "customers", "amenity": "bicycle_parking", "bicycle_parking": "stands", "capacity": "10", "covered": "no", "surface": "paving_stones"}}, {"type": "node", "id": 9833121019, "lat": 51.5750685, "lon": 0.0264702, "tags": {"amenity": "bicycle_parking", "bicycle_parking": "stands", "capacity": "6", "covered": "no"}}, {"type": "node", "id": 9846727482, "lat": 51.5633531, "lon": 0.03293, "tags": {"amenity": "bicycle_parking", "bicycle_parking": "stands", "capacity": "4", "covered": "no"}}, {"type": "node", "id": 9863557893, "lat": 51.5659249, "lon": 0.1124018, "tags": {"amenity": "bicycle_parking", "bicycle_parking": "stands", "capacity": "8", "covered": "no"}}, {"type": "node", "id": 9864018926, "lat": 51.5636484, "lon": 0.032659, "tags": {"amenity": "bicycle_parking", "bicycle_parking": "stands", "capacity": "5", "covered": "no"}}, {"type": "node", "id": 9891345017, "lat": 51.563227, "lon": 0.0139384, "tags": {"amenity": "bicycle_parking", "bicycle_parking": "stands", "capacity": "2", "check_date": "2022-07-16", "covered": "no"}}, {"type": "node", "id": 9930440434, "lat": 51.565646, "lon": 0.0165813, "tags": {"amenity": "bicycle_parking", "bicycle_parking": "stands", "capacity": "2"}}, {"type": "node", "id": 9937572218, "lat": 51.5756056, "lon": 0.0282595, "tags": {"amenity": "bicycle_parking", "bicycle_parking": "stands", "capacity": "14", "check_date": "2022-08-07", "covered": "no"}}, {"type": "node", "id": 9938881468, "lat": 51.5785831, "lon": 0.0258041, "tags": {"amenity": "bicycle_parking", "bicycle_parking": "stands", "capacity": "6", "covered": "no"}}, {"type": "node", "id": 9939004241, "lat": 51.5775776, "lon": 0.0264749, "tags": {"amenity": "bicycle_parking", "bicycle_parking": "stands", "capacity": "6", "covered": "no"}}, {"type": "node", "id": 10124058300, "lat": 51.5514026, "lon": 0.019669, "tags": {"access": "customers", "amenity": "bicycle_parking", "bicycle_parking": "stands", "capacity": "6", "covered": "yes", "operator": "Cyclehoop Rentals", "operator:type": "private", "ref": "2885"}}, {"type": "node", "id": 10221663184, "lat": 51.5854977, "lon": 0.0095975, "tags": {"amenity": "bicycle_parking", "bicycle_parking": "wall_loops", "capacity": "10", "covered": "yes"}}, {"type": "node", "id": 10277984627, "lat": 51.5654598, "lon": 0.1046933, "tags": {"amenity": "bicycle_parking", "bicycle_parking": "stands", "capacity": "8", "ref:GB:tflcid": "RWG156841"}}, {"type": "node", "id": 10277984628, "lat": 51.5655702, "lon": 0.1045819, "tags": {"amenity": "bicycle_parking", "bicycle_parking": "stands", "capacity": "4", "ref:GB:tflcid": "RWG156766"}}, {"type": "node", "id": 10277984629, "lat": 51.5671066, "lon": 0.1174281, "tags": {"amenity": "bicycle_parking", "bicycle_parking": "stands", "capacity": "12", "ref:GB:tflcid": "RWG156619"}}, {"type": "node", "id": 10277984630, "lat": 51.5671733, "lon": 0.1173831, "tags": {"amenity": "bicycle_parking", "bicycle_parking": "stands", "capacity": "2", "ref:GB:tflcid": "RWG156618"}}, {"type": "node", "id": 10277984943, "lat": 51.5669832, "lon": 0.1122982, "tags": {"amenity": "bicycle_parking", "capacity": "12", "ref:GB:tflcid": "RWG156666"}}, {"type": "node", "id": 10277984944, "lat": 51.5656899, "lon": 0.1105621, "tags": {"amenity": "bicycle_parking", "bicycle_parking": "stands", "capacity": "6", "ref:GB:tflcid": "RWG156669"}}, {"type": "node", "id": 10277984945, "lat": 51.5675266, "lon": 0.1172465, "tags": {"amenity": "bicycle_parking", "bicycle_parking": "stands", "capacity": "2", "covered": "no", "ref:GB:tflcid": "RWG156616"}}, {"type": "node", "id": 10277984946, "lat": 51.5673733, "lon": 0.1172815, "tags": {"amenity": "bicycle_parking", "bicycle_parking": "stands", "capacity": "2", "covered": "no", "ref:GB:tflcid": "RWG156617"}}, {"type": "node", "id": 10277986716, "lat": 51.5650316, "lon": 0.1019823, "tags": {"amenity": "bicycle_parking", "bicycle_parking": "stands", "capacity": "4", "covered": "no", "ref:GB:tflcid": "RWG156759"}}, {"type": "node", "id": 10277986717, "lat": 51.5655999, "lon": 0.1111165, "tags": {"amenity": "bicycle_parking", "bicycle_parking": "stands", "capacity": "10", "covered": "yes", "ref:GB:tflcid": "RWG289768"}}, {"type": "node", "id": 10277986829, "lat": 51.5651232, "lon": 0.1037146, "tags": {"amenity": "bicycle_parking", "bicycle_parking": "stands", "capacity": "6", "ref:GB:tflcid": "RWG156844"}}, {"type": "node", "id": 10277986830, "lat": 51.5653098, "lon": 0.1032749, "tags": {"amenity": "bicycle_parking", "bicycle_parking": "stands", "capacity": "4", "ref:GB:tflcid": "RWG156807"}}, {"type": "node", "id": 10277986831, "lat": 51.5663322, "lon": 0.1082754, "tags": {"amenity": "bicycle_parking", "bicycle_parking": "stands", "capacity": "4", "ref:GB:tflcid": "RWG156768"}}, {"type": "node", "id": 10280269990, "lat": 51.5739382, "lon": 0.0663076, "tags": {"amenity": "bicycle_parking", "bicycle_parking": "stands", "capacity": "8", "ref:GB:tflcid": "RWG220556"}}, {"type": "node", "id": 10280269991, "lat": 51.5772329, "lon": 0.0655833, "tags": {"amenity": "bicycle_parking", "bicycle_parking": "stands", "capacity": "4", "fee": "no", "ref:GB:tflcid": "RWG220541"}}, {"type": "node", "id": 10280269992, "lat": 51.5582343, "lon": 0.0750412, "tags": {"amenity": "bicycle_parking", "bicycle_parking": "stands", "capacity": "12", "ref:GB:tflcid": "RWG157213"}}, {"type": "node", "id": 10280269993, "lat": 51.5583769, "lon": 0.0749853, "tags": {"amenity": "bicycle_parking", "bicycle_parking": "stands", "capacity": "10", "ref:GB:tflcid": "RWG157214"}}, {"type": "node", "id": 10280270645, "lat": 51.5761454, "lon": 0.0660612, "tags": {"amenity": "bicycle_parking", "bicycle_parking": "stands", "capacity": "18", "fee": "no", "ref:GB:tflcid": "RWG220542"}}, {"type": "node", "id": 10280270646, "lat": 51.5763921, "lon": 0.0677248, "tags": {"amenity": "bicycle_parking", "bicycle_parking": "stands", "capacity": "14", "ref:GB:tflcid": "RWG220535"}}, {"type": "node", "id": 10280270717, "lat": 51.5582479, "lon": 0.0746112, "tags": {"amenity": "bicycle_parking", "bicycle_parking": "stands", "capacity": "8", "ref:GB:tflcid": "RWG157215"}}, {"type": "node", "id": 10280270718, "lat": 51.5594836, "lon": 0.0754791, "tags": {"amenity": "bicycle_parking", "bicycle_parking": "stands", "capacity": "6", "ref:GB:tflcid": "RWG157211"}}, {"type": "node", "id": 10280270721, "lat": 51.5498586, "lon": 0.0112456, "tags": {"amenity": "bicycle_parking", "bicycle_parking": "stands", "capacity": "2", "ref:GB:tflcid": "RWG289769"}}, {"type": "node", "id": 10280273723, "lat": 51.5583963, "lon": 0.0757404, "tags": {"amenity": "bicycle_parking", "bicycle_parking": "stands", "capacity": "6", "ref:GB:tflcid": "RWG157212"}}, {"type": "node", "id": 10280273729, "lat": 51.5508037, "lon": 0.0119486, "tags": {"amenity": "bicycle_parking", "bicycle_parking": "stands", "capacity": "2", "ref:GB:tflcid": "RWG156643"}}, {"type": "node", "id": 10280274711, "lat": 51.5763203, "lon": 0.0669383, "tags": {"amenity": "bicycle_parking", "bicycle_parking": "stands", "capacity": "10", "ref:GB:tflcid": "RWG220539"}}, {"type": "node", "id": 10280274712, "lat": 51.5765343, "lon": 0.0670705, "tags": {"amenity": "bicycle_parking", "bicycle_parking": "stands", "capacity": "14", "ref:GB:tflcid": "RWG220540"}}, {"type": "node", "id": 10280274713, "lat": 51.5588056, "lon": 0.0745129, "tags": {"amenity": "bicycle_parking", "bicycle_parking": "stands", "capacity": "12", "ref:GB:tflcid": "RWG157219"}}, {"type": "node", "id": 10280281653, "lat": 51.5604998, "lon": 0.0794015, "tags": {"amenity": "bicycle_parking", "bicycle_parking": "upright_stands", "capacity": "6", "covered": "yes", "ref:GB:tflcid": "RWG157157"}}, {"type": "node", "id": 10280282736, "lat": 51.5600663, "lon": 0.0783089, "tags": {"amenity": "bicycle_parking", "bicycle_parking": "upright_stands", "capacity": "4", "ref:GB:tflcid": "RWG157209"}}, {"type": "node", "id": 10280282737, "lat": 51.5599982, "lon": 0.0780206, "tags": {"amenity": "bicycle_parking", "bicycle_parking": "upright_stands", "capacity": "4", "ref:GB:tflcid": "RWG157210"}}, {"type": "node", "id": 10280282738, "lat": 51.5605414, "lon": 0.0793832, "tags": {"amenity": "bicycle_parking", "bicycle_parking": "upright_stands", "capacity": "7", "covered": "yes", "ref:GB:tflcid": "RWG157156"}}, {"type": "node", "id": 10280284110, "lat": 51.5605115, "lon": 0.0793975, "tags": {"amenity": "bicycle_parking", "bicycle_parking": "stands", "capacity": "1", "covered": "yes", "ref:GB:tflcid": "RWG157159"}}, {"type": "node", "id": 10280284111, "lat": 51.5604899, "lon": 0.0794052, "tags": {"amenity": "bicycle_parking", "bicycle_parking": "stands", "capacity": "1", "covered": "yes", "ref:GB:tflcid": "RWG157158"}}, {"type": "node", "id": 10280284112, "lat": 51.5596823, "lon": 0.0823142, "tags": {"amenity": "bicycle_parking", "bicycle_parking": "stands", "capacity": "8", "ref:GB:tflcid": "RWG156865"}}, {"type": "node", "id": 10280297128, "lat": 51.5572807, "lon": 0.0161696, "tags": {"amenity": "bicycle_parking", "bicycle_parking": "stands", "capacity": "2", "covered": "no", "ref:GB:tflcid": "RWG148989"}}, {"type": "node", "id": 10280297129, "lat": 51.5574771, "lon": 0.0159922, "tags": {"amenity": "bicycle_parking", "capacity": "2", "ref:GB:tflcid": "RWG148990"}}, {"type": "node", "id": 10280297130, "lat": 51.557055, "lon": 0.0154709, "tags": {"amenity": "bicycle_parking", "capacity": "2", "ref:GB:tflcid": "RWG148988"}}, {"type": "node", "id": 10280297131, "lat": 51.5542763, "lon": 0.0169916, "tags": {"access": "private", "amenity": "bicycle_parking", "bicycle_parking": "shed", "capacity": "6", "covered": "yes", "on_carriageway": "yes", "operator": "Cyclehoop Rentals", "ref:GB:tflcid": "RWG148997"}}, {"type": "node", "id": 10281975255, "lat": 51.5813069, "lon": 0.0215996, "tags": {"amenity": "bicycle_parking", "bicycle_parking": "post_hoop", "capacity": "4", "covered": "no", "ref:GB:tflcid": "RWG156981"}}, {"type": "node", "id": 10281975294, "lat": 51.5548734, "lon": 0.0598496, "tags": {"amenity": "bicycle_parking", "bicycle_parking": "stands", "capacity": "12", "ref:GB:tflcid": "RWG157068"}}, {"type": "node", "id": 10281975295, "lat": 51.5571277, "lon": 0.0663554, "tags": {"amenity": "bicycle_parking", "bicycle_lock": "bring_own", "bicycle_parking": "lockers", "capacity": "7", "covered": "yes", "ref:GB:tflcid": "RWG157222"}}, {"type": "node", "id": 10281975296, "lat": 51.5571188, "lon": 0.066368, "tags": {"amenity": "bicycle_parking", "bicycle_lock": "bring_own", "bicycle_parking": "lockers", "capacity": "7", "covered": "yes", "ref:GB:tflcid": "RWG157223"}}, {"type": "node", "id": 10281997732, "lat": 51.5813911, "lon": 0.021469, "tags": {"amenity": "bicycle_parking", "bicycle_parking": "post_hoop", "capacity": "2", "covered": "no", "ref:GB:tflcid": "RWG156982"}}, {"type": "node", "id": 10281997733, "lat": 51.5815791, "lon": 0.0211589, "tags": {"amenity": "bicycle_parking", "bicycle_parking": "post_hoop", "capacity": "4", "covered": "no", "ref:GB:tflcid": "RWG156984"}}, {"type": "node", "id": 10281997734, "lat": 51.579816, "lon": 0.0238616, "tags": {"amenity": "bicycle_parking", "bicycle_parking": "stands", "capacity": "4", "ref:GB:tflcid": "RWG156648"}}, {"type": "node", "id": 10281997765, "lat": 51.5575658, "lon": 0.0657972, "tags": {"amenity": "bicycle_parking", "capacity": "2", "covered": "yes", "ref:GB:tflcid": "RWG157220"}}, {"type": "node", "id": 10281997766, "lat": 51.557577, "lon": 0.065789, "tags": {"amenity": "bicycle_parking", "capacity": "4", "covered": "yes", "ref:GB:tflcid": "RWG157221"}}, {"type": "node", "id": 10281997808, "lat": 51.56974, "lon": 0.0154176, "tags": {"amenity": "bicycle_parking", "bicycle_parking": "post_hoop", "capacity": "6", "ref:GB:tflcid": "RWG148912"}}, {"type": "node", "id": 10281997818, "lat": 51.5814973, "lon": 0.0213049, "tags": {"amenity": "bicycle_parking", "bicycle_parking": "post_hoop", "capacity": "2", "covered": "no", "ref:GB:tflcid": "RWG156983"}}, {"type": "node", "id": 10281998443, "lat": 51.5688236, "lon": 0.0093297, "tags": {"amenity": "bicycle_parking", "bicycle_parking": "stands", "capacity": "2", "covered": "no", "ref:GB:tflcid": "RWG148787"}}, {"type": "node", "id": 10281998957, "lat": 51.5756718, "lon": 0.0252406, "tags": {"amenity": "bicycle_parking", "bicycle_parking": "stands", "capacity": "10", "covered": "no", "ref:GB:tflcid": "RWG156634"}}, {"type": "node", "id": 10281998985, "lat": 51.5679109, "lon": 0.0107682, "tags": {"amenity": "bicycle_parking", "capacity": "4", "covered": "no", "ref:GB:tflcid": "RWG186391"}}, {"type": "node", "id": 10281999087, "lat": 51.5766481, "lon": 0.0293741, "tags": {"access": "private", "amenity": "bicycle_parking", "bicycle_parking": "shed", "capacity": "6", "covered": "yes", "operator": "Cyclehoop Rentals", "ref:GB:tflcid": "RWG156672"}}, {"type": "node", "id": 10282005809, "lat": 51.5683405, "lon": 0.0169295, "tags": {"access": "private", "amenity": "bicycle_parking", "bicycle_parking": "shed", "bicycle_parking:stands": "p_stand", "capacity": "6", "covered": "yes", "on_carriageway": "yes", "operator": "Cyclehoop Rentals", "ref:GB:tflcid": "RWG148913"}}, {"type": "node", "id": 10282005810, "lat": 51.5695998, "lon": 0.0161722, "tags": {"access": "private", "amenity": "bicycle_parking", "bicycle_parking": "shed", "capacity": "6", "covered": "yes", "on_carriageway": "yes", "operator": "Cyclehoop Rentals", "ref:GB:tflcid": "RWG148914"}}, {"type": "node", "id": 10282005811, "lat": 51.5702068, "lon": 0.0136556, "tags": {"amenity": "bicycle_parking", "bicycle_parking": "stands", "capacity": "4", "ref:GB:tflcid": "RWG148780"}}, {"type": "node", "id": 10282005812, "lat": 51.5689008, "lon": 0.0130028, "tags": {"access": "private", "amenity": "bicycle_parking", "bicycle_parking": "shed", "capacity": "12", "covered": "yes", "on_carriageway": "yes", "operator": "Cyclehoop Rentals", "ref:GB:tflcid": "RWG148987"}}, {"type": "node", "id": 10282006018, "lat": 51.5771028, "lon": 0.0311568, "tags": {"access": "private", "amenity": "bicycle_parking", "bicycle_parking": "shed", "capacity": "6", "covered": "yes", "operator": "Cyclehoop Rentals", "ref:GB:tflcid": "RWG156673"}}, {"type": "node", "id": 10282006122, "lat": 51.5477522, "lon": 0.0478983, "tags": {"access": "private", "amenity": "bicycle_parking", "bicycle_parking": "shed", "capacity": "6", "covered": "yes", "operator": "Cyclehoop Rentals", "ref:GB:tflcid": "RWG156684"}}, {"type": "node", "id": 10282006215, "lat": 51.5460177, "lon": 0.0769348, "tags": {"amenity": "bicycle_parking", "bicycle_parking": "stands", "capacity": "28", "covered": "yes", "ref:GB:tflcid": "RWG156819"}}, {"type": "node", "id": 10282006217, "lat": 51.566719, "lon": 0.0877391, "tags": {"amenity": "bicycle_parking", "bicycle_parking": "stands", "capacity": "10", "ref:GB:tflcid": "RWG157160"}}, {"type": "node", "id": 10282006238, "lat": 51.5485095, "lon": 0.0169543, "tags": {"amenity": "bicycle_parking", "capacity": "8", "ref:GB:tflcid": "RWG289772"}}, {"type": "node", "id": 10282006256, "lat": 51.6096982, "lon": 0.0453999, "tags": {"amenity": "bicycle_parking", "bicycle_parking": "stands", "capacity": "8", "covered": "no", "ref:GB:tflcid": "RWG156544"}}, {"type": "node", "id": 10282006262, "lat": 51.5665432, "lon": 0.016666, "tags": {"access": "private", "amenity": "bicycle_parking", "bicycle_parking": "shed", "capacity": "6", "covered": "yes", "on_carriageway": "yes", "operator": "Cyclehoop Rentals", "ref:GB:tflcid": "RWG186395"}}, {"type": "node", "id": 10282006312, "lat": 51.5938409, "lon": 0.0239589, "tags": {"amenity": "bicycle_parking", "bicycle_parking": "stands", "capacity": "7", "ref:GB:tflcid": "RWG156579"}}, {"type": "node", "id": 10282006413, "lat": 51.5591432, "lon": 0.0830575, "tags": {"amenity": "bicycle_parking", "bicycle_parking": "stands", "capacity": "6", "ref:GB:tflcid": "RWG156864"}}, {"type": "node", "id": 10282006417, "lat": 51.5476366, "lon": 0.0471118, "tags": {"access": "private", "amenity": "bicycle_parking", "bicycle_parking": "shed", "capacity": "12", "covered": "yes", "operator": "Cyclehoop Rentals", "ref:GB:tflcid": "RWG156680"}}, {"type": "node", "id": 10282006425, "lat": 51.5560938, "lon": 0.0898572, "tags": {"amenity": "bicycle_parking", "capacity": "4", "ref:GB:tflcid": "RWG289761"}}, {"type": "node", "id": 10282006431, "lat": 51.5764971, "lon": 0.0618226, "tags": {"amenity": "bicycle_parking", "bicycle_parking": "stands", "capacity": "8", "ref:GB:tflcid": "RWG156628"}}, {"type": "node", "id": 10282006438, "lat": 51.5997295, "lon": 0.0759615, "tags": {"amenity": "bicycle_parking", "bicycle_parking": "stands", "capacity": "6", "ref:GB:tflcid": "RWG220509"}}, {"type": "node", "id": 10282006478, "lat": 51.5802745, "lon": 0.0733297, "tags": {"amenity": "bicycle_parking", "bicycle_parking": "stands", "capacity": "6", "ref:GB:tflcid": "RWG156585"}}, {"type": "node", "id": 10282006535, "lat": 51.5557766, "lon": 0.0222147, "tags": {"access": "private", "amenity": "bicycle_parking", "bicycle_parking": "shed", "capacity": "6", "covered": "yes", "on_carriageway": "yes", "operator": "Cyclehoop Rentals", "ref:GB:tflcid": "RWG156729"}}, {"type": "node", "id": 10282007484, "lat": 51.5479844, "lon": 0.0798413, "tags": {"amenity": "bicycle_parking", "bicycle_parking": "stands", "capacity": "6", "ref:GB:tflcid": "RWG156920"}}, {"type": "node", "id": 10282007495, "lat": 51.6140222, "lon": 0.1169778, "tags": {"amenity": "bicycle_parking", "bicycle_lock": "provided", "bicycle_parking": "stands", "capacity": "12", "ref:GB:tflcid": "RWG156656"}}, {"type": "node", "id": 10282007496, "lat": 51.6132526, "lon": 0.1184349, "tags": {"amenity": "bicycle_parking", "bicycle_lock": "provided", "bicycle_parking": "stands", "capacity": "12", "ref:GB:tflcid": "RWG156659"}}, {"type": "node", "id": 10282007497, "lat": 51.6134991, "lon": 0.1317928, "tags": {"amenity": "bicycle_parking", "bicycle_parking": "stands", "capacity": "4", "covered": "no", "ref:GB:tflcid": "RWG156918"}}, {"type": "node", "id": 10282007508, "lat": 51.5642533, "lon": 0.0761553, "tags": {"access": "private", "amenity": "bicycle_parking", "bicycle_parking": "shed", "capacity": "6", "covered": "yes", "operator": "Cyclehoop Rentals", "ref:GB:tflcid": "RWG156611"}}, {"type": "node", "id": 10282007512, "lat": 51.5677051, "lon": 0.0108546, "tags": {"amenity": "bicycle_parking", "capacity": "4", "ref:GB:tflcid": "RWG186389"}}, {"type": "node", "id": 10282007513, "lat": 51.5676688, "lon": 0.0108343, "tags": {"amenity": "bicycle_parking", "capacity": "6", "ref:GB:tflcid": "RWG186390"}}, {"type": "node", "id": 10282007514, "lat": 51.5654622, "lon": 0.0110979, "tags": {"access": "private", "amenity": "bicycle_parking", "bicycle_parking": "shed", "bicycle_parking:stands": "p_stand", "capacity": "6", "covered": "yes", "on_carriageway": "yes", "operator": "Cyclehoop Rentals", "ref:GB:tflcid": "RWG148954"}}, {"type": "node", "id": 10282007559, "lat": 51.5577227, "lon": 0.0738023, "tags": {"amenity": "bicycle_parking", "bicycle_parking": "stands", "capacity": "8", "ref:GB:tflcid": "RWG157216"}}, {"type": "node", "id": 10282007560, "lat": 51.5499773, "lon": 0.0749286, "tags": {"amenity": "bicycle_parking", "bicycle_parking": "stands", "capacity": "6", "ref:GB:tflcid": "RWG156817"}}, {"type": "node", "id": 10282007562, "lat": 51.5568506, "lon": 0.0694396, "tags": {"amenity": "bicycle_parking", "bicycle_parking": "stands", "capacity": "4", "ref:GB:tflcid": "RWG157228"}}, {"type": "node", "id": 10282007563, "lat": 51.5559439, "lon": 0.0712349, "tags": {"amenity": "bicycle_parking", "bicycle_parking": "stands", "capacity": "6", "ref:GB:tflcid": "RWG157225"}}, {"type": "node", "id": 10282007570, "lat": 51.608306, "lon": 0.1031458, "tags": {"amenity": "bicycle_parking", "bicycle_parking": "stands", "capacity": "6", "ref:GB:tflcid": "RWG156594"}}, {"type": "node", "id": 10282007578, "lat": 51.5723454, "lon": 0.065468, "tags": {"amenity": "bicycle_parking", "bicycle_parking": "stands", "capacity": "12", "ref:GB:tflcid": "RWG289765"}}, {"type": "node", "id": 10282007579, "lat": 51.5642776, "lon": 0.0762047, "tags": {"access": "private", "amenity": "bicycle_parking", "bicycle_parking": "shed", "capacity": "12", "covered": "yes", "operator": "Cyclehoop Rentals", "ref:GB:tflcid": "RWG156612"}}, {"type": "node", "id": 10282007639, "lat": 51.5568214, "lon": 0.0695975, "tags": {"amenity": "bicycle_parking", "bicycle_parking": "stands", "capacity": "4", "ref:GB:tflcid": "RWG157226"}}, {"type": "node", "id": 10282007724, "lat": 51.5677348, "lon": 0.0106825, "tags": {"amenity": "bicycle_parking", "capacity": "4", "ref:GB:tflcid": "RWG186392"}}, {"type": "node", "id": 10282007849, "lat": 51.6002373, "lon": 0.055712, "tags": {"amenity": "bicycle_parking", "bicycle_parking": "stands", "capacity": "6", "ref:GB:tflcid": "RWG220506"}}, {"type": "node", "id": 10282007850, "lat": 51.5677699, "lon": 0.1172631, "tags": {"amenity": "bicycle_parking", "bicycle_parking": "stands", "capacity": "12", "ref:GB:tflcid": "RWG156615"}}, {"type": "node", "id": 10282007851, "lat": 51.5677579, "lon": 0.1169369, "tags": {"amenity": "bicycle_parking", "bicycle_parking": "stands", "capacity": "8", "ref:GB:tflcid": "RWG156620"}}, {"type": "node", "id": 10282007891, "lat": 51.5704179, "lon": 0.1290219, "tags": {"amenity": "bicycle_parking", "bicycle_parking": "stands", "capacity": "6", "ref:GB:tflcid": "RWG156609"}}, {"type": "node", "id": 10282007900, "lat": 51.5921566, "lon": 0.08421, "tags": {"amenity": "bicycle_parking", "bicycle_parking": "stands", "capacity": "4", "ref:GB:tflcid": "RWG157051"}}, {"type": "node", "id": 10282007946, "lat": 51.5838946, "lon": 0.057805, "tags": {"amenity": "bicycle_parking", "capacity": "4", "ref:GB:tflcid": "RWG157325"}}, {"type": "node", "id": 10282007947, "lat": 51.5779295, "lon": 0.0578612, "tags": {"access": "private", "amenity": "bicycle_parking", "bicycle_parking": "shed", "capacity": "6", "covered": "yes", "operator": "Cyclehoop Rentals", "ref:GB:tflcid": "RWG156789"}}, {"type": "node", "id": 10282007948, "lat": 51.5977585, "lon": 0.0635686, "tags": {"amenity": "bicycle_parking", "bicycle_lock": "provided", "bicycle_parking": "stands", "capacity": "20", "covered": "yes", "ref:GB:tflcid": "RWG156571"}}, {"type": "node", "id": 10282008313, "lat": 51.5532821, "lon": 0.0733675, "tags": {"amenity": "bicycle_parking", "bicycle_parking": "stands", "capacity": "6", "ref:GB:tflcid": "RWG156810"}}, {"type": "node", "id": 10282008314, "lat": 51.5772886, "lon": 0.0833852, "tags": {"amenity": "bicycle_parking", "bicycle_parking": "stands", "capacity": "6", "ref:GB:tflcid": "RWG156772"}}, {"type": "node", "id": 10282008335, "lat": 51.6058371, "lon": 0.0525054, "tags": {"amenity": "bicycle_parking", "bicycle_parking": "stands", "capacity": "4", "covered": "no", "ref:GB:tflcid": "RWG156575"}}, {"type": "node", "id": 10282008380, "lat": 51.5980283, "lon": 0.0571241, "tags": {"amenity": "bicycle_parking", "bicycle_parking": "stands", "capacity": "6", "ref:GB:tflcid": "RWG156570"}}, {"type": "node", "id": 10282008406, "lat": 51.5590496, "lon": 0.0669204, "tags": {"amenity": "bicycle_parking", "bicycle_parking": "stands", "capacity": "12", "ref:GB:tflcid": "RWG156861"}}, {"type": "node", "id": 10282008407, "lat": 51.5590904, "lon": 0.0670516, "tags": {"amenity": "bicycle_parking", "bicycle_parking": "stands", "capacity": "4", "ref:GB:tflcid": "RWG156862"}}, {"type": "node", "id": 10282008810, "lat": 51.5568793, "lon": 0.0695372, "tags": {"amenity": "bicycle_parking", "bicycle_parking": "stands", "capacity": "2", "ref:GB:tflcid": "RWG157227"}}, {"type": "node", "id": 10282008812, "lat": 51.5929956, "lon": 0.0849503, "tags": {"amenity": "bicycle_parking", "bicycle_parking": "stands", "capacity": "6", "ref:GB:tflcid": "RWG157053"}}, {"type": "node", "id": 10282008826, "lat": 51.6046484, "lon": 0.0959281, "tags": {"amenity": "bicycle_parking", "bicycle_parking": "stands", "capacity": "2", "ref:GB:tflcid": "RWG156596"}}, {"type": "node", "id": 10282009614, "lat": 51.5642957, "lon": 0.0762447, "tags": {"access": "private", "amenity": "bicycle_parking", "bicycle_parking": "shed", "capacity": "6", "covered": "yes", "operator": "Cyclehoop Rentals", "ref:GB:tflcid": "RWG156613"}}, {"type": "node", "id": 10282009619, "lat": 51.5814447, "lon": 0.0582774, "tags": {"amenity": "bicycle_parking", "bicycle_parking": "stands", "capacity": "8", "ref:GB:tflcid": "RWG156917"}}, {"type": "node", "id": 10282010018, "lat": 51.5586882, "lon": 0.0717034, "tags": {"amenity": "bicycle_parking", "bicycle_parking": "stands", "capacity": "6", "ref:GB:tflcid": "RWG157218"}}, {"type": "node", "id": 10282010019, "lat": 51.558634, "lon": 0.0717514, "tags": {"amenity": "bicycle_parking", "bicycle_parking": "stands", "capacity": "6", "ref:GB:tflcid": "RWG157217"}}, {"type": "node", "id": 10282010020, "lat": 51.5577723, "lon": 0.0699928, "tags": {"amenity": "bicycle_parking", "bicycle_parking": "stands", "capacity": "6", "ref:GB:tflcid": "RWG157224"}}, {"type": "node", "id": 10282010021, "lat": 51.5617193, "lon": 0.0699334, "tags": {"amenity": "bicycle_parking", "bicycle_parking": "stands", "capacity": "4", "ref:GB:tflcid": "RWG156610"}}, {"type": "node", "id": 10282010045, "lat": 51.5733898, "lon": 0.0835279, "tags": {"amenity": "bicycle_parking", "bicycle_parking": "stands", "capacity": "2", "ref:GB:tflcid": "RWG999398"}}, {"type": "node", "id": 10282010046, "lat": 51.5738328, "lon": 0.0846456, "tags": {"amenity": "bicycle_parking", "capacity": "8", "ref:GB:tflcid": "RWG156774"}}, {"type": "node", "id": 10282010047, "lat": 51.5750809, "lon": 0.0838048, "tags": {"amenity": "bicycle_parking", "capacity": "12", "ref:GB:tflcid": "RWG156773"}}, {"type": "node", "id": 10282010415, "lat": 51.6059274, "lon": 0.0532981, "tags": {"amenity": "bicycle_parking", "bicycle_parking": "stands", "capacity": "2", "ref:GB:tflcid": "RWG156573"}}, {"type": "node", "id": 10282010416, "lat": 51.6058932, "lon": 0.0530312, "tags": {"amenity": "bicycle_parking", "bicycle_parking": "stands", "capacity": "4", "ref:GB:tflcid": "RWG156574"}}, {"type": "node", "id": 10282010417, "lat": 51.5927463, "lon": 0.0844406, "tags": {"amenity": "bicycle_parking", "bicycle_parking": "stands", "capacity": "12", "ref:GB:tflcid": "RWG157052"}}, {"type": "node", "id": 10282010428, "lat": 51.5928699, "lon": 0.0285208, "tags": {"amenity": "bicycle_parking", "bicycle_parking": "upright_stands", "capacity": "6", "ref:GB:tflcid": "RWG156937"}}, {"type": "node", "id": 10282010429, "lat": 51.5972866, "lon": 0.0215631, "tags": {"amenity": "bicycle_parking", "bicycle_parking": "stands", "capacity": "6", "ref:GB:tflcid": "RWG289781"}}, {"type": "node", "id": 10282010430, "lat": 51.5944273, "lon": 0.0188828, "tags": {"amenity": "bicycle_parking", "bicycle_parking": "upright_stands", "capacity": "5", "ref:GB:tflcid": "RWG156584"}}, {"type": "node", "id": 10282010439, "lat": 51.561145, "lon": 0.0998054, "tags": {"amenity": "bicycle_parking", "bicycle_parking": "stands", "capacity": "6", "ref:GB:tflcid": "RWG156645"}}, {"type": "node", "id": 10282010440, "lat": 51.5593249, "lon": 0.1091595, "tags": {"amenity": "bicycle_parking", "bicycle_parking": "stands", "capacity": "8", "ref:GB:tflcid": "RWG156803"}}, {"type": "node", "id": 10282010467, "lat": 51.5796566, "lon": 0.1125109, "tags": {"amenity": "bicycle_parking", "bicycle_parking": "stands", "capacity": "20", "covered": "yes", "ref:GB:tflcid": "RWG157326"}}, {"type": "node", "id": 10282010471, "lat": 51.5547156, "lon": 0.0462846, "tags": {"amenity": "bicycle_parking", "bicycle_parking": "stands", "capacity": "6", "ref:GB:tflcid": "RWG156840"}}, {"type": "node", "id": 10282015717, "lat": 51.5471798, "lon": 0.0806093, "tags": {"amenity": "bicycle_parking", "bicycle_parking": "stands", "capacity": "6", "ref:GB:tflcid": "RWG156922"}}, {"type": "node", "id": 10282015737, "lat": 51.5617759, "lon": 0.0911469, "tags": {"amenity": "bicycle_parking", "bicycle_parking": "stands", "capacity": "24", "covered": "yes", "ref:GB:tflcid": "RWG157161"}}, {"type": "node", "id": 10282015759, "lat": 51.6095958, "lon": 0.0218846, "tags": {"amenity": "bicycle_parking", "bicycle_parking": "stands", "capacity": "6", "ref:GB:tflcid": "RWG156599"}}, {"type": "node", "id": 10282015769, "lat": 51.5456837, "lon": 0.0600343, "tags": {"access": "private", "amenity": "bicycle_parking", "bicycle_parking": "shed", "capacity": "6", "covered": "yes", "operator": "Cyclehoop Rentals", "ref:GB:tflcid": "RWG156633"}}, {"type": "node", "id": 10282015770, "lat": 51.5678802, "lon": 0.0714668, "tags": {"amenity": "bicycle_parking", "bicycle_parking": "stands", "capacity": "6", "ref:GB:tflcid": "RWG289762"}}, {"type": "node", "id": 10282016929, "lat": 51.5687472, "lon": 0.0092688, "tags": {"amenity": "bicycle_parking", "bicycle_parking": "stands", "capacity": "2", "covered": "no", "ref:GB:tflcid": "RWG148785"}}, {"type": "node", "id": 10282018130, "lat": 51.5476505, "lon": 0.0479347, "tags": {"access": "private", "amenity": "bicycle_parking", "bicycle_parking": "shed", "capacity": "6", "covered": "yes", "on_carriageway": "yes", "operator": "Cyclehoop Rentals", "ref:GB:tflcid": "RWG156679"}}, {"type": "node", "id": 10282018911, "lat": 51.548092, "lon": 0.0465118, "tags": {"access": "private", "amenity": "bicycle_parking", "bicycle_parking": "shed", "capacity": "6", "covered": "yes", "operator": "Cyclehoop Rentals", "ref:GB:tflcid": "RWG156683"}}, {"type": "node", "id": 10282020609, "lat": 51.592837, "lon": 0.0285074, "tags": {"amenity": "bicycle_parking", "bicycle_parking": "stands", "capacity": "6", "ref:GB:tflcid": "RWG156936"}}, {"type": "node", "id": 10282021816, "lat": 51.5479375, "lon": 0.0472587, "tags": {"access": "private", "amenity": "bicycle_parking", "bicycle_parking": "shed", "capacity": "6", "covered": "yes", "operator": "Cyclehoop Rentals", "ref:GB:tflcid": "RWG156681"}}, {"type": "node", "id": 10282021847, "lat": 51.5705742, "lon": 0.1290892, "tags": {"amenity": "bicycle_parking", "bicycle_parking": "stands", "capacity": "6", "ref:GB:tflcid": "RWG156601"}}, {"type": "node", "id": 10282021860, "lat": 51.5909703, "lon": 0.0824672, "tags": {"amenity": "bicycle_parking", "bicycle_parking": "stands", "capacity": "6", "ref:GB:tflcid": "RWG157054"}}, {"type": "node", "id": 10282024119, "lat": 51.6046518, "lon": 0.0960438, "tags": {"amenity": "bicycle_parking", "bicycle_parking": "stands", "capacity": "16", "ref:GB:tflcid": "RWG156595"}}, {"type": "node", "id": 10282024137, "lat": 51.5727422, "lon": 0.1259276, "tags": {"amenity": "bicycle_parking", "bicycle_parking": "stands", "capacity": "6", "ref:GB:tflcid": "RWG156740"}}, {"type": "node", "id": 10282024138, "lat": 51.5729918, "lon": 0.1256422, "tags": {"amenity": "bicycle_parking", "bicycle_parking": "stands", "capacity": "6", "ref:GB:tflcid": "RWG156674"}}, {"type": "node", "id": 10282024148, "lat": 51.5796498, "lon": 0.1125473, "tags": {"amenity": "bicycle_parking", "bicycle_lock": "provided", "bicycle_parking": "stands", "capacity": "20", "covered": "yes", "ref:GB:tflcid": "RWG156568"}}, {"type": "node", "id": 10282027010, "lat": 51.5549737, "lon": 0.0239481, "tags": {"access": "private", "amenity": "bicycle_parking", "bicycle_parking": "shed", "capacity": "6", "covered": "yes", "on_carriageway": "yes", "operator": "Cyclehoop Rentals", "ref:GB:tflcid": "RWG156728"}}, {"type": "node", "id": 10282027028, "lat": 51.5536016, "lon": 0.035032, "tags": {"access": "private", "amenity": "bicycle_parking", "bicycle_parking": "shed", "capacity": "6", "covered": "yes", "on_carriageway": "yes", "operator": "Cyclehoop Rentals", "ref:GB:tflcid": "RWG156765"}}, {"type": "node", "id": 10294825426, "lat": 51.6081025, "lon": 0.0230863, "tags": {"amenity": "bicycle_parking", "bicycle_parking": "stands", "capacity": "8", "covered": "no"}}, {"type": "node", "id": 10308641119, "lat": 51.5517909, "lon": 0.114669, "tags": {"amenity": "bicycle_parking", "bicycle_parking": "stands", "capacity": "6"}}, {"type": "node", "id": 10308641123, "lat": 51.5520539, "lon": 0.1147151, "tags": {"amenity": "bicycle_parking", "capacity": "4"}}, {"type": "node", "id": 10583773852, "lat": 51.561293, "lon": 0.0759328, "tags": {"amenity": "bicycle_parking", "capacity": "6"}}, {"type": "node", "id": 10587016949, "lat": 51.5766379, "lon": 0.0655517, "tags": {"amenity": "bicycle_parking", "capacity": "12"}}, {"type": "node", "id": 10606333425, "lat": 51.5543791, "lon": 0.0783101, "tags": {"access": "private", "amenity": "bicycle_parking", "covered": "yes", "source": "streetside"}}, {"type": "node", "id": 10683108416, "lat": 51.5455186, "lon": 0.0607723, "tags": {"access": "private", "amenity": "bicycle_parking", "bicycle_parking": "shed", "capacity": "6", "covered": "yes"}}, {"type": "node", "id": 10683108417, "lat": 51.545099, "lon": 0.0615041, "tags": {"access": "private", "amenity": "bicycle_parking", "bicycle_parking": "shed", "capacity": "6", "covered": "yes"}}, {"type": "node", "id": 10683108418, "lat": 51.5449196, "lon": 0.062335, "tags": {"access": "private", "amenity": "bicycle_parking", "bicycle_parking": "shed", "capacity": "6", "covered": "yes"}}, {"type": "node", "id": 10683108606, "lat": 51.5447415, "lon": 0.0631648, "tags": {"access": "private", "amenity": "bicycle_parking", "bicycle_parking": "shed", "capacity": "6", "covered": "yes"}}, {"type": "node", "id": 10686049060, "lat": 51.5582351, "lon": 0.0689232, "tags": {"amenity": "bicycle_parking"}}, {"type": "node", "id": 10686049061, "lat": 51.5582968, "lon": 0.0688672, "tags": {"amenity": "bicycle_parking"}}, {"type": "node", "id": 10728702190, "lat": 51.5901333, "lon": 0.0823322, "tags": {"access": "yes", "amenity": "bicycle_parking", "covered": "no", "fee": "no", "source": "local knowledge;streetlevel imagery"}}, {"type": "node", "id": 10760189534, "lat": 51.5574246, "lon": 0.0723063, "tags": {"amenity": "bicycle_parking"}}, {"type": "node", "id": 10781722449, "lat": 51.5573049, "lon": 0.0720931, "tags": {"amenity": "bicycle_parking", "capacity": "6"}}, {"type": "node", "id": 10781728931, "lat": 51.5568909, "lon": 0.0715797, "tags": {"amenity": "bicycle_parking", "capacity": "12"}}, {"type": "node", "id": 10938432923, "lat": 51.5699073, "lon": 0.0134609, "tags": {"amenity": "bicycle_parking", "bicycle_parking": "stands", "capacity": "4"}}, {"type": "node", "id": 10945257233, "lat": 51.5637901, "lon": 0.0139994, "tags": {"amenity": "bicycle_parking", "bicycle_parking": "stands", "capacity": "4", "covered": "no"}}, {"type": "node", "id": 10945305641, "lat": 51.5638066, "lon": 0.0142133, "tags": {"amenity": "bicycle_parking", "bicycle_parking": "stands", "capacity": "6", "check_date:capacity": "2025-11-01", "covered": "no"}}, {"type": "node", "id": 11036100776, "lat": 51.606042, "lon": 0.0538957, "tags": {"access": "yes", "amenity": "bicycle_parking", "bicycle_parking": "stands", "capacity": "6", "covered": "no", "fee": "no", "operator:type": "public"}}, {"type": "node", "id": 11072072268, "lat": 51.5868581, "lon": 0.0807929, "tags": {"access": "yes", "amenity": "bicycle_parking", "covered": "no", "fee": "no"}}, {"type": "node", "id": 11322690609, "lat": 51.590312, "lon": 0.0817901, "tags": {"access": "yes", "amenity": "bicycle_parking", "covered": "no", "fee": "no", "source": "local knowledge;survey;streetlevel imagery"}}, {"type": "node", "id": 11352289977, "lat": 51.5897963, "lon": 0.0818493, "tags": {"access": "yes", "amenity": "bicycle_parking", "covered": "no", "fee": "no", "source": "local knowledge;streetlevel imagery"}}, {"type": "node", "id": 11446049723, "lat": 51.5771344, "lon": 0.0269544, "tags": {"amenity": "bicycle_parking", "bicycle_parking": "stands", "capacity": "6", "covered": "no"}}, {"type": "node", "id": 11456391496, "lat": 51.5763562, "lon": 0.0659465, "tags": {"amenity": "bicycle_parking", "bicycle_parking": "stands", "capacity": "10", "fee": "no"}}, {"type": "node", "id": 11459526773, "lat": 51.5769184, "lon": 0.0676113, "tags": {"amenity": "bicycle_parking", "bicycle_parking": "safe_loops", "capacity": "10", "fee": "no"}}, {"type": "node", "id": 11484021500, "lat": 51.5930919, "lon": 0.0858886, "tags": {"amenity": "bicycle_parking", "bicycle_parking": "lockers", "covered": "no"}}, {"type": "node", "id": 11542943323, "lat": 51.5757086, "lon": 0.0679992, "tags": {"amenity": "bicycle_parking", "capacity": "10"}}, {"type": "node", "id": 11543657110, "lat": 51.5695524, "lon": 0.1245223, "tags": {"amenity": "bicycle_parking", "capacity": "8"}}, {"type": "node", "id": 11824611641, "lat": 51.5509491, "lon": 0.0150617, "tags": {"access": "private", "amenity": "bicycle_parking", "bicycle_parking": "shed", "capacity": "6", "covered": "yes"}}, {"type": "node", "id": 11997916327, "lat": 51.5858235, "lon": 0.0815799, "tags": {"access": "customers", "amenity": "bicycle_parking", "fee": "no"}}, {"type": "node", "id": 12100163387, "lat": 51.5568238, "lon": 0.0173115, "tags": {"access": "yes", "amenity": "bicycle_parking", "bicycle_parking": "stands", "capacity": "5", "covered": "no", "fee": "no"}}, {"type": "node", "id": 12269021322, "lat": 51.5962028, "lon": 0.0214494, "tags": {"amenity": "bicycle_parking", "bicycle_parking": "stands", "capacity": "10", "covered": "no", "layer": "1"}}, {"type": "node", "id": 12269021323, "lat": 51.5958252, "lon": 0.0216011, "tags": {"amenity": "bicycle_parking", "bicycle_parking": "stands", "capacity": "6", "covered": "no", "layer": "1"}}, {"type": "node", "id": 12269021324, "lat": 51.5959743, "lon": 0.0215324, "tags": {"amenity": "bicycle_parking", "bicycle_parking": "stands", "capacity": "6", "covered": "no", "layer": "1"}}, {"type": "node", "id": 12269041064, "lat": 51.5972316, "lon": 0.0215094, "tags": {"amenity": "bicycle_parking", "bicycle_parking": "stands", "capacity": "6"}}, {"type": "node", "id": 12862424386, "lat": 51.559209, "lon": 0.0693395, "tags": {"amenity": "bicycle_parking", "bicycle_parking": "two-tier", "covered": "yes"}}, {"type": "node", "id": 12862438115, "lat": 51.5591841, "lon": 0.0691375, "tags": {"amenity": "bicycle_parking", "bicycle_parking": "two-tier", "covered": "yes"}}, {"type": "node", "id": 13159514916, "lat": 51.565879, "lon": 0.0552753, "tags": {"access": "private", "amenity": "bicycle_parking", "bicycle_parking": "shed", "covered": "yes", "operator": "Cyclehoop"}}, {"type": "node", "id": 13164690405, "lat": 51.5469689, "lon": 0.0128773, "tags": {"access": "customers", "amenity": "bicycle_parking", "bicycle_parking": "shed", "brand": "Cyclehoop", "capacity": "6", "covered": "yes", "fee": "yes", "ref": "5764"}}, {"type": "node", "id": 13164765163, "lat": 51.5504746, "lon": 0.017756, "tags": {"access": "customers", "amenity": "bicycle_parking", "bicycle_parking": "shed", "brand": "Cyclehoop", "capacity": "6", "covered": "yes", "ref": "2889"}}, {"type": "node", "id": 13171918880, "lat": 51.552997, "lon": 0.0089164, "tags": {"access": "customers", "amenity": "bicycle_parking", "bicycle_parking": "shed", "brand": "London Borough of Waltham Forest", "capacity": "6", "covered": "yes", "operator": "Bikehanger", "operator:type": "private"}}, {"type": "node", "id": 13171918881, "lat": 51.5543858, "lon": 0.0104176, "tags": {"access": "customers", "amenity": "bicycle_parking", "bicycle_parking": "shed", "brand": "London Borough of Waltham Forest", "capacity": "6", "covered": "yes", "operator": "Bikehanger", "operator:type": "private"}}, {"type": "node", "id": 13232436788, "lat": 51.5534516, "lon": 0.0201197, "tags": {"access": "customers", "amenity": "bicycle_parking", "bicycle_parking": "shed", "capacity": "6", "check_date": "2025-10-13", "covered": "yes", "operator": "Cyclehoop", "operator:type": "private"}}, {"type": "node", "id": 13232436789, "lat": 51.5529124, "lon": 0.020001, "tags": {"access": "customers", "amenity": "bicycle_parking", "bicycle_parking": "shed", "capacity": "6", "check_date": "2025-10-13", "covered": "yes", "operator": "Cyclehoop", "operator:type": "private", "ref": "Bikehangar 5098"}}, {"type": "node", "id": 13273126038, "lat": 51.5463009, "lon": 0.0116153, "tags": {"access": "private", "amenity": "bicycle_parking", "bicycle_parking": "shed", "capacity": "6", "covered": "yes", "on_carriageway": "yes", "operator": "Cyclehoop Rentals", "ref": "2879"}}, {"type": "node", "id": 13299558802, "lat": 51.5467452, "lon": 0.019888, "tags": {"access": "private", "amenity": "bicycle_parking", "bicycle_parking": "shed", "capacity": "6", "check_date": "2025-11-11", "covered": "yes"}}, {"type": "node", "id": 13299558803, "lat": 51.5473378, "lon": 0.0232819, "tags": {"access": "private", "amenity": "bicycle_parking", "bicycle_parking": "shed", "capacity": "6", "check_date": "2025-11-11", "covered": "yes"}}, {"type": "node", "id": 13321744331, "lat": 51.5476601, "lon": 0.0186862, "tags": {"access": "customers", "amenity": "bicycle_parking", "bicycle_parking": "shed", "brand": "Cyclehoop", "capacity": "6", "check_date": "2025-11-20", "covered": "yes", "fee": "yes", "ref": "4568"}}, {"type": "node", "id": 13321744332, "lat": 51.5515006, "lon": 0.0225514, "tags": {"access": "customers", "amenity": "bicycle_parking", "bicycle_parking": "shed", "brand": "Cyclehoop", "capacity": "6", "check_date": "2025-11-20", "covered": "yes", "fee": "yes"}}, {"type": "node", "id": 13321744333, "lat": 51.5519642, "lon": 0.0218481, "tags": {"access": "customers", "amenity": "bicycle_parking", "bicycle_parking": "shed", "brand": "Cyclehoop", "capacity": "6", "check_date": "2025-11-20", "covered": "yes", "fee": "yes"}}, {"type": "node", "id": 13321744334, "lat": 51.5548427, "lon": 0.018844, "tags": {"access": "customers", "amenity": "bicycle_parking", "bicycle_parking": "shed", "brand": "Cyclehoop", "capacity": "6", "check_date": "2025-11-20", "covered": "yes", "fee": "yes"}}, {"type": "node", "id": 13321744335, "lat": 51.5546462, "lon": 0.0183004, "tags": {"access": "customers", "amenity": "bicycle_parking", "bicycle_parking": "shed", "brand": "Cyclehoop", "capacity": "6", "check_date": "2025-11-20", "covered": "yes", "fee": "yes"}}, {"type": "node", "id": 13321744336, "lat": 51.5545871, "lon": 0.0180885, "tags": {"access": "customers", "amenity": "bicycle_parking", "bicycle_parking": "shed", "brand": "Cyclehoop", "capacity": "6", "check_date": "2025-11-20", "covered": "yes", "fee": "yes"}}, {"type": "node", "id": 13321744337, "lat": 51.5545268, "lon": 0.0176576, "tags": {"access": "customers", "amenity": "bicycle_parking", "bicycle_parking": "shed", "brand": "Cyclehoop", "capacity": "6", "check_date": "2025-11-20", "covered": "yes", "fee": "yes"}}, {"type": "node", "id": 13321744338, "lat": 51.554458, "lon": 0.0174155, "tags": {"access": "customers", "amenity": "bicycle_parking", "bicycle_parking": "shed", "brand": "Cyclehoop", "capacity": "6", "check_date": "2025-11-20", "covered": "yes", "fee": "yes"}}, {"type": "node", "id": 13321744340, "lat": 51.5559768, "lon": 0.0141631, "tags": {"access": "customers", "amenity": "bicycle_parking", "bicycle_parking": "shed", "brand": "Cyclehoop", "capacity": "6", "check_date": "2025-11-20", "covered": "yes", "fee": "yes"}}, {"type": "node", "id": 13329126324, "lat": 51.543931, "lon": 0.0205209, "tags": {"access": "customers", "amenity": "bicycle_parking", "bicycle_parking": "stands", "capacity": "6", "check_date": "2025-11-24", "covered": "yes", "operator:type": "private", "ref": "5741"}}, {"type": "node", "id": 13329126325, "lat": 51.5437942, "lon": 0.0180345, "tags": {"access": "customers", "amenity": "bicycle_parking", "bicycle_parking": "stands", "capacity": "6", "covered": "yes", "operator:type": "private", "ref": "5740"}}, {"type": "node", "id": 13329140716, "lat": 51.5449914, "lon": 0.0302057, "tags": {"access": "customers", "amenity": "bicycle_parking", "bicycle_parking": "stands", "capacity": "6", "check_date": "2025-11-24", "covered": "yes", "operator:type": "private", "ref": "4683"}}, {"type": "node", "id": 13376332166, "lat": 51.5490789, "lon": 0.0294983, "tags": {"access": "customers", "amenity": "bicycle_parking", "bicycle_parking": "stands", "capacity": "6", "check_date": "2025-12", "covered": "yes", "operator:type": "private"}}, {"type": "node", "id": 13396169536, "lat": 51.5454712, "lon": 0.052858, "tags": {"access": "customers", "amenity": "bicycle_parking", "bicycle_parking": "stands", "capacity": "6", "check_date": "2025-12-21", "covered": "yes", "operator:type": "private"}}, {"type": "node", "id": 13396169537, "lat": 51.5453113, "lon": 0.0508312, "tags": {"access": "customers", "amenity": "bicycle_parking", "bicycle_parking": "stands", "capacity": "6", "check_date": "2025-12-21", "covered": "yes", "operator:type": "private"}}, {"type": "node", "id": 13520013260, "lat": 51.548503, "lon": 0.0488254, "tags": {"amenity": "bicycle_parking", "bicycle_parking": "stands", "capacity": "10", "covered": "no"}}, {"type": "way", "id": 228994131, "center": {"lat": 51.5700592, "lon": 0.0135043}, "nodes": [2376361868, 2376361867, 2376361869, 2376361870, 2376361868], "tags": {"amenity": "bicycle_parking", "area": "yes", "bicycle_parking": "stands", "capacity": "16", "covered": "no"}}, {"type": "way", "id": 669681677, "center": {"lat": 51.546667, "lon": 0.0131776}, "nodes": [6271347841, 6271347842, 8983701974, 6271347843, 8983701934, 6271347813, 5278147620, 6271347841], "tags": {"access": "private", "amenity": "bicycle_parking", "capacity": "22", "covered": "yes"}}, {"type": "way", "id": 669681678, "center": {"lat": 51.5465571, "lon": 0.0139799}, "nodes": [6271347844, 6271347848, 6271347845, 6271347846, 6271347847, 6271347844], "tags": {"access": "private", "amenity": "bicycle_parking", "capacity": "22", "covered": "yes"}}, {"type": "way", "id": 710707273, "center": {"lat": 51.5484977, "lon": 0.0100466}, "nodes": [6681821799, 6681821798, 6681821797, 6681821796, 6681821799], "tags": {"amenity": "bicycle_parking", "bicycle_parking": "rack", "capacity": "10", "covered": "yes"}}, {"type": "way", "id": 879875217, "center": {"lat": 51.5503291, "lon": 0.0254976}, "nodes": [8184833285, 8184833284, 8184833283, 8184833282, 8184833285], "tags": {"amenity": "bicycle_parking", "bicycle_parking": "stands", "capacity": "16", "lit": "yes"}}, {"type": "way", "id": 879875256, "center": {"lat": 51.5502203, "lon": 0.0252723}, "nodes": [6839193703, 8184847095, 8184847094, 8184847093, 6839193703], "tags": {"amenity": "bicycle_parking", "bicycle_parking": "stands", "capacity": "16", "covered": "no", "lit": "yes"}}, {"type": "way", "id": 879875264, "center": {"lat": 51.5496426, "lon": 0.024593}, "nodes": [7270639695, 8184847124, 8180263240, 8180263241, 7270639695], "tags": {"amenity": "bicycle_parking", "bicycle_parking": "stands", "capacity": "24", "covered": "no", "lit": "yes", "supervised": "no"}}, {"type": "way", "id": 946589516, "center": {"lat": 51.5541386, "lon": 0.0320348}, "nodes": [8762431092, 8762431093, 8762431094, 8762431095, 8762431092], "tags": {"access": "customers", "amenity": "bicycle_parking", "bicycle_parking": "shed", "capacity": "6", "covered": "yes", "fee": "yes", "operator": "cyclehoop", "operator:type": "private"}}, {"type": "way", "id": 946589517, "center": {"lat": 51.5551145, "lon": 0.0370552}, "nodes": [8762431100, 9029024801, 8762431102, 8762431103, 8762431100], "tags": {"access": "customers", "amenity": "bicycle_parking", "bicycle_parking": "shed", "capacity": "6", "covered": "yes", "fee": "yes", "operator": "cyclehoop", "operator:type": "private"}}, {"type": "way", "id": 946589518, "center": {"lat": 51.555035, "lon": 0.0385249}, "nodes": [9029024800, 9029024799, 8762431107, 8762431108, 9029024800], "tags": {"access": "customers", "amenity": "bicycle_parking", "bicycle_parking": "shed", "capacity": "6", "covered": "yes", "fee": "yes", "operator": "cyclehoop", "operator:type": "private"}}, {"type": "way", "id": 972849852, "center": {"lat": 51.5490132, "lon": 0.0249225}, "nodes": [9004255991, 9004255990, 9004255989, 9004255988, 9004255991], "tags": {"access": "yes", "amenity": "bicycle_parking", "bicycle_parking": "stands", "capacity": "12", "covered": "no", "lit": "yes", "supervised": "no"}}, {"type": "way", "id": 972850822, "center": {"lat": 51.548988, "lon": 0.0247543}, "nodes": [9004282888, 9004282887, 9004282886, 9004282885, 9004282888], "tags": {"access": "yes", "amenity": "bicycle_parking", "bicycle_parking": "stands", "capacity": "8", "covered": "no", "lit": "yes", "supervised": "no"}}, {"type": "way", "id": 975690753, "center": {"lat": 51.5538172, "lon": 0.0259216}, "nodes": [9029011759, 9029011758, 9029011757, 9029011756, 9029011759], "tags": {"access": "customers", "amenity": "bicycle_parking", "bicycle_parking": "shed", "capacity": "6", "covered": "yes", "fee": "yes", "operator": "cyclehoop", "operator:type": "private"}}, {"type": "way", "id": 975690754, "center": {"lat": 51.5544676, "lon": 0.0316675}, "nodes": [9029011763, 9029011762, 9029011761, 9029011760, 9029011763], "tags": {"access": "customers", "amenity": "bicycle_parking", "bicycle_parking": "shed", "capacity": "6", "covered": "yes", "fee": "yes", "operator": "cyclehoop", "operator:type": "private"}}, {"type": "way", "id": 975778956, "center": {"lat": 51.5536446, "lon": 0.0284721}, "nodes": [9029543591, 9029543590, 9029543587, 9029543589, 9029543588, 9029543591], "tags": {"access": "customers", "amenity": "bicycle_parking", "bicycle_parking": "shed", "covered": "yes", "fee": "yes", "operator": "cyclehoop", "operator:type": "private"}}, {"type": "way", "id": 976066122, "center": {"lat": 51.5503019, "lon": 0.0258102}, "nodes": [9032720277, 9032720276, 9032720275, 9032720274, 9032720277], "tags": {"access": "customers", "amenity": "bicycle_parking", "bicycle_parking": "shed", "covered": "yes", "fee": "yes", "operator": "cyclehoop", "operator:type": "private"}}, {"type": "way", "id": 984744630, "center": {"lat": 51.5484512, "lon": 0.0249054}, "nodes": [9104097095, 9104097094, 9104097093, 9104097091, 9104097090, 9104097092, 9104097095], "tags": {"access": "yes", "amenity": "bicycle_parking", "bicycle_parking": "stands", "capacity": "20", "covered": "no", "lit": "yes", "supervised": "no"}}, {"type": "way", "id": 987674629, "center": {"lat": 51.5581345, "lon": 0.0146288}, "nodes": [9129275771, 9129275770, 9129275769, 9129275768, 9129275771], "tags": {"access": "private", "amenity": "bicycle_parking", "bicycle_parking": "stands", "capacity": "128"}}, {"type": "way", "id": 990699054, "center": {"lat": 51.5475851, "lon": 0.0268649}, "nodes": [9154197444, 9154197443, 9154197442, 9154197468, 9154197444], "tags": {"access": "customers", "amenity": "bicycle_parking", "bicycle_parking": "stands", "capacity": "6", "covered": "yes"}}, {"type": "way", "id": 991750753, "center": {"lat": 51.5532865, "lon": 0.0432985}, "nodes": [9163118870, 9163118869, 9163118868, 9163118867, 9163118870], "tags": {"access": "customers", "amenity": "bicycle_parking", "capacity": "6", "covered": "yes"}}, {"type": "way", "id": 992218024, "center": {"lat": 51.5507365, "lon": 0.0135502}, "nodes": [9167474506, 9167474505, 9167474504, 9167474503, 9167474506], "tags": {"access": "private", "amenity": "bicycle_parking", "bicycle_parking": "shed", "capacity": "6", "covered": "yes"}}, {"type": "way", "id": 992218025, "center": {"lat": 51.5522718, "lon": 0.0170216}, "nodes": [9167474510, 9167474509, 9167474508, 9167474507, 9167474510], "tags": {"access": "private", "amenity": "bicycle_parking", "bicycle_parking": "shed", "capacity": "6", "covered": "yes"}}, {"type": "way", "id": 992218026, "center": {"lat": 51.551934, "lon": 0.0118104}, "nodes": [10289896292, 10289896293, 6700765386, 9167474512, 9167474511, 9167474513, 10289896292], "tags": {"access": "private", "amenity": "bicycle_parking", "bicycle_parking": "shed", "covered": "yes", "operator": "Cyclehoop", "ref": "963"}}, {"type": "way", "id": 1005026325, "center": {"lat": 51.5498829, "lon": 0.0436749}, "nodes": [9272805549, 9272805548, 9272805547, 9272805546, 9272805549], "tags": {"access": "customers", "amenity": "bicycle_parking", "capacity": "6", "covered": "yes", "operator": "Mayor of London", "ref": "1841"}}, {"type": "way", "id": 1007105139, "center": {"lat": 51.5447103, "lon": 0.0288713}, "nodes": [9290972498, 9290972497, 9290972496, 9290972495, 9290972498], "tags": {"access": "customers", "amenity": "bicycle_parking", "bicycle_parking": "stands", "capacity": "6", "covered": "yes", "operator:type": "private", "ref": "1836"}}, {"type": "way", "id": 1017908297, "center": {"lat": 51.5682329, "lon": 0.0152595}, "nodes": [9388947174, 9388947170, 9388947173, 9388947172, 9388947171, 9388947174], "tags": {"access": "customers", "amenity": "bicycle_parking", "bicycle_parking": "stands", "capacity": "6", "covered": "yes", "operator:type": "private", "ref": "1462"}}, {"type": "way", "id": 1180252579, "center": {"lat": 51.5640827, "lon": 0.0128627}, "nodes": [10961875027, 10961875041, 10961875028, 10961875029, 10961875030, 10961875027], "tags": {"access": "private", "amenity": "bicycle_parking", "bicycle_parking": "shed", "building": "yes"}}, {"type": "way", "id": 1219625135, "center": {"lat": 51.5868733, "lon": 0.071586}, "nodes": [10705670086, 11300997770, 11300997737, 11300997738, 10705670104, 11300997769, 11300997768, 11300997739, 10705670086], "tags": {"amenity": "bicycle_parking", "bicycle_parking": "shed", "building": "yes"}}, {"type": "way", "id": 1219625145, "center": {"lat": 51.5869077, "lon": 0.0723816}, "nodes": [11300997755, 11300997915, 11300997926, 11300997756, 11300997757, 11300997758, 11300997755], "tags": {"amenity": "bicycle_parking", "bicycle_parking": "shed", "building": "yes"}}, {"type": "way", "id": 1219625148, "center": {"lat": 51.5871428, "lon": 0.0710408}, "nodes": [11300997762, 11300997763, 11300997764, 10705670096, 11300997765, 11300997766, 11300997767, 11195016379, 11300997762], "tags": {"amenity": "bicycle_parking", "bicycle_parking": "shed", "building": "yes"}}, {"type": "way", "id": 1231171903, "center": {"lat": 51.5914281, "lon": 0.0763657}, "nodes": [11418020876, 11418020877, 11418020878, 11418020879, 11418020876], "tags": {"access": "private", "amenity": "bicycle_parking", "bicycle_parking": "shed", "building": "school", "fee": "no"}}, {"type": "way", "id": 1232511727, "center": {"lat": 51.571129, "lon": 0.0564102}, "nodes": [11432872736, 11432872737, 11432872738, 11432872739, 11432872736], "tags": {"access": "private", "amenity": "bicycle_parking", "bicycle_parking": "shed", "building": "yes", "covered": "yes", "fee": "no"}}, {"type": "way", "id": 1232549283, "center": {"lat": 51.5814522, "lon": 0.0517059}, "nodes": [11433206393, 11433206394, 11433206395, 11433206396, 11433206393], "tags": {"access": "private", "amenity": "bicycle_parking", "bicycle_parking": "shed", "building": "yes", "fee": "no"}}]}